{
"type": "FeatureCollection",
"name": "BWA",
"crs": { "type": "name", "properties": { "name": "urn:ogc:def:crs:OGC:1.3:CRS84" } },
"xy_coordinate_resolution": 0.0001,
"features": [
{ "type": "Feature", "properties": { "iso3": "BWA", "unit_id": "29308430B71752552554303", "unit_name": "Gaborone" }, "geometry": { "type": "Polygon", "coordinates": [ [ [ 25.9432, -24.747 ], [ 25.9351, -24.6921 ], [ 25.9574, -24.6688 ], [ 25.9574, -24.6488 ], [ 25.9722, -24.625 ], [ 25.9389, -24.6036 ], [ 25.9451, -24.5879 ], [ 25.9803, -24.5455 ], [ 25.964, -24.5345 ], [ 25.8157, -24.6821 ], [ 25.8318, -24.6955 ], [ 25.8161, -24.7134 ], [ 25.8004, -24.697 ], [ 25.7595, -24.7369 ], [ 25.7916, -24.7612 ], [ 25.8285, -24.7779 ], [ 25.8166, -24.8094 ], [ 25.8267, -24.8159 ], [ 25.8491, -24.7973 ], [ 25.8425, -24.7901 ], [ 25.8442, -24.7806 ], [ 25.8515, -24.775 ], [ 25.8476, -24.7541 ], [ 25.8582, -24.7561 ], [ 25.9112, -24.7529 ], [ 25.9171, -24.7447 ], [ 25.9432, -24.747 ] ] ] } },
{ "type": "Feature", "properties": { "iso3": "BWA", "unit_id": "29308430B64382299119054", "unit_name": "Francistown" }, "geometry": { "type": "Polygon", "coordinates": [ [ [ 27.5364, -21.1301 ], [ 27.5549, -21.0883 ], [ 27.5471, -21.0838 ], [ 27.544, -21.0849 ], [ 27.5439, -21.08 ], [ 27.5394, -21.0776 ], [ 27.5261, -21.076 ], [ 27.5169, -21.0806 ], [ 27.5065, -21.1073 ], [ 27.5082, -21.1171 ], [ 27.5153, -21.1185 ], [ 27.5142, -21.1235 ], [ 27.5095, -21.1293 ], [ 27.4966, -21.1237 ], [ 27.4953, -21.1356 ], [ 27.4981, -21.1425 ], [ 27.4926, -21.1406 ], [ 27.4901, -21.1493 ], [ 27.4952, -21.158 ], [ 27.486, -21.1574 ], [ 27.4922, -21.1634 ], [ 27.4889, -21.1677 ], [ 27.4913, -21.1725 ], [ 27.5055, -21.1843 ], [ 27.5021, -21.1982 ], [ 27.5425, -21.2227 ], [ 27.5651, -21.209 ], [ 27.5653, -21.2021 ], [ 27.5495, -21.1573 ], [ 27.5364, -21.1301 ] ] ] } },
{ "type": "Feature", "properties": { "iso3": "BWA", "unit_id": "29308430B16797379573335", "unit_name": "Lobatse" }, "geometry": { "type": "Polygon", "coordinates": [ [ [ 25.6742, -25.1818 ], [ 25.652, -25.1732 ], [ 25.6479, -25.2181 ], [ 25.661, -25.2265 ], [ 25.6609, -25.2471 ], [ 25.665, -25.2546 ], [ 25.6821, -25.2546 ], [ 25.7041, -25.2388 ], [ 25.7091, -25.2303 ], [ 25.7092, -25.2061 ], [ 25.7132, -25.2005 ], [ 25.7044, -25.1782 ], [ 25.6823, -25.1734 ], [ 25.6823, -25.1818 ], [ 25.6742, -25.1818 ] ] ] } },
{ "type": "Feature", "properties": { "iso3": "BWA", "unit_id": "29308430B60496965611246", "unit_name": "Selibe Phikwe" }, "geometry": { "type": "Polygon", "coordinates": [ [ [ 27.8849, -21.9193 ], [ 27.7909, -21.9173 ], [ 27.7854, -21.9967 ], [ 27.8869, -21.9991 ], [ 27.8849, -21.9193 ] ] ] } },
{ "type": "Feature", "properties": { "iso3": "BWA", "unit_id": "29308430B19204092216221", "unit_name": "Orapa" }, "geometry": { "type": "Polygon", "coordinates": [ [ [ 25.4563, -21.348 ], [ 25.4611, -21.1828 ], [ 25.341, -21.1769 ], [ 25.3407, -21.348 ], [ 25.4563, -21.348 ] ] ] } },
{ "type": "Feature", "properties": { "iso3": "BWA", "unit_id": "29308430B58056765557925", "unit_name": "Jwaneng" }, "geometry": { "type": "Polygon", "coordinates": [ [ [ 24.7727, -24.5863 ], [ 24.7731, -24.5665 ], [ 24.7427, -24.5664 ], [ 24.7416, -24.6154 ], [ 24.7589, -24.6136 ], [ 24.7641, -24.607 ], [ 24.7722, -24.607 ], [ 24.7725, -24.5948 ], [ 24.7815, -24.5948 ], [ 24.7817, -24.5863 ], [ 24.7727, -24.5863 ] ] ] } },
{ "type": "Feature", "properties": { "iso3": "BWA", "unit_id": "29308430B21961885855917", "unit_name": "Sowa Town" }, "geometry": { "type": "Polygon", "coordinates": [ [ [ 26.1517, -20.5972 ], [ 26.2615, -20.5933 ], [ 26.2582, -20.4543 ], [ 26.1514, -20.4563 ], [ 26.1517, -20.5972 ] ] ] } },
{ "type": "Feature", "properties": { "iso3": "BWA", "unit_id": "29308430B86079475185052", "unit_name": "Southern" }, "geometry": { "type": "Polygon", "coordinates": [ [ [ 24.2556, -25.3924 ], [ 24.6697, -25.3694 ], [ 24.6671, -25.3241 ], [ 24.8005, -25.2954 ], [ 24.9392, -25.2556 ], [ 24.9403, -25.2189 ], [ 24.946, -25.1944 ], [ 24.9594, -25.1898 ], [ 24.9677, -25.1823 ], [ 24.9768, -25.1823 ], [ 24.9999, -25.157 ], [ 25.0, -25.1532 ], [ 25.0693, -25.2195 ], [ 25.0821, -25.2356 ], [ 25.0761, -25.2722 ], [ 25.0811, -25.2769 ], [ 25.0809, -25.2845 ], [ 25.2091, -25.2898 ], [ 25.2376, -25.2934 ], [ 25.2487, -25.29 ], [ 25.2925, -25.2902 ], [ 25.3372, -25.2942 ], [ 25.3376, -25.2698 ], [ 25.4128, -25.2739 ], [ 25.43, -25.2824 ], [ 25.4574, -25.2826 ], [ 25.4708, -25.2742 ], [ 25.484, -25.2705 ], [ 25.5054, -25.2706 ], [ 25.5369, -25.2745 ], [ 25.5368, -25.2913 ], [ 25.5409, -25.2914 ], [ 25.5408, -25.3035 ], [ 25.5143, -25.3034 ], [ 25.5142, -25.3193 ], [ 25.5233, -25.3231 ], [ 25.5499, -25.3232 ], [ 25.559, -25.3158 ], [ 25.5805, -25.3158 ], [ 25.6656, -25.0429 ], [ 25.6747, -25.027 ], [ 25.6046, -25.0217 ], [ 25.6664, -24.916 ], [ 25.6407, -24.8875 ], [ 25.7145, -24.8552 ], [ 25.7188, -24.8101 ], [ 25.7179, -24.7774 ], [ 25.6281, -24.7756 ], [ 25.5009, -24.6978 ], [ 25.4625, -24.6806 ], [ 25.4586, -24.6806 ], [ 25.4494, -24.689 ], [ 25.4275, -24.6889 ], [ 25.4148, -24.6765 ], [ 25.3728, -24.6762 ], [ 25.3632, -24.6655 ], [ 25.2818, -24.6414 ], [ 24.9525, -24.5515 ], [ 24.2948, -24.3621 ], [ 24.2954, -24.4369 ], [ 24.0971, -24.4371 ], [ 24.0988, -24.626 ], [ 24.187, -24.6674 ], [ 24.1826, -24.826 ], [ 24.1201, -24.8343 ], [ 24.2703, -24.9825 ], [ 24.2556, -25.3924 ] ], [ [ 24.7727, -24.5863 ], [ 24.7817, -24.5863 ], [ 24.7815, -24.5948 ], [ 24.7725, -24.5948 ], [ 24.7722, -24.607 ], [ 24.7641, -24.607 ], [ 24.7589, -24.6136 ], [ 24.7416, -24.6154 ], [ 24.7427, -24.5664 ], [ 24.7731, -24.5665 ], [ 24.7727, -24.5863 ] ] ] } },
{ "type": "Feature", "properties": { "iso3": "BWA", "unit_id": "29308430B17957941974849", "unit_name": "Barolong" }, "geometry": { "type": "Polygon", "coordinates": [ [ [ 24.2556, -25.3924 ], [ 24.2522, -25.5023 ], [ 24.4083, -25.6465 ], [ 24.4973, -25.6467 ], [ 24.5049, -25.7566 ], [ 24.545, -25.7722 ], [ 24.5687, -25.7723 ], [ 24.5774, -25.7767 ], [ 24.5893, -25.7895 ], [ 24.6089, -25.8005 ], [ 24.6403, -25.8076 ], [ 24.6641, -25.8183 ], [ 24.677, -25.8183 ], [ 24.6831, -25.8239 ], [ 24.6955, -25.8117 ], [ 24.7263, -25.804 ], [ 24.7505, -25.8149 ], [ 24.7617, -25.8114 ], [ 24.7783, -25.8203 ], [ 24.7874, -25.8179 ], [ 24.7947, -25.8256 ], [ 24.8026, -25.8191 ], [ 24.81, -25.819 ], [ 24.8133, -25.8107 ], [ 24.8175, -25.8174 ], [ 24.8248, -25.8121 ], [ 24.8337, -25.8156 ], [ 24.8441, -25.8096 ], [ 24.8692, -25.8057 ], [ 24.8752, -25.8095 ], [ 24.885, -25.8074 ], [ 24.8969, -25.8109 ], [ 24.8971, -25.8032 ], [ 24.9047, -25.8029 ], [ 24.9078, -25.7986 ], [ 24.9128, -25.7979 ], [ 24.9127, -25.7848 ], [ 24.92, -25.7903 ], [ 24.9276, -25.7882 ], [ 24.9335, -25.7772 ], [ 24.9515, -25.772 ], [ 24.9536, -25.7687 ], [ 24.9516, -25.7631 ], [ 24.9545, -25.7605 ], [ 24.9613, -25.7664 ], [ 24.9667, -25.7662 ], [ 24.9752, -25.7543 ], [ 24.9837, -25.7547 ], [ 24.9893, -25.746 ], [ 25.0035, -25.7393 ], [ 25.0003, -25.7302 ], [ 25.0145, -25.7259 ], [ 25.022, -25.7316 ], [ 25.0373, -25.7226 ], [ 25.0511, -25.7262 ], [ 25.0542, -25.7321 ], [ 25.0616, -25.736 ], [ 25.0718, -25.7367 ], [ 25.0809, -25.7309 ], [ 25.0869, -25.7414 ], [ 25.104, -25.7416 ], [ 25.1022, -25.7484 ], [ 25.1099, -25.7493 ], [ 25.109, -25.7553 ], [ 25.1212, -25.7641 ], [ 25.1433, -25.7569 ], [ 25.1486, -25.7601 ], [ 25.1607, -25.76 ], [ 25.1719, -25.7666 ], [ 25.2031, -25.7589 ], [ 25.2198, -25.7664 ], [ 25.2244, -25.7641 ], [ 25.2608, -25.7686 ], [ 25.2993, -25.7656 ], [ 25.3199, -25.7726 ], [ 25.3458, -25.7672 ], [ 25.3512, -25.7619 ], [ 25.3671, -25.7576 ], [ 25.3862, -25.7443 ], [ 25.4243, -25.731 ], [ 25.4455, -25.714 ], [ 25.4547, -25.7103 ], [ 25.4691, -25.6958 ], [ 25.4798, -25.696 ], [ 25.4884, -25.6888 ], [ 25.5005, -25.6905 ], [ 25.514, -25.684 ], [ 25.5344, -25.6652 ], [ 25.5588, -25.6488 ], [ 25.5819, -25.6379 ], [ 25.6605, -25.4747 ], [ 25.6026, -25.4456 ], [ 25.5406, -25.4335 ], [ 25.5805, -25.3158 ], [ 25.559, -25.3158 ], [ 25.5499, -25.3232 ], [ 25.5233, -25.3231 ], [ 25.5142, -25.3193 ], [ 25.5143, -25.3034 ], [ 25.5408, -25.3035 ], [ 25.5409, -25.2914 ], [ 25.5368, -25.2913 ], [ 25.5369, -25.2745 ], [ 25.484, -25.2705 ], [ 25.4708, -25.2742 ], [ 25.4574, -25.2826 ], [ 25.43, -25.2824 ], [ 25.4128, -25.2739 ], [ 25.3376, -25.2698 ], [ 25.3372, -25.2942 ], [ 25.2925, -25.2902 ], [ 25.2487, -25.29 ], [ 25.2376, -25.2934 ], [ 25.2091, -25.2898 ], [ 25.0809, -25.2845 ], [ 25.0811, -25.2769 ], [ 25.0761, -25.2722 ], [ 25.0821, -25.2356 ], [ 25.0693, -25.2195 ], [ 25.0, -25.1532 ], [ 24.9999, -25.157 ], [ 24.9768, -25.1823 ], [ 24.9677, -25.1823 ], [ 24.9594, -25.1898 ], [ 24.946, -25.1944 ], [ 24.9403, -25.2189 ], [ 24.9392, -25.2556 ], [ 24.8005, -25.2954 ], [ 24.6671, -25.3241 ], [ 24.6697, -25.3694 ], [ 24.2556, -25.3924 ] ] ] } },
{ "type": "Feature", "properties": { "iso3": "BWA", "unit_id": "29308430B85889031880618", "unit_name": "Ngwaketse West" }, "geometry": { "type": "Polygon", "coordinates": [ [ [ 24.2948, -24.3621 ], [ 23.059, -24.006 ], [ 23.059, -24.8534 ], [ 24.1402, -24.8542 ], [ 24.1201, -24.8343 ], [ 24.1826, -24.826 ], [ 24.187, -24.6674 ], [ 24.0988, -24.626 ], [ 24.0971, -24.4371 ], [ 24.2954, -24.4369 ], [ 24.2948, -24.3621 ] ] ] } },
{ "type": "Feature", "properties": { "iso3": "BWA", "unit_id": "29308430B711657808745", "unit_name": "South East" }, "geometry": { "type": "MultiPolygon", "coordinates": [ [ [ [ 25.7595, -24.7369 ], [ 25.7179, -24.7774 ], [ 25.7188, -24.8101 ], [ 25.7145, -24.8552 ], [ 25.6407, -24.8875 ], [ 25.6664, -24.916 ], [ 25.6046, -25.0217 ], [ 25.6747, -25.027 ], [ 25.6656, -25.0429 ], [ 25.6283, -25.169 ], [ 25.5406, -25.4335 ], [ 25.6026, -25.4456 ], [ 25.6605, -25.4747 ], [ 25.6907, -25.3742 ], [ 25.7019, -25.2883 ], [ 25.7294, -25.2564 ], [ 25.8233, -25.0265 ], [ 25.8609, -24.9242 ], [ 25.8818, -24.9141 ], [ 25.8725, -24.9055 ], [ 25.8807, -24.9024 ], [ 25.8763, -24.8975 ], [ 25.8766, -24.8884 ], [ 25.885, -24.8877 ], [ 25.8887, -24.8826 ], [ 25.8828, -24.8755 ], [ 25.8815, -24.8595 ], [ 25.8764, -24.8563 ], [ 25.8732, -24.8291 ], [ 25.8667, -24.8235 ], [ 25.8597, -24.8268 ], [ 25.8585, -24.8217 ], [ 25.8633, -24.8089 ], [ 25.8491, -24.7973 ], [ 25.8267, -24.8159 ], [ 25.8166, -24.8094 ], [ 25.8285, -24.7779 ], [ 25.7916, -24.7612 ], [ 25.7595, -24.7369 ] ], [ [ 25.652, -25.1732 ], [ 25.6742, -25.1818 ], [ 25.6823, -25.1818 ], [ 25.6823, -25.1734 ], [ 25.7044, -25.1782 ], [ 25.7132, -25.2005 ], [ 25.7092, -25.2061 ], [ 25.7091, -25.2303 ], [ 25.7041, -25.2388 ], [ 25.6821, -25.2546 ], [ 25.665, -25.2546 ], [ 25.6609, -25.2471 ], [ 25.661, -25.2265 ], [ 25.6479, -25.2181 ], [ 25.652, -25.1732 ] ] ], [ [ [ 25.9432, -24.747 ], [ 25.9645, -24.7489 ], [ 26.0079, -24.7239 ], [ 26.1888, -24.6868 ], [ 26.1576, -24.6454 ], [ 25.9761, -24.5199 ], [ 25.964, -24.5345 ], [ 25.9803, -24.5455 ], [ 25.9451, -24.5879 ], [ 25.9389, -24.6036 ], [ 25.9722, -24.625 ], [ 25.9574, -24.6488 ], [ 25.9574, -24.6688 ], [ 25.9351, -24.6921 ], [ 25.9432, -24.747 ] ] ] ] } },
{ "type": "Feature", "properties": { "iso3": "BWA", "unit_id": "29308430B74049291247210", "unit_name": "Kweneng East" }, "geometry": { "type": "Polygon", "coordinates": [ [ [ 25.8157, -24.6821 ], [ 25.9761, -24.5199 ], [ 25.8889, -24.4602 ], [ 25.8922, -24.3934 ], [ 25.9748, -24.293 ], [ 26.0324, -23.7134 ], [ 26.0519, -23.5748 ], [ 25.9742, -23.4744 ], [ 25.9163, -23.3688 ], [ 25.8492, -23.3357 ], [ 25.815, -23.4074 ], [ 25.7721, -23.4074 ], [ 25.7143, -23.3931 ], [ 25.6907, -23.3967 ], [ 25.6638, -23.3912 ], [ 25.6427, -23.3791 ], [ 25.6377, -23.3791 ], [ 25.6299, -23.3952 ], [ 25.621, -23.3999 ], [ 25.56, -23.4003 ], [ 25.5623, -23.4307 ], [ 25.5477, -23.6962 ], [ 25.5491, -23.8452 ], [ 25.6127, -23.8419 ], [ 25.6118, -23.9818 ], [ 25.5132, -23.9796 ], [ 25.5482, -24.0538 ], [ 25.4525, -24.0852 ], [ 25.4912, -24.2336 ], [ 25.4365, -24.2627 ], [ 25.4398, -24.3764 ], [ 25.4843, -24.3788 ], [ 25.4821, -24.4359 ], [ 25.4564, -24.4538 ], [ 25.4129, -24.4674 ], [ 25.3743, -24.4838 ], [ 25.3172, -24.5023 ], [ 25.3026, -24.4969 ], [ 25.3023, -24.5363 ], [ 25.2916, -24.6073 ], [ 25.2818, -24.6414 ], [ 25.3632, -24.6655 ], [ 25.3728, -24.6762 ], [ 25.4148, -24.6765 ], [ 25.4275, -24.6889 ], [ 25.4494, -24.689 ], [ 25.4586, -24.6806 ], [ 25.4625, -24.6806 ], [ 25.5009, -24.6978 ], [ 25.6281, -24.7756 ], [ 25.7179, -24.7774 ], [ 25.8004, -24.697 ], [ 25.8161, -24.7134 ], [ 25.8318, -24.6955 ], [ 25.8157, -24.6821 ] ] ] } },
{ "type": "Feature", "properties": { "iso3": "BWA", "unit_id": "29308430B30502215547636", "unit_name": "Kweneng West" }, "geometry": { "type": "Polygon", "coordinates": [ [ [ 25.2818, -24.6414 ], [ 25.2916, -24.6073 ], [ 25.3023, -24.5363 ], [ 25.3026, -24.4969 ], [ 25.3172, -24.5023 ], [ 25.3743, -24.4838 ], [ 25.4129, -24.4674 ], [ 25.4564, -24.4538 ], [ 25.4821, -24.4359 ], [ 25.4843, -24.3788 ], [ 25.4398, -24.3764 ], [ 25.4365, -24.2627 ], [ 25.4912, -24.2336 ], [ 25.4525, -24.0852 ], [ 25.5482, -24.0538 ], [ 25.5132, -23.9796 ], [ 25.6118, -23.9818 ], [ 25.6127, -23.8419 ], [ 25.5491, -23.8452 ], [ 25.5477, -23.6962 ], [ 25.5623, -23.4307 ], [ 25.56, -23.4003 ], [ 25.621, -23.3999 ], [ 25.6299, -23.3952 ], [ 25.6377, -23.3791 ], [ 25.6427, -23.3791 ], [ 25.6638, -23.3912 ], [ 25.6907, -23.3967 ], [ 25.7143, -23.3931 ], [ 25.7721, -23.4074 ], [ 25.815, -23.4074 ], [ 25.8492, -23.3357 ], [ 25.7767, -23.3 ], [ 25.7389, -23.255 ], [ 25.7119, -23.2764 ], [ 25.4471, -22.9464 ], [ 25.239, -23.3214 ], [ 23.059, -23.3208 ], [ 23.059, -23.4409 ], [ 22.9645, -23.4408 ], [ 22.9645, -23.6007 ], [ 23.0591, -23.6007 ], [ 23.059, -24.006 ], [ 24.9525, -24.5515 ], [ 25.2818, -24.6414 ] ] ] } },
{ "type": "Feature", "properties": { "iso3": "BWA", "unit_id": "29308430B15078490823428", "unit_name": "Kgatleng" }, "geometry": { "type": "Polygon", "coordinates": [ [ [ 26.1888, -24.6868 ], [ 26.3927, -24.6365 ], [ 26.4088, -24.6456 ], [ 26.4213, -24.6339 ], [ 26.426, -24.6179 ], [ 26.4332, -24.6185 ], [ 26.4413, -24.612 ], [ 26.4504, -24.6114 ], [ 26.4615, -24.5964 ], [ 26.471, -24.5892 ], [ 26.482, -24.5671 ], [ 26.4814, -24.5566 ], [ 26.4876, -24.5511 ], [ 26.4896, -24.5387 ], [ 26.5002, -24.5225 ], [ 26.5019, -24.5074 ], [ 26.5101, -24.5028 ], [ 26.5102, -24.4882 ], [ 26.5291, -24.4789 ], [ 26.5281, -24.4763 ], [ 26.5364, -24.4749 ], [ 26.5393, -24.4643 ], [ 26.5466, -24.4654 ], [ 26.5524, -24.4518 ], [ 26.5596, -24.4534 ], [ 26.5659, -24.4444 ], [ 26.568, -24.4376 ], [ 26.5656, -24.4359 ], [ 26.5745, -24.4346 ], [ 26.5754, -24.4307 ], [ 26.5841, -24.4263 ], [ 26.5815, -24.4228 ], [ 26.5853, -24.4221 ], [ 26.5898, -24.4121 ], [ 26.5876, -24.4105 ], [ 26.6129, -24.4066 ], [ 26.6167, -24.3986 ], [ 26.6257, -24.3937 ], [ 26.6325, -24.3956 ], [ 26.637, -24.39 ], [ 26.6354, -24.3875 ], [ 26.6463, -24.3817 ], [ 26.6586, -24.385 ], [ 26.6572, -24.3817 ], [ 26.6635, -24.3811 ], [ 26.6651, -24.3737 ], [ 26.6688, -24.3727 ], [ 26.6698, -24.3673 ], [ 26.664, -24.3621 ], [ 26.6677, -24.3552 ], [ 26.6702, -24.356 ], [ 26.6685, -24.3537 ], [ 26.6754, -24.3512 ], [ 26.6757, -24.344 ], [ 26.6826, -24.3428 ], [ 26.6889, -24.3367 ], [ 26.697, -24.339 ], [ 26.6967, -24.3358 ], [ 26.7026, -24.3347 ], [ 26.7005, -24.3333 ], [ 26.7019, -24.3258 ], [ 26.7051, -24.3249 ], [ 26.7039, -24.322 ], [ 26.7089, -24.3216 ], [ 26.7098, -24.3184 ], [ 26.7113, -24.321 ], [ 26.7199, -24.32 ], [ 26.72, -24.3169 ], [ 26.728, -24.315 ], [ 26.7332, -24.3042 ], [ 26.7471, -24.3066 ], [ 26.746, -24.3114 ], [ 26.7518, -24.3132 ], [ 26.7625, -24.3104 ], [ 26.7639, -24.3053 ], [ 26.7735, -24.305 ], [ 26.7756, -24.3007 ], [ 26.7817, -24.299 ], [ 26.7856, -24.3066 ], [ 26.7895, -24.3013 ], [ 26.8006, -24.3 ], [ 26.8033, -24.2918 ], [ 26.8013, -24.2882 ], [ 26.8155, -24.2867 ], [ 26.8186, -24.2794 ], [ 26.8238, -24.2791 ], [ 26.8257, -24.2722 ], [ 26.8289, -24.2731 ], [ 26.8288, -24.2708 ], [ 26.8326, -24.2742 ], [ 26.8343, -24.2701 ], [ 26.8356, -24.2734 ], [ 26.839, -24.271 ], [ 26.8425, -24.2744 ], [ 26.8455, -24.2692 ], [ 26.8515, -24.2674 ], [ 26.8513, -24.2628 ], [ 26.8558, -24.2635 ], [ 26.8572, -24.2552 ], [ 26.8658, -24.251 ], [ 26.8653, -24.2455 ], [ 26.869, -24.2443 ], [ 26.8627, -24.238 ], [ 26.864, -24.2305 ], [ 26.8605, -24.2298 ], [ 26.8594, -24.2231 ], [ 26.8621, -24.2163 ], [ 26.8709, -24.215 ], [ 26.8832, -24.19 ], [ 26.8811, -24.1876 ], [ 26.8796, -24.1915 ], [ 26.8686, -24.1903 ], [ 26.8645, -24.179 ], [ 26.8656, -24.1717 ], [ 26.8779, -24.1672 ], [ 26.879, -24.1602 ], [ 26.8745, -24.147 ], [ 26.8618, -24.1387 ], [ 26.8675, -24.1237 ], [ 26.8603, -24.1062 ], [ 26.863, -24.0996 ], [ 26.8815, -24.094 ], [ 26.8844, -24.0902 ], [ 26.8888, -24.0749 ], [ 26.889, -24.0548 ], [ 26.8955, -24.0429 ], [ 26.9094, -24.0281 ], [ 26.9124, -24.0118 ], [ 26.9109, -23.9887 ], [ 26.9145, -23.9715 ], [ 26.9321, -23.955 ], [ 26.9276, -23.9222 ], [ 26.9424, -23.9031 ], [ 26.9427, -23.8865 ], [ 26.9551, -23.8735 ], [ 26.9497, -23.8615 ], [ 26.9338, -23.8568 ], [ 26.9322, -23.851 ], [ 26.9399, -23.8437 ], [ 26.9506, -23.8415 ], [ 26.9585, -23.8307 ], [ 26.9489, -23.8237 ], [ 26.9488, -23.8148 ], [ 26.9534, -23.8058 ], [ 26.9516, -23.7942 ], [ 26.9636, -23.778 ], [ 26.9654, -23.7695 ], [ 26.9627, -23.7632 ], [ 26.9652, -23.7544 ], [ 26.962, -23.7472 ], [ 26.9303, -23.757 ], [ 26.9285, -23.7891 ], [ 26.9221, -23.7962 ], [ 26.9157, -23.7912 ], [ 26.9168, -23.7823 ], [ 26.9085, -23.7777 ], [ 26.9028, -23.7787 ], [ 26.8978, -23.7837 ], [ 26.8971, -23.8001 ], [ 26.8932, -23.8037 ], [ 26.8825, -23.8012 ], [ 26.8686, -23.8094 ], [ 26.8657, -23.8155 ], [ 26.8718, -23.8241 ], [ 26.8546, -23.8412 ], [ 26.8486, -23.8387 ], [ 26.8436, -23.8415 ], [ 26.8425, -23.8508 ], [ 26.8461, -23.8562 ], [ 26.8429, -23.8623 ], [ 26.8236, -23.8637 ], [ 26.8058, -23.8605 ], [ 26.8012, -23.8626 ], [ 26.7976, -23.8672 ], [ 26.7989, -23.8741 ], [ 26.7896, -23.8904 ], [ 26.7563, -23.9066 ], [ 26.758, -23.9243 ], [ 26.7424, -23.9268 ], [ 26.7397, -23.9329 ], [ 26.7416, -23.9411 ], [ 26.7302, -23.9367 ], [ 26.7287, -23.9527 ], [ 26.724, -23.9568 ], [ 26.0506, -23.5894 ], [ 26.0324, -23.7134 ], [ 25.9748, -24.293 ], [ 25.8922, -24.3934 ], [ 25.8889, -24.4602 ], [ 26.1576, -24.6454 ], [ 26.1888, -24.6868 ] ] ] } },
{ "type": "Feature", "properties": { "iso3": "BWA", "unit_id": "29308430B79422170346092", "unit_name": "Serowe Palapye" }, "geometry": { "type": "Polygon", "coordinates": [ [ [ 25.4441, -22.9427 ], [ 25.4712, -22.9182 ], [ 26.1926, -22.9188 ], [ 26.2937, -22.8776 ], [ 26.525, -22.7748 ], [ 26.6714, -22.7161 ], [ 26.6857, -22.7167 ], [ 26.7071, -22.7262 ], [ 26.7375, -22.7464 ], [ 26.7368, -22.7952 ], [ 26.951, -22.8064 ], [ 26.9525, -22.8306 ], [ 26.9854, -22.8658 ], [ 27.0429, -22.8539 ], [ 27.0517, -22.7951 ], [ 27.0644, -22.7919 ], [ 27.0858, -22.7794 ], [ 27.1055, -22.7526 ], [ 27.1174, -22.7211 ], [ 27.115, -22.7163 ], [ 27.1168, -22.7092 ], [ 27.1257, -22.6991 ], [ 27.1358, -22.6949 ], [ 27.1507, -22.6979 ], [ 27.1554, -22.7021 ], [ 27.1572, -22.7146 ], [ 27.162, -22.7199 ], [ 27.1786, -22.7235 ], [ 27.1852, -22.7288 ], [ 27.2946, -22.7163 ], [ 27.6171, -22.7993 ], [ 27.7561, -22.8377 ], [ 28.0137, -22.9307 ], [ 28.0402, -22.909 ], [ 28.0452, -22.8931 ], [ 28.0504, -22.8874 ], [ 28.0507, -22.8814 ], [ 28.0443, -22.8718 ], [ 28.0471, -22.8598 ], [ 28.039, -22.8419 ], [ 28.0413, -22.8331 ], [ 28.0487, -22.8291 ], [ 28.067, -22.8281 ], [ 28.0822, -22.8173 ], [ 28.0945, -22.8138 ], [ 28.1096, -22.8009 ], [ 28.121, -22.7849 ], [ 28.1506, -22.77 ], [ 28.1623, -22.7558 ], [ 28.1638, -22.7489 ], [ 28.158, -22.7235 ], [ 28.1594, -22.7184 ], [ 28.1817, -22.6902 ], [ 28.2108, -22.6644 ], [ 28.2187, -22.6647 ], [ 28.2369, -22.6569 ], [ 28.2463, -22.6563 ], [ 28.2558, -22.6447 ], [ 28.2685, -22.6366 ], [ 28.1931, -22.5235 ], [ 28.1403, -22.4921 ], [ 28.0639, -22.4197 ], [ 28.0389, -22.4069 ], [ 28.0004, -22.4004 ], [ 27.9483, -22.3662 ], [ 27.9311, -22.3476 ], [ 27.9226, -22.3283 ], [ 27.9154, -22.2969 ], [ 27.9131, -22.2612 ], [ 27.9071, -22.2553 ], [ 27.9053, -22.2452 ], [ 27.8875, -22.2315 ], [ 27.8375, -22.2279 ], [ 27.7994, -22.2291 ], [ 27.756, -22.2249 ], [ 27.7242, -22.2334 ], [ 27.6957, -22.2351 ], [ 27.6552, -22.234 ], [ 27.6225, -22.2286 ], [ 27.4595, -22.1923 ], [ 27.4066, -22.1763 ], [ 27.3994, -22.137 ], [ 27.3911, -22.1263 ], [ 27.3566, -22.1144 ], [ 27.2694, -22.1081 ], [ 27.2888, -21.9929 ], [ 27.2962, -21.9756 ], [ 27.2997, -21.9514 ], [ 27.3076, -21.9456 ], [ 27.3247, -21.9184 ], [ 27.3377, -21.8849 ], [ 27.3551, -21.7188 ], [ 27.2881, -21.7113 ], [ 27.2673, -21.7047 ], [ 27.262, -21.6926 ], [ 27.2531, -21.689 ], [ 27.2528, -21.6805 ], [ 27.1951, -21.5828 ], [ 27.159, -21.5515 ], [ 27.1556, -21.5393 ], [ 27.1375, -21.5265 ], [ 27.1168, -21.523 ], [ 27.1037, -21.5073 ], [ 27.1194, -21.4708 ], [ 27.1091, -21.4152 ], [ 27.1088, -21.4022 ], [ 27.1133, -21.3937 ], [ 26.8934, -21.3271 ], [ 26.7949, -21.3242 ], [ 26.7037, -21.4629 ], [ 26.5696, -21.4146 ], [ 26.2972, -21.2928 ], [ 26.2844, -21.3012 ], [ 26.1527, -21.3164 ], [ 26.0659, -21.6417 ], [ 25.9207, -21.7459 ], [ 25.89, -21.7784 ], [ 25.6087, -21.9851 ], [ 25.3266, -22.1903 ], [ 25.0114, -22.4119 ], [ 25.4441, -22.9427 ] ] ] } },
{ "type": "Feature", "properties": { "iso3": "BWA", "unit_id": "29308430B30543037727108", "unit_name": "Mahalapye" }, "geometry": { "type": "Polygon", "coordinates": [ [ [ 26.0506, -23.5894 ], [ 26.724, -23.9568 ], [ 26.7287, -23.9527 ], [ 26.7302, -23.9367 ], [ 26.7416, -23.9411 ], [ 26.7397, -23.9329 ], [ 26.7424, -23.9268 ], [ 26.758, -23.9243 ], [ 26.7563, -23.9066 ], [ 26.7896, -23.8904 ], [ 26.7989, -23.8741 ], [ 26.7976, -23.8672 ], [ 26.8012, -23.8626 ], [ 26.8058, -23.8605 ], [ 26.8236, -23.8637 ], [ 26.8429, -23.8623 ], [ 26.8461, -23.8562 ], [ 26.8425, -23.8508 ], [ 26.8436, -23.8415 ], [ 26.8486, -23.8387 ], [ 26.8546, -23.8412 ], [ 26.8718, -23.8241 ], [ 26.8657, -23.8155 ], [ 26.875, -23.8041 ], [ 26.8825, -23.8012 ], [ 26.8932, -23.8037 ], [ 26.8971, -23.8001 ], [ 26.8978, -23.7837 ], [ 26.9028, -23.7787 ], [ 26.9085, -23.7777 ], [ 26.9168, -23.7823 ], [ 26.9157, -23.7912 ], [ 26.9185, -23.7959 ], [ 26.9221, -23.7962 ], [ 26.9285, -23.7891 ], [ 26.9303, -23.757 ], [ 26.962, -23.7472 ], [ 26.9663, -23.73 ], [ 26.9704, -23.7279 ], [ 26.9699, -23.7164 ], [ 26.9743, -23.7129 ], [ 26.9711, -23.7027 ], [ 26.9789, -23.6968 ], [ 27.0024, -23.6878 ], [ 26.9977, -23.6771 ], [ 27.0026, -23.6647 ], [ 26.9954, -23.6527 ], [ 26.9995, -23.6522 ], [ 27.0026, -23.6444 ], [ 27.0076, -23.643 ], [ 27.0107, -23.6376 ], [ 27.0192, -23.6437 ], [ 27.0255, -23.6443 ], [ 27.0261, -23.651 ], [ 27.021, -23.655 ], [ 27.0279, -23.6601 ], [ 27.0366, -23.6565 ], [ 27.0312, -23.6757 ], [ 27.0376, -23.6825 ], [ 27.0439, -23.6831 ], [ 27.0645, -23.6709 ], [ 27.0702, -23.6708 ], [ 27.0778, -23.6605 ], [ 27.0747, -23.6549 ], [ 27.0813, -23.6549 ], [ 27.0789, -23.6478 ], [ 27.0813, -23.6436 ], [ 27.0684, -23.6253 ], [ 27.0634, -23.6262 ], [ 27.0592, -23.6126 ], [ 27.0722, -23.6093 ], [ 27.0736, -23.6146 ], [ 27.0802, -23.6134 ], [ 27.085, -23.6089 ], [ 27.0796, -23.607 ], [ 27.0818, -23.5989 ], [ 27.0999, -23.6026 ], [ 27.0993, -23.5994 ], [ 27.1053, -23.5975 ], [ 27.1085, -23.5903 ], [ 27.1077, -23.5679 ], [ 27.1133, -23.5705 ], [ 27.1168, -23.5622 ], [ 27.1245, -23.5686 ], [ 27.1313, -23.5695 ], [ 27.1297, -23.574 ], [ 27.1455, -23.5747 ], [ 27.1508, -23.5719 ], [ 27.1507, -23.5676 ], [ 27.1545, -23.5691 ], [ 27.1484, -23.5515 ], [ 27.14, -23.5534 ], [ 27.1345, -23.5436 ], [ 27.1348, -23.5336 ], [ 27.1394, -23.5288 ], [ 27.1332, -23.5285 ], [ 27.1353, -23.5233 ], [ 27.1477, -23.5236 ], [ 27.1548, -23.5347 ], [ 27.1586, -23.533 ], [ 27.1604, -23.5371 ], [ 27.1647, -23.5361 ], [ 27.1663, -23.5244 ], [ 27.1723, -23.5219 ], [ 27.1886, -23.5332 ], [ 27.1933, -23.5313 ], [ 27.2002, -23.5346 ], [ 27.2017, -23.5287 ], [ 27.2109, -23.5261 ], [ 27.2089, -23.5214 ], [ 27.194, -23.5148 ], [ 27.1922, -23.4981 ], [ 27.2263, -23.485 ], [ 27.2236, -23.4943 ], [ 27.2265, -23.4971 ], [ 27.2331, -23.4958 ], [ 27.237, -23.4842 ], [ 27.2549, -23.4774 ], [ 27.2588, -23.4723 ], [ 27.2632, -23.4779 ], [ 27.2673, -23.4779 ], [ 27.2839, -23.4711 ], [ 27.2879, -23.4622 ], [ 27.295, -23.4601 ], [ 27.3028, -23.4629 ], [ 27.3058, -23.4528 ], [ 27.3131, -23.4503 ], [ 27.3107, -23.4468 ], [ 27.317, -23.4459 ], [ 27.3129, -23.4403 ], [ 27.3155, -23.4354 ], [ 27.3118, -23.4331 ], [ 27.3245, -23.4178 ], [ 27.3253, -23.4062 ], [ 27.3368, -23.4005 ], [ 27.3494, -23.3977 ], [ 27.3567, -23.4 ], [ 27.3565, -23.4105 ], [ 27.3482, -23.4227 ], [ 27.3506, -23.4267 ], [ 27.374, -23.427 ], [ 27.3806, -23.4205 ], [ 27.3727, -23.4093 ], [ 27.3774, -23.3988 ], [ 27.3871, -23.3901 ], [ 27.4076, -23.389 ], [ 27.4104, -23.3908 ], [ 27.41, -23.3995 ], [ 27.401, -23.4129 ], [ 27.4102, -23.4245 ], [ 27.4212, -23.4265 ], [ 27.4284, -23.4246 ], [ 27.435, -23.3977 ], [ 27.4413, -23.3924 ], [ 27.4419, -23.3847 ], [ 27.4925, -23.387 ], [ 27.4956, -23.3841 ], [ 27.5049, -23.3881 ], [ 27.5285, -23.3853 ], [ 27.5366, -23.3757 ], [ 27.5382, -23.3663 ], [ 27.5476, -23.3585 ], [ 27.5538, -23.3571 ], [ 27.5573, -23.3507 ], [ 27.5628, -23.3496 ], [ 27.5671, -23.3408 ], [ 27.5707, -23.326 ], [ 27.5602, -23.3145 ], [ 27.573, -23.2942 ], [ 27.5761, -23.2812 ], [ 27.5729, -23.2653 ], [ 27.5804, -23.2583 ], [ 27.5923, -23.2563 ], [ 27.6014, -23.2465 ], [ 27.596, -23.2343 ], [ 27.5993, -23.2179 ], [ 27.6036, -23.2157 ], [ 27.6126, -23.2195 ], [ 27.6214, -23.2181 ], [ 27.6384, -23.2259 ], [ 27.6491, -23.2257 ], [ 27.6521, -23.2219 ], [ 27.6596, -23.2212 ], [ 27.6718, -23.2005 ], [ 27.6889, -23.1963 ], [ 27.7032, -23.2033 ], [ 27.7137, -23.2284 ], [ 27.7238, -23.2289 ], [ 27.7262, -23.2328 ], [ 27.7416, -23.2304 ], [ 27.7518, -23.2193 ], [ 27.7506, -23.2059 ], [ 27.7595, -23.1959 ], [ 27.7593, -23.1908 ], [ 27.7697, -23.1803 ], [ 27.7804, -23.1771 ], [ 27.7853, -23.1702 ], [ 27.7829, -23.1571 ], [ 27.7653, -23.1425 ], [ 27.7667, -23.134 ], [ 27.7785, -23.1316 ], [ 27.7795, -23.141 ], [ 27.7824, -23.143 ], [ 27.791, -23.1412 ], [ 27.794, -23.1373 ], [ 27.809, -23.1347 ], [ 27.8194, -23.1246 ], [ 27.8189, -23.1198 ], [ 27.8131, -23.115 ], [ 27.8144, -23.1063 ], [ 27.8199, -23.1046 ], [ 27.8227, -23.108 ], [ 27.8327, -23.1089 ], [ 27.8483, -23.1046 ], [ 27.9196, -23.0686 ], [ 27.9264, -23.0585 ], [ 27.9362, -23.0513 ], [ 27.9431, -23.0365 ], [ 27.9371, -23.0142 ], [ 27.9426, -22.9941 ], [ 27.9358, -22.9614 ], [ 27.9408, -22.9555 ], [ 27.9476, -22.9609 ], [ 27.9593, -22.9604 ], [ 27.9927, -22.9376 ], [ 28.0137, -22.9307 ], [ 27.7561, -22.8377 ], [ 27.6171, -22.7993 ], [ 27.2946, -22.7163 ], [ 27.1852, -22.7288 ], [ 27.1786, -22.7235 ], [ 27.162, -22.7199 ], [ 27.1572, -22.7146 ], [ 27.1554, -22.7021 ], [ 27.1507, -22.6979 ], [ 27.1358, -22.6949 ], [ 27.1257, -22.6991 ], [ 27.1168, -22.7092 ], [ 27.115, -22.7163 ], [ 27.1174, -22.7211 ], [ 27.1055, -22.7526 ], [ 27.0858, -22.7794 ], [ 27.0644, -22.7919 ], [ 27.0517, -22.7951 ], [ 27.0429, -22.8539 ], [ 26.9854, -22.8658 ], [ 26.9525, -22.8306 ], [ 26.951, -22.8064 ], [ 26.7368, -22.7952 ], [ 26.7375, -22.7464 ], [ 26.7071, -22.7262 ], [ 26.6857, -22.7167 ], [ 26.6714, -22.7161 ], [ 26.525, -22.7748 ], [ 26.2937, -22.8776 ], [ 26.1926, -22.9188 ], [ 25.4712, -22.9182 ], [ 25.4441, -22.9427 ], [ 25.7119, -23.2764 ], [ 25.7389, -23.255 ], [ 25.7767, -23.3 ], [ 25.9163, -23.3688 ], [ 25.9742, -23.4744 ], [ 26.0519, -23.5748 ], [ 26.0506, -23.5894 ] ] ] } },
{ "type": "Feature", "properties": { "iso3": "BWA", "unit_id": "29308430B74773701678935", "unit_name": "Bobonong" }, "geometry": { "type": "Polygon", "coordinates": [ [ [ 28.2685, -22.6366 ], [ 28.278, -22.6151 ], [ 28.3115, -22.606 ], [ 28.3307, -22.5925 ], [ 28.3407, -22.5754 ], [ 28.346, -22.5719 ], [ 28.3654, -22.5729 ], [ 28.3846, -22.5691 ], [ 28.4223, -22.5729 ], [ 28.443, -22.569 ], [ 28.4581, -22.5725 ], [ 28.4779, -22.5707 ], [ 28.4939, -22.577 ], [ 28.5118, -22.589 ], [ 28.5428, -22.5771 ], [ 28.5649, -22.5591 ], [ 28.6155, -22.5628 ], [ 28.6465, -22.5564 ], [ 28.6586, -22.548 ], [ 28.6698, -22.5345 ], [ 28.688, -22.5328 ], [ 28.7002, -22.5263 ], [ 28.7013, -22.5202 ], [ 28.7074, -22.5161 ], [ 28.7382, -22.5042 ], [ 28.7766, -22.5003 ], [ 28.8292, -22.4887 ], [ 28.8336, -22.4808 ], [ 28.8286, -22.4703 ], [ 28.8302, -22.4634 ], [ 28.8552, -22.4513 ], [ 28.8792, -22.4473 ], [ 28.8989, -22.4528 ], [ 28.9114, -22.4611 ], [ 28.9178, -22.4605 ], [ 28.944, -22.4323 ], [ 28.9509, -22.4162 ], [ 28.9521, -22.4043 ], [ 28.9715, -22.3763 ], [ 28.9688, -22.3573 ], [ 28.9634, -22.3472 ], [ 28.9627, -22.3282 ], [ 28.9668, -22.3066 ], [ 28.9762, -22.3003 ], [ 28.9777, -22.2907 ], [ 28.9821, -22.285 ], [ 28.9961, -22.2804 ], [ 29.0028, -22.2739 ], [ 29.0048, -22.2619 ], [ 29.0133, -22.2559 ], [ 29.0145, -22.2306 ], [ 29.0197, -22.2263 ], [ 29.0295, -22.2281 ], [ 29.0312, -22.2199 ], [ 29.0358, -22.2167 ], [ 29.0816, -22.2211 ], [ 29.1066, -22.2125 ], [ 29.1504, -22.2156 ], [ 29.1664, -22.2071 ], [ 29.1921, -22.185 ], [ 29.2114, -22.1818 ], [ 29.2178, -22.178 ], [ 29.2385, -22.1817 ], [ 29.2572, -22.1933 ], [ 29.266, -22.1894 ], [ 29.2709, -22.193 ], [ 29.2767, -22.1926 ], [ 29.2852, -22.1858 ], [ 29.3208, -22.1871 ], [ 29.3242, -22.1892 ], [ 29.3271, -22.1995 ], [ 29.3337, -22.2044 ], [ 29.341, -22.2009 ], [ 29.347, -22.1926 ], [ 29.3596, -22.1996 ], [ 29.3753, -22.1955 ], [ 29.3575, -22.1889 ], [ 29.3283, -22.154 ], [ 29.2889, -22.1228 ], [ 29.2702, -22.0794 ], [ 29.247, -22.0598 ], [ 29.2224, -22.0692 ], [ 29.1967, -22.0746 ], [ 29.1696, -22.076 ], [ 29.1391, -22.0721 ], [ 29.1069, -22.0613 ], [ 29.0879, -22.0513 ], [ 29.0538, -22.0223 ], [ 29.0403, -22.0037 ], [ 29.0262, -21.9723 ], [ 29.0202, -21.9428 ], [ 29.0207, -21.9147 ], [ 29.0278, -21.8848 ], [ 29.0388, -21.8612 ], [ 29.0551, -21.8386 ], [ 29.0767, -21.8182 ], [ 29.0626, -21.8027 ], [ 29.0071, -21.789 ], [ 28.9995, -21.7711 ], [ 28.9855, -21.7688 ], [ 28.9592, -21.7756 ], [ 28.8623, -21.7557 ], [ 28.8424, -21.7405 ], [ 28.8222, -21.733 ], [ 28.7969, -21.7324 ], [ 28.7758, -21.7147 ], [ 28.7474, -21.7011 ], [ 28.671, -21.6782 ], [ 28.6622, -21.6712 ], [ 28.6504, -21.6542 ], [ 28.5981, -21.6447 ], [ 28.5791, -21.6294 ], [ 28.5722, -21.63 ], [ 28.5566, -21.644 ], [ 28.5397, -21.6423 ], [ 28.5208, -21.6619 ], [ 28.5028, -21.6689 ], [ 28.4582, -21.6547 ], [ 28.4451, -21.641 ], [ 28.4125, -21.6327 ], [ 28.3655, -21.6025 ], [ 28.3498, -21.6079 ], [ 28.3322, -21.5978 ], [ 28.3145, -21.5971 ], [ 28.294, -21.5894 ], [ 28.2852, -21.5931 ], [ 28.2542, -21.5942 ], [ 28.1991, -21.6033 ], [ 28.1712, -21.5952 ], [ 28.1459, -21.5935 ], [ 28.1302, -21.5863 ], [ 28.1189, -21.5863 ], [ 28.1, -21.5786 ], [ 28.0818, -21.5839 ], [ 28.0675, -21.5785 ], [ 28.049, -21.5799 ], [ 28.0218, -21.5758 ], [ 28.0108, -21.5615 ], [ 27.9434, -21.5543 ], [ 27.9177, -21.5424 ], [ 27.8895, -21.545 ], [ 27.8774, -21.5424 ], [ 27.8645, -21.5314 ], [ 27.8595, -21.5312 ], [ 27.8524, -21.5493 ], [ 27.8276, -21.5423 ], [ 27.7941, -21.5525 ], [ 27.7797, -21.5536 ], [ 27.7658, -21.5584 ], [ 27.7607, -21.5637 ], [ 27.7491, -21.5542 ], [ 27.7341, -21.5512 ], [ 27.6971, -21.5781 ], [ 27.6893, -21.5781 ], [ 27.6683, -21.595 ], [ 27.6557, -21.5987 ], [ 27.6353, -21.6315 ], [ 27.6287, -21.668 ], [ 27.6118, -21.6924 ], [ 27.5963, -21.7291 ], [ 27.5878, -21.7376 ], [ 27.5713, -21.7425 ], [ 27.5194, -21.743 ], [ 27.5065, -21.7385 ], [ 27.49, -21.7434 ], [ 27.4722, -21.7389 ], [ 27.43, -21.7356 ], [ 27.4211, -21.731 ], [ 27.3789, -21.7315 ], [ 27.3609, -21.7196 ], [ 27.3551, -21.7188 ], [ 27.3377, -21.8849 ], [ 27.3247, -21.9184 ], [ 27.3076, -21.9456 ], [ 27.2997, -21.9514 ], [ 27.2962, -21.9756 ], [ 27.2888, -21.9929 ], [ 27.2694, -22.1081 ], [ 27.3566, -22.1144 ], [ 27.3911, -22.1263 ], [ 27.3994, -22.137 ], [ 27.4066, -22.1763 ], [ 27.4595, -22.1923 ], [ 27.6225, -22.2286 ], [ 27.6552, -22.234 ], [ 27.6957, -22.2351 ], [ 27.7242, -22.2334 ], [ 27.756, -22.2249 ], [ 27.7994, -22.2291 ], [ 27.8375, -22.2279 ], [ 27.8875, -22.2315 ], [ 27.9053, -22.2452 ], [ 27.9071, -22.2553 ], [ 27.9131, -22.2612 ], [ 27.9154, -22.2969 ], [ 27.9226, -22.3283 ], [ 27.9311, -22.3476 ], [ 27.9483, -22.3662 ], [ 28.0004, -22.4004 ], [ 28.0389, -22.4069 ], [ 28.0639, -22.4197 ], [ 28.1403, -22.4921 ], [ 28.1931, -22.5235 ], [ 28.2685, -22.6366 ] ], [ [ 27.8849, -21.9193 ], [ 27.8869, -21.9991 ], [ 27.7854, -21.9967 ], [ 27.7909, -21.9173 ], [ 27.8849, -21.9193 ] ] ] } },
{ "type": "Feature", "properties": { "iso3": "BWA", "unit_id": "29308430B74936181962690", "unit_name": "Boteti" }, "geometry": { "type": "Polygon", "coordinates": [ [ [ 26.2972, -21.2928 ], [ 26.286, -21.2218 ], [ 26.286, -21.1115 ], [ 26.3053, -21.1027 ], [ 26.3274, -21.1017 ], [ 26.3592, -21.1067 ], [ 26.38, -21.0938 ], [ 26.3888, -21.084 ], [ 26.3937, -21.0644 ], [ 26.3933, -21.0478 ], [ 26.3893, -21.0404 ], [ 26.3638, -21.0442 ], [ 26.346, -21.0406 ], [ 26.2959, -21.0532 ], [ 26.2832, -20.9609 ], [ 26.1628, -20.9001 ], [ 26.1612, -20.8956 ], [ 26.1502, -20.8898 ], [ 25.5379, -20.8898 ], [ 25.4351, -20.6652 ], [ 24.9611, -20.6595 ], [ 24.9628, -20.3544 ], [ 24.5056, -20.3829 ], [ 24.4902, -20.3935 ], [ 24.4847, -20.3932 ], [ 24.4725, -20.385 ], [ 24.4582, -20.3873 ], [ 24.4475, -20.3965 ], [ 24.422, -20.3984 ], [ 24.409, -20.4032 ], [ 24.3886, -20.3907 ], [ 24.3832, -20.3916 ], [ 24.382, -20.3867 ], [ 24.3694, -20.3785 ], [ 24.3588, -20.3754 ], [ 24.3516, -20.3617 ], [ 24.3358, -20.3517 ], [ 24.3351, -20.3484 ], [ 24.34, -20.3431 ], [ 24.3355, -20.3394 ], [ 24.3355, -20.3303 ], [ 24.3268, -20.3217 ], [ 24.3176, -20.3228 ], [ 24.3112, -20.3182 ], [ 24.3022, -20.317 ], [ 24.2894, -20.319 ], [ 24.2827, -20.3156 ], [ 24.2793, -20.2999 ], [ 24.268, -20.2827 ], [ 24.2699, -20.279 ], [ 24.2811, -20.2742 ], [ 24.2819, -20.2558 ], [ 24.27, -20.2516 ], [ 24.2614, -20.2414 ], [ 24.2648, -20.2277 ], [ 24.2593, -20.2207 ], [ 24.2504, -20.2255 ], [ 24.2458, -20.2475 ], [ 24.229, -20.2557 ], [ 24.2048, -20.241 ], [ 24.1972, -20.227 ], [ 24.1993, -20.2224 ], [ 24.1969, -20.2187 ], [ 24.1712, -20.2082 ], [ 24.1629, -20.2082 ], [ 24.1545, -20.1986 ], [ 24.1386, -20.201 ], [ 24.1235, -20.2179 ], [ 24.0975, -20.2156 ], [ 24.0882, -20.2257 ], [ 24.0582, -20.2441 ], [ 24.0554, -20.2557 ], [ 24.0299, -20.2522 ], [ 24.026, -20.2596 ], [ 24.0194, -20.2634 ], [ 24.0231, -20.2707 ], [ 24.0098, -20.2764 ], [ 23.9946, -20.2923 ], [ 23.9952, -20.3032 ], [ 23.9999, -20.3076 ], [ 23.9984, -20.3102 ], [ 23.9891, -20.3114 ], [ 23.9714, -20.306 ], [ 23.955, -20.3241 ], [ 23.9411, -20.3268 ], [ 23.9071, -20.3186 ], [ 23.8979, -20.3041 ], [ 23.891, -20.3019 ], [ 23.8862, -20.31 ], [ 23.8841, -21.0007 ], [ 24.1698, -21.3619 ], [ 25.0114, -22.4119 ], [ 25.3266, -22.1903 ], [ 25.6087, -21.9851 ], [ 25.89, -21.7784 ], [ 25.9207, -21.7459 ], [ 26.0659, -21.6417 ], [ 26.1527, -21.3164 ], [ 26.2844, -21.3012 ], [ 26.2972, -21.2928 ] ], [ [ 25.4611, -21.1828 ], [ 25.4563, -21.348 ], [ 25.3407, -21.348 ], [ 25.341, -21.1769 ], [ 25.4611, -21.1828 ] ] ] } },
{ "type": "Feature", "properties": { "iso3": "BWA", "unit_id": "29308430B46142064918371", "unit_name": "Tutume" }, "geometry": { "type": "Polygon", "coordinates": [ [ [ 27.2881, -21.7113 ], [ 27.3609, -21.7196 ], [ 27.3789, -21.7315 ], [ 27.4211, -21.731 ], [ 27.43, -21.7356 ], [ 27.4722, -21.7389 ], [ 27.49, -21.7434 ], [ 27.5065, -21.7385 ], [ 27.5194, -21.743 ], [ 27.5713, -21.7425 ], [ 27.5878, -21.7376 ], [ 27.5963, -21.7291 ], [ 27.6118, -21.6924 ], [ 27.6287, -21.668 ], [ 27.6353, -21.6315 ], [ 27.6557, -21.5987 ], [ 27.6683, -21.595 ], [ 27.6893, -21.5781 ], [ 27.6971, -21.5781 ], [ 27.7341, -21.5512 ], [ 27.7029, -21.5482 ], [ 27.6555, -21.5358 ], [ 27.6501, -21.5379 ], [ 27.6138, -21.5301 ], [ 27.6014, -21.5107 ], [ 27.5892, -21.5038 ], [ 27.5881, -21.4899 ], [ 27.5776, -21.4804 ], [ 27.5595, -21.4918 ], [ 27.5471, -21.4728 ], [ 27.5407, -21.4692 ], [ 27.5226, -21.4764 ], [ 27.5155, -21.4759 ], [ 27.5106, -21.4707 ], [ 27.5024, -21.4684 ], [ 27.4881, -21.4547 ], [ 27.4809, -21.4332 ], [ 27.462, -21.422 ], [ 27.4623, -21.4082 ], [ 27.4568, -21.3912 ], [ 27.4455, -21.3787 ], [ 27.4305, -21.3698 ], [ 27.4055, -21.3297 ], [ 27.4041, -21.3164 ], [ 27.41, -21.3045 ], [ 27.4036, -21.2969 ], [ 27.406, -21.2833 ], [ 27.3912, -21.2555 ], [ 27.3938, -21.2505 ], [ 27.3903, -21.231 ], [ 27.3945, -21.2129 ], [ 27.384, -21.1972 ], [ 27.3879, -21.1865 ], [ 27.3805, -21.1775 ], [ 27.3604, -21.168 ], [ 27.3482, -21.1436 ], [ 27.3503, -21.1398 ], [ 27.3481, -21.1274 ], [ 27.3512, -21.121 ], [ 27.3473, -21.1109 ], [ 27.3582, -21.0979 ], [ 27.3608, -21.069 ], [ 27.3567, -21.0602 ], [ 27.3632, -21.0576 ], [ 27.3615, -21.0418 ], [ 27.3433, -21.035 ], [ 27.3511, -21.0259 ], [ 27.3456, -21.0016 ], [ 27.3486, -20.9946 ], [ 27.3353, -20.984 ], [ 27.3294, -20.9673 ], [ 27.33, -20.9586 ], [ 27.3204, -20.9511 ], [ 27.3221, -20.9477 ], [ 27.3192, -20.941 ], [ 27.3136, -20.9372 ], [ 27.2945, -20.9052 ], [ 27.2866, -20.898 ], [ 27.2852, -20.8897 ], [ 27.2798, -20.8881 ], [ 27.2743, -20.8754 ], [ 27.2695, -20.8743 ], [ 27.2596, -20.8642 ], [ 27.2274, -20.8582 ], [ 27.2293, -20.8348 ], [ 27.2158, -20.8157 ], [ 27.2191, -20.8086 ], [ 27.2143, -20.7935 ], [ 27.2184, -20.7832 ], [ 27.2162, -20.7806 ], [ 27.2284, -20.767 ], [ 27.2226, -20.7517 ], [ 27.2248, -20.7425 ], [ 27.2217, -20.7323 ], [ 27.2271, -20.723 ], [ 27.2257, -20.7144 ], [ 27.2411, -20.7049 ], [ 27.2453, -20.6972 ], [ 27.2527, -20.6953 ], [ 27.2544, -20.69 ], [ 27.2587, -20.6893 ], [ 27.261, -20.6806 ], [ 27.258, -20.6797 ], [ 27.2584, -20.6763 ], [ 27.2661, -20.6694 ], [ 27.2682, -20.6589 ], [ 27.2748, -20.6583 ], [ 27.277, -20.6511 ], [ 27.2874, -20.6405 ], [ 27.2841, -20.6341 ], [ 27.2868, -20.6347 ], [ 27.2934, -20.6244 ], [ 27.3046, -20.6193 ], [ 27.3087, -20.6068 ], [ 27.3025, -20.6013 ], [ 27.3019, -20.5897 ], [ 27.2947, -20.5862 ], [ 27.2933, -20.5814 ], [ 27.2966, -20.5783 ], [ 27.2864, -20.5538 ], [ 27.2873, -20.5458 ], [ 27.28, -20.5333 ], [ 27.2873, -20.5269 ], [ 27.2883, -20.5171 ], [ 27.2851, -20.5091 ], [ 27.2888, -20.5018 ], [ 27.2856, -20.4855 ], [ 27.2984, -20.4259 ], [ 27.2961, -20.3588 ], [ 27.3043, -20.3311 ], [ 27.3037, -20.318 ], [ 27.2987, -20.3043 ], [ 27.3001, -20.2963 ], [ 27.2894, -20.2795 ], [ 27.292, -20.2673 ], [ 27.2848, -20.2322 ], [ 27.2663, -20.2138 ], [ 27.2643, -20.1945 ], [ 27.2508, -20.168 ], [ 27.2463, -20.1438 ], [ 27.2338, -20.1205 ], [ 27.224, -20.1115 ], [ 27.217, -20.0935 ], [ 27.2059, -20.082 ], [ 27.183, -20.0763 ], [ 27.1547, -20.0809 ], [ 27.1433, -20.0796 ], [ 27.1127, -20.0658 ], [ 27.0948, -20.052 ], [ 27.0836, -20.0316 ], [ 27.0404, -20.0087 ], [ 27.0059, -20.0079 ], [ 26.9884, -20.0143 ], [ 26.9789, -20.0145 ], [ 26.9341, -19.9991 ], [ 26.9051, -19.9815 ], [ 26.8704, -19.971 ], [ 26.8515, -19.9616 ], [ 26.8259, -19.9614 ], [ 26.8181, -19.9552 ], [ 26.8098, -19.9547 ], [ 26.7954, -19.947 ], [ 26.7539, -19.9365 ], [ 26.7262, -19.9399 ], [ 26.7183, -19.9297 ], [ 26.7019, -19.8954 ], [ 26.7028, -19.888 ], [ 26.6431, -19.873 ], [ 26.6321, -19.8756 ], [ 26.6218, -19.883 ], [ 26.6185, -19.8809 ], [ 26.5998, -19.8514 ], [ 26.5832, -19.8039 ], [ 26.5737, -19.7919 ], [ 26.5616, -19.7847 ], [ 26.5624, -19.7817 ], [ 26.5455, -19.7844 ], [ 26.536, -19.7779 ], [ 26.5334, -19.7699 ], [ 26.5115, -19.7672 ], [ 26.5059, -19.7615 ], [ 26.4942, -19.758 ], [ 26.4406, -19.7489 ], [ 26.4296, -19.7427 ], [ 26.4146, -19.7247 ], [ 26.4062, -19.6955 ], [ 26.3943, -19.6827 ], [ 26.3917, -19.6711 ], [ 26.3879, -19.6693 ], [ 26.3534, -19.6759 ], [ 26.3408, -19.6672 ], [ 26.328, -19.6642 ], [ 26.3286, -19.6516 ], [ 26.3377, -19.6355 ], [ 26.3477, -19.622 ], [ 26.3586, -19.6149 ], [ 26.3239, -19.5925 ], [ 26.3123, -19.5761 ], [ 26.247, -19.5857 ], [ 26.2371, -19.5821 ], [ 26.2165, -19.5635 ], [ 26.2036, -19.5619 ], [ 26.185, -19.5506 ], [ 26.1702, -19.5464 ], [ 26.1595, -19.5222 ], [ 26.157, -19.5039 ], [ 26.1534, -19.5017 ], [ 26.1418, -19.4382 ], [ 26.1313, -19.4287 ], [ 26.1261, -19.4281 ], [ 26.1086, -19.362 ], [ 26.0977, -19.3475 ], [ 26.0909, -19.3245 ], [ 26.074, -19.2925 ], [ 26.0722, -19.2724 ], [ 26.0609, -19.262 ], [ 26.0437, -19.2366 ], [ 26.0419, -19.2106 ], [ 25.9923, -19.1475 ], [ 25.9749, -19.1316 ], [ 25.9715, -19.1187 ], [ 25.9645, -19.1079 ], [ 25.9615, -19.0903 ], [ 25.9653, -19.0667 ], [ 25.9747, -19.0529 ], [ 25.9966, -19.0315 ], [ 25.9887, -19.0003 ], [ 25.0335, -19.001 ], [ 25.0355, -19.9881 ], [ 25.2106, -20.0661 ], [ 25.2125, -20.3402 ], [ 24.9628, -20.3544 ], [ 24.9611, -20.6595 ], [ 25.4351, -20.6652 ], [ 25.5379, -20.8898 ], [ 26.1502, -20.8898 ], [ 26.1612, -20.8956 ], [ 26.1628, -20.9001 ], [ 26.2832, -20.9609 ], [ 26.2959, -21.0532 ], [ 26.346, -21.0406 ], [ 26.3638, -21.0442 ], [ 26.3893, -21.0404 ], [ 26.3933, -21.0478 ], [ 26.3937, -21.0644 ], [ 26.3888, -21.084 ], [ 26.38, -21.0938 ], [ 26.3592, -21.1067 ], [ 26.3274, -21.1017 ], [ 26.3053, -21.1027 ], [ 26.286, -21.1115 ], [ 26.286, -21.2218 ], [ 26.2972, -21.2928 ], [ 26.5696, -21.4146 ], [ 26.7037, -21.4629 ], [ 26.7949, -21.3242 ], [ 26.8934, -21.3271 ], [ 27.1133, -21.3937 ], [ 27.1088, -21.4022 ], [ 27.1091, -21.4152 ], [ 27.1194, -21.4708 ], [ 27.1037, -21.5073 ], [ 27.1168, -21.523 ], [ 27.1375, -21.5265 ], [ 27.1556, -21.5393 ], [ 27.159, -21.5515 ], [ 27.1951, -21.5828 ], [ 27.2528, -21.6805 ], [ 27.2531, -21.689 ], [ 27.262, -21.6926 ], [ 27.2673, -21.7047 ], [ 27.2881, -21.7113 ] ], [ [ 26.1517, -20.5972 ], [ 26.1514, -20.4563 ], [ 26.2582, -20.4543 ], [ 26.2615, -20.5933 ], [ 26.1517, -20.5972 ] ] ] } },
{ "type": "Feature", "properties": { "iso3": "BWA", "unit_id": "29308430B12751800089950", "unit_name": "North East" }, "geometry": { "type": "Polygon", "coordinates": [ [ [ 28.0108, -21.5615 ], [ 28.0071, -21.5564 ], [ 28.006, -21.5442 ], [ 27.9943, -21.5286 ], [ 28.0022, -21.5163 ], [ 27.9838, -21.5158 ], [ 27.9779, -21.5239 ], [ 27.9702, -21.5175 ], [ 27.9749, -21.505 ], [ 27.9738, -21.4965 ], [ 27.9825, -21.49 ], [ 27.9837, -21.4849 ], [ 27.9608, -21.4775 ], [ 27.9573, -21.4728 ], [ 27.9632, -21.4621 ], [ 27.9754, -21.4618 ], [ 27.9777, -21.457 ], [ 27.9691, -21.4497 ], [ 27.9658, -21.4398 ], [ 27.9517, -21.4309 ], [ 27.9513, -21.4254 ], [ 27.9574, -21.4131 ], [ 27.9442, -21.3877 ], [ 27.9297, -21.3756 ], [ 27.9206, -21.362 ], [ 27.918, -21.343 ], [ 27.9209, -21.3315 ], [ 27.9046, -21.3027 ], [ 27.8842, -21.2902 ], [ 27.8834, -21.2805 ], [ 27.8683, -21.2697 ], [ 27.8536, -21.2395 ], [ 27.835, -21.2217 ], [ 27.8269, -21.2052 ], [ 27.8136, -21.1985 ], [ 27.8171, -21.1913 ], [ 27.8053, -21.1754 ], [ 27.7884, -21.1776 ], [ 27.7794, -21.1597 ], [ 27.7678, -21.155 ], [ 27.7504, -21.1531 ], [ 27.7464, -21.1422 ], [ 27.7285, -21.1279 ], [ 27.7251, -21.1171 ], [ 27.7171, -21.1139 ], [ 27.7135, -21.1048 ], [ 27.7027, -21.1016 ], [ 27.6984, -21.0963 ], [ 27.6994, -21.0909 ], [ 27.693, -21.0869 ], [ 27.6951, -21.0734 ], [ 27.6896, -21.0676 ], [ 27.6853, -21.0518 ], [ 27.6989, -21.0467 ], [ 27.7047, -21.038 ], [ 27.7026, -21.024 ], [ 27.6982, -21.0164 ], [ 27.7005, -21.0132 ], [ 27.6955, -21.0059 ], [ 27.7072, -21.0004 ], [ 27.7014, -20.9906 ], [ 27.7008, -20.9807 ], [ 27.7098, -20.966 ], [ 27.7103, -20.9578 ], [ 27.6982, -20.9474 ], [ 27.6894, -20.9343 ], [ 27.6955, -20.9253 ], [ 27.6975, -20.9097 ], [ 27.7019, -20.9057 ], [ 27.7002, -20.8932 ], [ 27.6926, -20.882 ], [ 27.6933, -20.8662 ], [ 27.7075, -20.8488 ], [ 27.711, -20.8496 ], [ 27.7176, -20.8383 ], [ 27.7123, -20.8302 ], [ 27.7198, -20.8072 ], [ 27.7172, -20.7997 ], [ 27.719, -20.796 ], [ 27.7306, -20.7952 ], [ 27.7258, -20.7785 ], [ 27.7326, -20.7604 ], [ 27.733, -20.7518 ], [ 27.7297, -20.7464 ], [ 27.7334, -20.7416 ], [ 27.727, -20.7208 ], [ 27.7332, -20.7148 ], [ 27.7291, -20.7135 ], [ 27.7333, -20.7038 ], [ 27.7233, -20.6948 ], [ 27.7257, -20.6915 ], [ 27.7164, -20.6834 ], [ 27.7161, -20.679 ], [ 27.7129, -20.6796 ], [ 27.7131, -20.6757 ], [ 27.7048, -20.666 ], [ 27.7026, -20.6528 ], [ 27.7064, -20.6471 ], [ 27.7029, -20.6402 ], [ 27.7087, -20.6256 ], [ 27.7041, -20.619 ], [ 27.7034, -20.6027 ], [ 27.7078, -20.5961 ], [ 27.7111, -20.5965 ], [ 27.7137, -20.5863 ], [ 27.7201, -20.5839 ], [ 27.7221, -20.5779 ], [ 27.7186, -20.572 ], [ 27.729, -20.557 ], [ 27.7264, -20.5526 ], [ 27.7305, -20.5442 ], [ 27.7269, -20.5343 ], [ 27.7291, -20.5213 ], [ 27.7236, -20.5133 ], [ 27.6952, -20.4902 ], [ 27.6833, -20.4867 ], [ 27.6753, -20.4938 ], [ 27.6467, -20.4987 ], [ 27.6219, -20.4792 ], [ 27.6031, -20.4801 ], [ 27.5766, -20.4942 ], [ 27.5449, -20.4826 ], [ 27.4714, -20.4675 ], [ 27.4338, -20.4821 ], [ 27.3787, -20.4777 ], [ 27.3623, -20.4682 ], [ 27.2887, -20.4989 ], [ 27.2851, -20.5091 ], [ 27.2883, -20.5171 ], [ 27.2873, -20.5269 ], [ 27.28, -20.5333 ], [ 27.2873, -20.5458 ], [ 27.2864, -20.5538 ], [ 27.2966, -20.5783 ], [ 27.2933, -20.5814 ], [ 27.2947, -20.5862 ], [ 27.3019, -20.5897 ], [ 27.3025, -20.6013 ], [ 27.3087, -20.6068 ], [ 27.3046, -20.6193 ], [ 27.2934, -20.6244 ], [ 27.2868, -20.6347 ], [ 27.2841, -20.6341 ], [ 27.2874, -20.6405 ], [ 27.277, -20.6511 ], [ 27.2748, -20.6583 ], [ 27.2682, -20.6589 ], [ 27.2661, -20.6694 ], [ 27.2584, -20.6763 ], [ 27.258, -20.6797 ], [ 27.261, -20.6806 ], [ 27.2587, -20.6893 ], [ 27.2544, -20.69 ], [ 27.2527, -20.6953 ], [ 27.2453, -20.6972 ], [ 27.2411, -20.7049 ], [ 27.2257, -20.7144 ], [ 27.2271, -20.723 ], [ 27.2217, -20.7323 ], [ 27.2248, -20.7425 ], [ 27.2226, -20.7517 ], [ 27.2284, -20.767 ], [ 27.2162, -20.7806 ], [ 27.2184, -20.7832 ], [ 27.2143, -20.7935 ], [ 27.2191, -20.8086 ], [ 27.2158, -20.8157 ], [ 27.2293, -20.8348 ], [ 27.2274, -20.8582 ], [ 27.2596, -20.8642 ], [ 27.2695, -20.8743 ], [ 27.2743, -20.8754 ], [ 27.2798, -20.8881 ], [ 27.2852, -20.8897 ], [ 27.2866, -20.898 ], [ 27.2945, -20.9052 ], [ 27.3136, -20.9372 ], [ 27.3192, -20.941 ], [ 27.3221, -20.9477 ], [ 27.3204, -20.9511 ], [ 27.33, -20.9586 ], [ 27.3294, -20.9673 ], [ 27.3353, -20.984 ], [ 27.3486, -20.9946 ], [ 27.3456, -21.0016 ], [ 27.3511, -21.0259 ], [ 27.3433, -21.035 ], [ 27.3615, -21.0418 ], [ 27.3632, -21.0576 ], [ 27.3567, -21.0602 ], [ 27.3608, -21.069 ], [ 27.3582, -21.0979 ], [ 27.3473, -21.1109 ], [ 27.3512, -21.121 ], [ 27.3481, -21.1274 ], [ 27.3503, -21.1398 ], [ 27.3482, -21.1436 ], [ 27.3604, -21.168 ], [ 27.3805, -21.1775 ], [ 27.3879, -21.1865 ], [ 27.384, -21.1972 ], [ 27.3945, -21.2129 ], [ 27.3903, -21.231 ], [ 27.3938, -21.2505 ], [ 27.3912, -21.2555 ], [ 27.406, -21.2833 ], [ 27.4036, -21.2969 ], [ 27.41, -21.3045 ], [ 27.4041, -21.3164 ], [ 27.4055, -21.3297 ], [ 27.4305, -21.3698 ], [ 27.4455, -21.3787 ], [ 27.4568, -21.3912 ], [ 27.4623, -21.4082 ], [ 27.462, -21.422 ], [ 27.4809, -21.4332 ], [ 27.4881, -21.4547 ], [ 27.5024, -21.4684 ], [ 27.5106, -21.4707 ], [ 27.5155, -21.4759 ], [ 27.5226, -21.4764 ], [ 27.5407, -21.4692 ], [ 27.5471, -21.4728 ], [ 27.5595, -21.4918 ], [ 27.5776, -21.4804 ], [ 27.5881, -21.4899 ], [ 27.5892, -21.5038 ], [ 27.6014, -21.5107 ], [ 27.6138, -21.5301 ], [ 27.6501, -21.5379 ], [ 27.6555, -21.5358 ], [ 27.7029, -21.5482 ], [ 27.7491, -21.5542 ], [ 27.7607, -21.5637 ], [ 27.7658, -21.5584 ], [ 27.7797, -21.5536 ], [ 27.7941, -21.5525 ], [ 27.8276, -21.5423 ], [ 27.8524, -21.5493 ], [ 27.8595, -21.5312 ], [ 27.8645, -21.5314 ], [ 27.8774, -21.5424 ], [ 27.8895, -21.545 ], [ 27.9177, -21.5424 ], [ 27.9434, -21.5543 ], [ 28.0108, -21.5615 ] ], [ [ 27.5549, -21.0883 ], [ 27.5364, -21.1301 ], [ 27.5495, -21.1573 ], [ 27.5653, -21.2021 ], [ 27.5651, -21.209 ], [ 27.5425, -21.2227 ], [ 27.5021, -21.1982 ], [ 27.5055, -21.1843 ], [ 27.4913, -21.1725 ], [ 27.4889, -21.1677 ], [ 27.4922, -21.1634 ], [ 27.486, -21.1574 ], [ 27.4952, -21.158 ], [ 27.4901, -21.1493 ], [ 27.4926, -21.1406 ], [ 27.4981, -21.1425 ], [ 27.4953, -21.1356 ], [ 27.4966, -21.1237 ], [ 27.5095, -21.1293 ], [ 27.5142, -21.1235 ], [ 27.5153, -21.1185 ], [ 27.5082, -21.1171 ], [ 27.5065, -21.1073 ], [ 27.5169, -21.0806 ], [ 27.5261, -21.076 ], [ 27.5394, -21.0776 ], [ 27.5439, -21.08 ], [ 27.544, -21.0849 ], [ 27.5471, -21.0838 ], [ 27.5549, -21.0883 ] ] ] } },
{ "type": "Feature", "properties": { "iso3": "BWA", "unit_id": "29308430B44706169656952", "unit_name": "Ngamiland East" }, "geometry": { "type": "Polygon", "coordinates": [ [ [ 24.5056, -20.3829 ], [ 25.2125, -20.3402 ], [ 25.2106, -20.0661 ], [ 25.0355, -19.9881 ], [ 25.0335, -19.001 ], [ 24.2707, -19.0016 ], [ 23.9124, -18.9937 ], [ 23.9149, -18.2633 ], [ 23.9087, -18.265 ], [ 23.9077, -18.2598 ], [ 23.904, -18.2637 ], [ 23.9056, -18.2655 ], [ 23.8963, -18.2628 ], [ 23.8921, -18.2689 ], [ 23.8875, -18.2663 ], [ 23.8868, -18.2709 ], [ 23.8832, -18.27 ], [ 23.8817, -18.2757 ], [ 23.8769, -18.2734 ], [ 23.8774, -18.2774 ], [ 23.8688, -18.2821 ], [ 23.8731, -18.2895 ], [ 23.8616, -18.2956 ], [ 23.8642, -18.305 ], [ 23.8606, -18.3008 ], [ 23.8599, -18.3037 ], [ 23.8513, -18.3018 ], [ 23.8494, -18.3182 ], [ 23.8409, -18.3236 ], [ 23.8446, -18.3268 ], [ 23.841, -18.3279 ], [ 23.8392, -18.3241 ], [ 23.8358, -18.3285 ], [ 23.8339, -18.323 ], [ 23.8332, -18.3293 ], [ 23.8273, -18.3345 ], [ 23.8207, -18.3305 ], [ 23.821, -18.3332 ], [ 23.819, -18.3316 ], [ 23.8029, -18.34 ], [ 23.806, -18.3418 ], [ 23.8045, -18.3449 ], [ 23.8082, -18.3461 ], [ 23.8048, -18.3486 ], [ 23.8085, -18.3535 ], [ 23.8041, -18.3514 ], [ 23.8066, -18.3551 ], [ 23.8007, -18.3576 ], [ 23.8031, -18.3602 ], [ 23.793, -18.3655 ], [ 23.7959, -18.374 ], [ 23.787, -18.3845 ], [ 23.779, -18.389 ], [ 23.775, -18.3875 ], [ 23.7694, -18.3975 ], [ 23.7647, -18.3982 ], [ 23.7615, -18.4065 ], [ 23.7556, -18.4038 ], [ 23.7454, -18.4113 ], [ 23.7468, -18.4148 ], [ 23.7437, -18.414 ], [ 23.7377, -18.4251 ], [ 23.735, -18.4233 ], [ 23.7307, -18.4289 ], [ 23.7237, -18.4289 ], [ 23.7202, -18.4351 ], [ 23.7166, -18.4337 ], [ 23.7143, -18.4363 ], [ 23.7022, -18.4306 ], [ 23.693, -18.4346 ], [ 23.6869, -18.4309 ], [ 23.6826, -18.4354 ], [ 23.6834, -18.4417 ], [ 23.6789, -18.4458 ], [ 23.679, -18.452 ], [ 23.675, -18.4528 ], [ 23.6692, -18.4617 ], [ 23.6708, -18.4645 ], [ 23.6665, -18.4665 ], [ 23.6633, -18.4735 ], [ 23.657, -18.4789 ], [ 23.647, -18.4783 ], [ 23.6161, -18.5023 ], [ 23.601, -18.4987 ], [ 23.5961, -18.4943 ], [ 23.5932, -18.4963 ], [ 23.5907, -18.4921 ], [ 23.5858, -18.4893 ], [ 23.5836, -18.4912 ], [ 23.5787, -18.4845 ], [ 23.5743, -18.4836 ], [ 23.2191, -18.827 ], [ 23.66, -19.4931 ], [ 23.2736, -19.8322 ], [ 23.192, -19.8958 ], [ 22.9261, -20.1247 ], [ 22.6477, -19.9962 ], [ 22.482, -19.7481 ], [ 22.4327, -19.76 ], [ 22.3756, -19.8114 ], [ 22.3299, -19.8228 ], [ 22.3042, -19.8157 ], [ 22.2828, -19.7986 ], [ 22.013, -19.8029 ], [ 22.0101, -20.2407 ], [ 22.0241, -20.9993 ], [ 23.8841, -21.0007 ], [ 23.8844, -20.3197 ], [ 23.891, -20.3019 ], [ 23.8979, -20.3041 ], [ 23.9071, -20.3186 ], [ 23.9411, -20.3268 ], [ 23.955, -20.3241 ], [ 23.9714, -20.306 ], [ 23.9891, -20.3114 ], [ 23.9984, -20.3102 ], [ 23.9999, -20.3076 ], [ 23.9952, -20.3032 ], [ 23.9946, -20.2923 ], [ 24.0098, -20.2764 ], [ 24.0231, -20.2707 ], [ 24.0194, -20.2634 ], [ 24.026, -20.2596 ], [ 24.0299, -20.2522 ], [ 24.0554, -20.2557 ], [ 24.0582, -20.2441 ], [ 24.0882, -20.2257 ], [ 24.0975, -20.2156 ], [ 24.1235, -20.2179 ], [ 24.1386, -20.201 ], [ 24.1545, -20.1986 ], [ 24.1629, -20.2082 ], [ 24.1712, -20.2082 ], [ 24.1969, -20.2187 ], [ 24.1993, -20.2224 ], [ 24.1972, -20.227 ], [ 24.2048, -20.241 ], [ 24.229, -20.2557 ], [ 24.2458, -20.2475 ], [ 24.2504, -20.2255 ], [ 24.2593, -20.2207 ], [ 24.2648, -20.2277 ], [ 24.2614, -20.2414 ], [ 24.27, -20.2516 ], [ 24.2819, -20.2558 ], [ 24.2811, -20.2742 ], [ 24.2699, -20.279 ], [ 24.268, -20.2827 ], [ 24.2793, -20.2999 ], [ 24.2827, -20.3156 ], [ 24.2894, -20.319 ], [ 24.3022, -20.317 ], [ 24.3112, -20.3182 ], [ 24.3176, -20.3228 ], [ 24.3268, -20.3217 ], [ 24.3355, -20.3303 ], [ 24.3355, -20.3394 ], [ 24.34, -20.3431 ], [ 24.3351, -20.3484 ], [ 24.3358, -20.3517 ], [ 24.3516, -20.3617 ], [ 24.3588, -20.3754 ], [ 24.3694, -20.3785 ], [ 24.382, -20.3867 ], [ 24.3832, -20.3916 ], [ 24.3886, -20.3907 ], [ 24.409, -20.4032 ], [ 24.422, -20.3984 ], [ 24.4475, -20.3965 ], [ 24.4582, -20.3873 ], [ 24.4725, -20.385 ], [ 24.4847, -20.3932 ], [ 24.4902, -20.3935 ], [ 24.5056, -20.3829 ] ] ] } },
{ "type": "Feature", "properties": { "iso3": "BWA", "unit_id": "29308430B49722257208500", "unit_name": "Ngamiland West" }, "geometry": { "type": "Polygon", "coordinates": [ [ [ 22.482, -19.7481 ], [ 22.4104, -19.6411 ], [ 22.4675, -18.9772 ], [ 23.2191, -18.827 ], [ 23.5743, -18.4836 ], [ 23.5671, -18.4789 ], [ 23.5701, -18.4774 ], [ 23.567, -18.4726 ], [ 23.5706, -18.4725 ], [ 23.5732, -18.4676 ], [ 23.5687, -18.4605 ], [ 23.5711, -18.4601 ], [ 23.5716, -18.4545 ], [ 23.5618, -18.4504 ], [ 23.5536, -18.4333 ], [ 23.5585, -18.4262 ], [ 23.5593, -18.4176 ], [ 23.5643, -18.4137 ], [ 23.5606, -18.3916 ], [ 23.55, -18.3887 ], [ 23.5524, -18.3741 ], [ 23.5602, -18.3755 ], [ 23.5645, -18.3698 ], [ 23.5609, -18.3675 ], [ 23.5624, -18.3646 ], [ 23.5535, -18.3583 ], [ 23.5552, -18.35 ], [ 23.5521, -18.3468 ], [ 23.5588, -18.3372 ], [ 23.554, -18.334 ], [ 23.5541, -18.3381 ], [ 23.5513, -18.3372 ], [ 23.5431, -18.3289 ], [ 23.5368, -18.3272 ], [ 23.537, -18.319 ], [ 23.5289, -18.322 ], [ 23.528, -18.3192 ], [ 23.5326, -18.3165 ], [ 23.5275, -18.3124 ], [ 23.5294, -18.3131 ], [ 23.5298, -18.3039 ], [ 23.5341, -18.2962 ], [ 23.5258, -18.2908 ], [ 23.5309, -18.2857 ], [ 23.522, -18.2853 ], [ 23.5266, -18.2788 ], [ 23.5237, -18.2766 ], [ 23.5258, -18.2731 ], [ 23.5211, -18.2758 ], [ 23.5203, -18.2683 ], [ 23.503, -18.2661 ], [ 23.5066, -18.2618 ], [ 23.5011, -18.2588 ], [ 23.5045, -18.2533 ], [ 23.4981, -18.255 ], [ 23.5004, -18.2418 ], [ 23.4935, -18.2441 ], [ 23.4883, -18.2413 ], [ 23.4826, -18.2445 ], [ 23.4761, -18.2416 ], [ 23.4692, -18.2467 ], [ 23.467, -18.2458 ], [ 23.4681, -18.241 ], [ 23.4658, -18.242 ], [ 23.4583, -18.2335 ], [ 23.4531, -18.2362 ], [ 23.4494, -18.23 ], [ 23.4511, -18.2272 ], [ 23.447, -18.2248 ], [ 23.4511, -18.2207 ], [ 23.4455, -18.2129 ], [ 23.4336, -18.2135 ], [ 23.4346, -18.2091 ], [ 23.4273, -18.2101 ], [ 23.4242, -18.2041 ], [ 23.4203, -18.2055 ], [ 23.4207, -18.2136 ], [ 23.41, -18.2035 ], [ 23.4067, -18.206 ], [ 23.4022, -18.2042 ], [ 23.4016, -18.209 ], [ 23.3975, -18.2081 ], [ 23.3995, -18.1973 ], [ 23.4024, -18.196 ], [ 23.3985, -18.1924 ], [ 23.4048, -18.1885 ], [ 23.403, -18.1746 ], [ 23.3909, -18.1666 ], [ 23.3903, -18.162 ], [ 23.3843, -18.1637 ], [ 23.3846, -18.1565 ], [ 23.3793, -18.1438 ], [ 23.3805, -18.1363 ], [ 23.3711, -18.134 ], [ 23.3639, -18.1269 ], [ 23.3662, -18.1232 ], [ 23.3629, -18.1206 ], [ 23.3674, -18.1163 ], [ 23.358, -18.1177 ], [ 23.3583, -18.1126 ], [ 23.3503, -18.1099 ], [ 23.3524, -18.104 ], [ 23.3478, -18.1028 ], [ 23.349, -18.0969 ], [ 23.3441, -18.0959 ], [ 23.3438, -18.0895 ], [ 23.3409, -18.09 ], [ 23.3399, -18.0861 ], [ 23.3338, -18.0888 ], [ 23.3312, -18.0842 ], [ 23.3241, -18.0825 ], [ 23.3265, -18.079 ], [ 23.3222, -18.0759 ], [ 23.3247, -18.071 ], [ 23.3208, -18.0686 ], [ 23.3241, -18.0633 ], [ 23.3203, -18.0586 ], [ 23.3257, -18.0531 ], [ 23.3293, -18.0567 ], [ 23.3348, -18.0519 ], [ 23.3213, -18.0494 ], [ 23.3211, -18.0383 ], [ 23.3086, -18.0386 ], [ 23.3076, -18.0339 ], [ 23.317, -18.0237 ], [ 23.3087, -18.0131 ], [ 23.3043, -18.0118 ], [ 23.3088, -18.0068 ], [ 23.3087, -18.0018 ], [ 23.306, -18.004 ], [ 23.302, -18.0018 ], [ 23.2962, -18.006 ], [ 23.2969, -18.0008 ], [ 23.0984, -18.0008 ], [ 21.453, -18.3173 ], [ 20.9988, -18.3173 ], [ 20.9987, -20.9951 ], [ 22.0241, -20.9993 ], [ 22.0101, -20.2407 ], [ 22.013, -19.8029 ], [ 22.2828, -19.7986 ], [ 22.3042, -19.8157 ], [ 22.3299, -19.8228 ], [ 22.3756, -19.8114 ], [ 22.4327, -19.76 ], [ 22.482, -19.7481 ] ] ] } },
{ "type": "Feature", "properties": { "iso3": "BWA", "unit_id": "29308430B84724346899266", "unit_name": "Ngamiland Delta" }, "geometry": { "type": "Polygon", "coordinates": [ [ [ 23.2191, -18.827 ], [ 22.4675, -18.9772 ], [ 22.4104, -19.6411 ], [ 22.6477, -19.9962 ], [ 22.9261, -20.1247 ], [ 23.192, -19.8958 ], [ 23.2736, -19.8322 ], [ 23.66, -19.4931 ], [ 23.2191, -18.827 ] ] ] } },
{ "type": "Feature", "properties": { "iso3": "BWA", "unit_id": "29308430B12429347720834", "unit_name": "Chobe" }, "geometry": { "type": "Polygon", "coordinates": [ [ [ 25.9887, -19.0003 ], [ 25.9849, -18.9733 ], [ 25.9749, -18.9609 ], [ 25.9678, -18.9414 ], [ 25.947, -18.9077 ], [ 25.9384, -18.9005 ], [ 25.9237, -18.8992 ], [ 25.8688, -18.8587 ], [ 25.8543, -18.8544 ], [ 25.8503, -18.8491 ], [ 25.8255, -18.8373 ], [ 25.8216, -18.8286 ], [ 25.8198, -18.8084 ], [ 25.8062, -18.7899 ], [ 25.7955, -18.7509 ], [ 25.7903, -18.7199 ], [ 25.7917, -18.6986 ], [ 25.7926, -18.6944 ], [ 25.8037, -18.6859 ], [ 25.7901, -18.6623 ], [ 25.7885, -18.6421 ], [ 25.7824, -18.6245 ], [ 25.7569, -18.6043 ], [ 25.7353, -18.5954 ], [ 25.7175, -18.592 ], [ 25.6922, -18.573 ], [ 25.6698, -18.5419 ], [ 25.6633, -18.5259 ], [ 25.6559, -18.5203 ], [ 25.6479, -18.4966 ], [ 25.6103, -18.4838 ], [ 25.6036, -18.478 ], [ 25.5697, -18.4305 ], [ 25.5223, -18.3835 ], [ 25.517, -18.3757 ], [ 25.5167, -18.3652 ], [ 25.5077, -18.3384 ], [ 25.4908, -18.2982 ], [ 25.465, -18.2594 ], [ 25.4578, -18.2437 ], [ 25.4556, -18.2271 ], [ 25.4483, -18.221 ], [ 25.4409, -18.1987 ], [ 25.4267, -18.1783 ], [ 25.4159, -18.153 ], [ 25.3937, -18.1214 ], [ 25.3705, -18.1176 ], [ 25.3657, -18.1117 ], [ 25.3643, -18.099 ], [ 25.3553, -18.0908 ], [ 25.319, -18.0782 ], [ 25.3131, -18.0596 ], [ 25.3052, -18.0528 ], [ 25.2864, -18.0221 ], [ 25.2809, -18.0062 ], [ 25.282, -17.9907 ], [ 25.2655, -17.9484 ], [ 25.2528, -17.941 ], [ 25.2374, -17.9124 ], [ 25.2435, -17.8974 ], [ 25.2391, -17.89 ], [ 25.2398, -17.8725 ], [ 25.2463, -17.8515 ], [ 25.2648, -17.8169 ], [ 25.2618, -17.7905 ], [ 25.2563, -17.7949 ], [ 25.2372, -17.7915 ], [ 25.2227, -17.7936 ], [ 25.1766, -17.7797 ], [ 25.1625, -17.7783 ], [ 25.1569, -17.7812 ], [ 25.1439, -17.808 ], [ 25.129, -17.8019 ], [ 25.1162, -17.8258 ], [ 25.0657, -17.841 ], [ 25.0545, -17.8364 ], [ 25.0493, -17.8307 ], [ 25.0519, -17.8277 ], [ 25.0586, -17.8303 ], [ 25.0615, -17.8259 ], [ 25.0601, -17.8126 ], [ 25.0542, -17.8078 ], [ 25.044, -17.8116 ], [ 25.0134, -17.8383 ], [ 25.0049, -17.8379 ], [ 24.9999, -17.8314 ], [ 25.0037, -17.825 ], [ 25.0095, -17.8258 ], [ 25.0094, -17.819 ], [ 25.0041, -17.8157 ], [ 24.9974, -17.8179 ], [ 24.994, -17.8298 ], [ 24.9764, -17.8259 ], [ 24.9751, -17.8196 ], [ 24.9808, -17.8133 ], [ 24.9753, -17.8101 ], [ 24.968, -17.8107 ], [ 24.9645, -17.8045 ], [ 24.9671, -17.801 ], [ 24.9805, -17.798 ], [ 24.9822, -17.7927 ], [ 24.9759, -17.7882 ], [ 24.9596, -17.7883 ], [ 24.9532, -17.7958 ], [ 24.9535, -17.8019 ], [ 24.9393, -17.8109 ], [ 24.932, -17.8199 ], [ 24.93, -17.8192 ], [ 24.9336, -17.8167 ], [ 24.9301, -17.8151 ], [ 24.9288, -17.8088 ], [ 24.9263, -17.8093 ], [ 24.9276, -17.8139 ], [ 24.921, -17.8115 ], [ 24.9164, -17.815 ], [ 24.9111, -17.8101 ], [ 24.9006, -17.8303 ], [ 24.8893, -17.8285 ], [ 24.8536, -17.8507 ], [ 24.8491, -17.8502 ], [ 24.8497, -17.8471 ], [ 24.8426, -17.8468 ], [ 24.8305, -17.8504 ], [ 24.8315, -17.8474 ], [ 24.8235, -17.8459 ], [ 24.8218, -17.852 ], [ 24.7959, -17.8757 ], [ 24.7941, -17.8699 ], [ 24.7782, -17.8766 ], [ 24.7708, -17.8722 ], [ 24.7747, -17.8823 ], [ 24.7708, -17.8816 ], [ 24.7698, -17.8872 ], [ 24.7655, -17.8868 ], [ 24.7572, -17.8949 ], [ 24.7501, -17.8967 ], [ 24.747, -17.8874 ], [ 24.7395, -17.8843 ], [ 24.7395, -17.8881 ], [ 24.7354, -17.8884 ], [ 24.7347, -17.8931 ], [ 24.7306, -17.8948 ], [ 24.7343, -17.8984 ], [ 24.7276, -17.8994 ], [ 24.724, -17.9039 ], [ 24.7266, -17.9121 ], [ 24.7244, -17.9159 ], [ 24.7187, -17.9158 ], [ 24.72, -17.9227 ], [ 24.7144, -17.9203 ], [ 24.7085, -17.9221 ], [ 24.7068, -17.9328 ], [ 24.6992, -17.9429 ], [ 24.6933, -17.9424 ], [ 24.6964, -17.9389 ], [ 24.6943, -17.9369 ], [ 24.6893, -17.9428 ], [ 24.6812, -17.9453 ], [ 24.6811, -17.9486 ], [ 24.6746, -17.9453 ], [ 24.6698, -17.9516 ], [ 24.6658, -17.9498 ], [ 24.6628, -17.9614 ], [ 24.6552, -17.9681 ], [ 24.6493, -17.9683 ], [ 24.6461, -17.9783 ], [ 24.6414, -17.9802 ], [ 24.6358, -17.978 ], [ 24.6345, -17.9845 ], [ 24.6321, -17.9818 ], [ 24.6277, -17.9837 ], [ 24.6285, -17.9955 ], [ 24.6246, -17.9928 ], [ 24.6245, -17.9961 ], [ 24.6169, -17.9944 ], [ 24.6157, -18.0038 ], [ 24.6189, -18.0043 ], [ 24.6159, -18.0086 ], [ 24.6116, -18.0072 ], [ 24.6146, -18.0113 ], [ 24.612, -18.0153 ], [ 24.6165, -18.0173 ], [ 24.6137, -18.0183 ], [ 24.6161, -18.0205 ], [ 24.6075, -18.0235 ], [ 24.6104, -18.0268 ], [ 24.6051, -18.0311 ], [ 24.6084, -18.035 ], [ 24.599, -18.0356 ], [ 24.6014, -18.0423 ], [ 24.5975, -18.0426 ], [ 24.598, -18.0491 ], [ 24.5892, -18.0532 ], [ 24.5877, -18.0569 ], [ 24.5819, -18.0576 ], [ 24.5825, -18.0626 ], [ 24.5782, -18.065 ], [ 24.5792, -18.0698 ], [ 24.5754, -18.0739 ], [ 24.5722, -18.0689 ], [ 24.5666, -18.0717 ], [ 24.5594, -18.0663 ], [ 24.553, -18.0689 ], [ 24.5508, -18.0654 ], [ 24.5495, -18.0703 ], [ 24.5435, -18.0706 ], [ 24.5411, -18.0647 ], [ 24.5389, -18.0703 ], [ 24.5325, -18.0629 ], [ 24.5341, -18.0585 ], [ 24.5286, -18.0591 ], [ 24.5313, -18.0544 ], [ 24.5221, -18.0513 ], [ 24.5239, -18.0572 ], [ 24.5184, -18.0635 ], [ 24.5164, -18.0589 ], [ 24.5091, -18.0564 ], [ 24.512, -18.0633 ], [ 24.5083, -18.0659 ], [ 24.5051, -18.0599 ], [ 24.4953, -18.0553 ], [ 24.499, -18.0527 ], [ 24.4991, -18.0427 ], [ 24.4886, -18.0456 ], [ 24.4925, -18.0427 ], [ 24.4882, -18.0435 ], [ 24.4903, -18.0383 ], [ 24.4829, -18.0379 ], [ 24.4816, -18.0347 ], [ 24.4849, -18.0329 ], [ 24.4827, -18.0315 ], [ 24.4851, -18.0272 ], [ 24.4817, -18.0256 ], [ 24.4862, -18.0221 ], [ 24.4838, -18.0183 ], [ 24.4872, -18.0147 ], [ 24.4794, -18.0075 ], [ 24.4709, -18.0062 ], [ 24.4713, -17.9943 ], [ 24.4668, -17.9965 ], [ 24.4657, -17.9891 ], [ 24.4544, -17.9849 ], [ 24.4596, -17.9818 ], [ 24.4562, -17.9775 ], [ 24.4572, -17.9634 ], [ 24.4501, -17.9658 ], [ 24.4502, -17.9735 ], [ 24.4408, -17.9624 ], [ 24.4302, -17.9584 ], [ 24.4235, -17.9518 ], [ 24.4182, -17.96 ], [ 24.408, -17.9508 ], [ 24.4039, -17.9513 ], [ 24.4035, -17.9568 ], [ 24.3996, -17.9586 ], [ 24.3912, -17.9558 ], [ 24.3881, -17.9473 ], [ 24.3829, -17.9508 ], [ 24.372, -17.9493 ], [ 24.3604, -17.9621 ], [ 24.3518, -17.9628 ], [ 24.3505, -17.9703 ], [ 24.3309, -17.9882 ], [ 24.3269, -17.9976 ], [ 24.3175, -17.9972 ], [ 24.3035, -18.0072 ], [ 24.3023, -18.0176 ], [ 24.2938, -18.0305 ], [ 24.2947, -18.0366 ], [ 24.2856, -18.0308 ], [ 24.2795, -18.0167 ], [ 24.2687, -18.0113 ], [ 24.2559, -18.0185 ], [ 24.2542, -18.0162 ], [ 24.245, -18.0189 ], [ 24.2442, -18.0245 ], [ 24.2371, -18.0266 ], [ 24.2345, -18.0236 ], [ 24.2235, -18.0242 ], [ 24.219, -18.0199 ], [ 24.2136, -18.0205 ], [ 24.2105, -18.0166 ], [ 24.2003, -18.0177 ], [ 24.1974, -18.0231 ], [ 24.1958, -18.0183 ], [ 24.1924, -18.0199 ], [ 24.195, -18.0262 ], [ 24.19, -18.0253 ], [ 24.1873, -18.0345 ], [ 24.1799, -18.0409 ], [ 24.1772, -18.0371 ], [ 24.1686, -18.0364 ], [ 24.1672, -18.0398 ], [ 24.1738, -18.0428 ], [ 24.1733, -18.048 ], [ 24.166, -18.0473 ], [ 24.1601, -18.0522 ], [ 24.1595, -18.0598 ], [ 24.1562, -18.0605 ], [ 24.1586, -18.0631 ], [ 24.1531, -18.0674 ], [ 24.1491, -18.0668 ], [ 24.1521, -18.0699 ], [ 24.149, -18.0708 ], [ 24.1467, -18.0788 ], [ 24.1433, -18.0755 ], [ 24.136, -18.0852 ], [ 24.1317, -18.0834 ], [ 24.1275, -18.0867 ], [ 24.1239, -18.0949 ], [ 24.1197, -18.0931 ], [ 24.1208, -18.0976 ], [ 24.1171, -18.0983 ], [ 24.1177, -18.1014 ], [ 24.1122, -18.1011 ], [ 24.1149, -18.1031 ], [ 24.1076, -18.1067 ], [ 24.1081, -18.1105 ], [ 24.1037, -18.1092 ], [ 24.1037, -18.1129 ], [ 24.1002, -18.1118 ], [ 24.0899, -18.1205 ], [ 24.0833, -18.1151 ], [ 24.0807, -18.1192 ], [ 24.0775, -18.1151 ], [ 24.0674, -18.1151 ], [ 24.0648, -18.1115 ], [ 24.063, -18.1165 ], [ 24.0632, -18.113 ], [ 24.0579, -18.1136 ], [ 24.0592, -18.1108 ], [ 24.0513, -18.11 ], [ 24.0567, -18.1142 ], [ 24.0552, -18.1194 ], [ 24.0575, -18.1176 ], [ 24.0612, -18.1232 ], [ 24.0549, -18.1223 ], [ 24.0534, -18.1267 ], [ 24.0579, -18.1281 ], [ 24.0548, -18.1285 ], [ 24.0567, -18.1299 ], [ 24.0528, -18.1347 ], [ 24.0481, -18.1345 ], [ 24.0488, -18.1383 ], [ 24.045, -18.1362 ], [ 24.0293, -18.1401 ], [ 24.0311, -18.1463 ], [ 24.0246, -18.1487 ], [ 24.0223, -18.1438 ], [ 24.0196, -18.1509 ], [ 24.0187, -18.1464 ], [ 24.015, -18.147 ], [ 24.0129, -18.1499 ], [ 24.0158, -18.1525 ], [ 24.0061, -18.1579 ], [ 24.0057, -18.1665 ], [ 23.9983, -18.1635 ], [ 24.0012, -18.1664 ], [ 23.9978, -18.1664 ], [ 23.999, -18.1696 ], [ 23.9955, -18.1675 ], [ 23.9915, -18.1697 ], [ 23.9892, -18.1653 ], [ 23.9907, -18.1752 ], [ 23.9866, -18.1736 ], [ 23.9882, -18.1766 ], [ 23.9801, -18.1814 ], [ 23.9829, -18.1824 ], [ 23.982, -18.1852 ], [ 23.9745, -18.1879 ], [ 23.9754, -18.1914 ], [ 23.9694, -18.1864 ], [ 23.9697, -18.1906 ], [ 23.9631, -18.1907 ], [ 23.96, -18.1839 ], [ 23.9562, -18.1865 ], [ 23.9596, -18.1878 ], [ 23.9584, -18.1901 ], [ 23.9548, -18.1896 ], [ 23.9467, -18.1998 ], [ 23.9428, -18.2002 ], [ 23.9414, -18.2053 ], [ 23.9364, -18.2029 ], [ 23.9314, -18.2045 ], [ 23.9291, -18.2111 ], [ 23.9245, -18.2129 ], [ 23.9253, -18.2175 ], [ 23.9208, -18.2192 ], [ 23.923, -18.2208 ], [ 23.9191, -18.2245 ], [ 23.9282, -18.2288 ], [ 23.9302, -18.2351 ], [ 23.9344, -18.2363 ], [ 23.9305, -18.2465 ], [ 23.9323, -18.2501 ], [ 23.9264, -18.2496 ], [ 23.925, -18.2563 ], [ 23.9198, -18.2532 ], [ 23.9208, -18.2563 ], [ 23.9176, -18.2566 ], [ 23.9179, -18.2612 ], [ 23.9149, -18.2633 ], [ 23.9124, -18.9937 ], [ 24.2707, -19.0016 ], [ 25.9887, -19.0003 ] ] ] } },
{ "type": "Feature", "properties": { "iso3": "BWA", "unit_id": "29308430B36776260965547", "unit_name": "Ghanzi" }, "geometry": { "type": "Polygon", "coordinates": [ [ [ 22.7975, -21.0006 ], [ 20.9987, -20.9951 ], [ 20.9987, -22.0003 ], [ 19.9991, -21.9999 ], [ 19.9991, -23.3205 ], [ 20.6889, -23.3185 ], [ 22.7965, -23.3215 ], [ 22.7975, -21.0006 ] ] ] } },
{ "type": "Feature", "properties": { "iso3": "BWA", "unit_id": "29308430B6075448747353", "unit_name": "Central Kgalagadi Game Reserve" }, "geometry": { "type": "Polygon", "coordinates": [ [ [ 25.4471, -22.9464 ], [ 25.0114, -22.4119 ], [ 24.1698, -21.3619 ], [ 23.8841, -21.0007 ], [ 22.7975, -21.0006 ], [ 22.7965, -23.3215 ], [ 25.239, -23.3214 ], [ 25.4471, -22.9464 ] ] ] } },
{ "type": "Feature", "properties": { "iso3": "BWA", "unit_id": "29308430B74320700990988", "unit_name": "Kgalagadi South" }, "geometry": { "type": "Polygon", "coordinates": [ [ [ 24.1402, -24.8542 ], [ 23.059, -24.8534 ], [ 22.8829, -24.8459 ], [ 21.9866, -24.8323 ], [ 20.0009, -24.7685 ], [ 20.0295, -24.7883 ], [ 20.038, -24.8092 ], [ 20.0644, -24.814 ], [ 20.0672, -24.8288 ], [ 20.0899, -24.8326 ], [ 20.0865, -24.8451 ], [ 20.0879, -24.8524 ], [ 20.1093, -24.8629 ], [ 20.1185, -24.8829 ], [ 20.1218, -24.8849 ], [ 20.1305, -24.8809 ], [ 20.1498, -24.8795 ], [ 20.1585, -24.8841 ], [ 20.1816, -24.9117 ], [ 20.1895, -24.9103 ], [ 20.1971, -24.8974 ], [ 20.203, -24.8964 ], [ 20.2214, -24.9197 ], [ 20.2336, -24.9138 ], [ 20.259, -24.9236 ], [ 20.2657, -24.9285 ], [ 20.2724, -24.9471 ], [ 20.2866, -24.954 ], [ 20.2863, -24.9698 ], [ 20.2964, -24.9803 ], [ 20.317, -24.9864 ], [ 20.3263, -24.9973 ], [ 20.3286, -25.0056 ], [ 20.349, -25.0093 ], [ 20.3571, -25.0246 ], [ 20.3847, -25.0354 ], [ 20.3854, -25.0499 ], [ 20.3791, -25.0627 ], [ 20.3922, -25.0768 ], [ 20.413, -25.0839 ], [ 20.4155, -25.0891 ], [ 20.4098, -25.0991 ], [ 20.4106, -25.1035 ], [ 20.4197, -25.1048 ], [ 20.429, -25.1164 ], [ 20.4293, -25.121 ], [ 20.4239, -25.1284 ], [ 20.4313, -25.1363 ], [ 20.4273, -25.148 ], [ 20.4304, -25.1538 ], [ 20.4356, -25.1577 ], [ 20.4438, -25.1582 ], [ 20.4597, -25.1499 ], [ 20.4689, -25.157 ], [ 20.4673, -25.1761 ], [ 20.4618, -25.1836 ], [ 20.4475, -25.1887 ], [ 20.4441, -25.194 ], [ 20.4462, -25.1987 ], [ 20.4618, -25.2114 ], [ 20.4653, -25.2227 ], [ 20.4708, -25.228 ], [ 20.4886, -25.2225 ], [ 20.4985, -25.2279 ], [ 20.4873, -25.2533 ], [ 20.5013, -25.2736 ], [ 20.5189, -25.2749 ], [ 20.528, -25.2879 ], [ 20.5461, -25.2861 ], [ 20.5427, -25.2927 ], [ 20.5172, -25.3067 ], [ 20.5139, -25.3169 ], [ 20.5169, -25.3233 ], [ 20.5218, -25.3247 ], [ 20.5408, -25.3184 ], [ 20.5473, -25.3208 ], [ 20.5483, -25.3282 ], [ 20.5393, -25.345 ], [ 20.5615, -25.3893 ], [ 20.5667, -25.3949 ], [ 20.5788, -25.3964 ], [ 20.5922, -25.39 ], [ 20.6017, -25.3947 ], [ 20.6053, -25.404 ], [ 20.5984, -25.4213 ], [ 20.6014, -25.4274 ], [ 20.6084, -25.4295 ], [ 20.6253, -25.4216 ], [ 20.6305, -25.4248 ], [ 20.6337, -25.4314 ], [ 20.6159, -25.4451 ], [ 20.6226, -25.4617 ], [ 20.6371, -25.4644 ], [ 20.6442, -25.4624 ], [ 20.6593, -25.4459 ], [ 20.667, -25.4459 ], [ 20.6742, -25.453 ], [ 20.6727, -25.4635 ], [ 20.6671, -25.4697 ], [ 20.6412, -25.4703 ], [ 20.6361, -25.4735 ], [ 20.6345, -25.4789 ], [ 20.6434, -25.4996 ], [ 20.6289, -25.5126 ], [ 20.629, -25.5242 ], [ 20.6328, -25.5299 ], [ 20.6488, -25.5323 ], [ 20.6708, -25.5513 ], [ 20.6982, -25.5948 ], [ 20.6899, -25.6032 ], [ 20.665, -25.6046 ], [ 20.6503, -25.6338 ], [ 20.657, -25.6399 ], [ 20.6726, -25.6299 ], [ 20.6878, -25.6357 ], [ 20.6874, -25.6514 ], [ 20.6746, -25.6717 ], [ 20.6782, -25.6907 ], [ 20.7077, -25.7076 ], [ 20.7214, -25.7237 ], [ 20.7309, -25.7489 ], [ 20.7315, -25.7715 ], [ 20.7541, -25.7726 ], [ 20.7631, -25.78 ], [ 20.7638, -25.7886 ], [ 20.7448, -25.8045 ], [ 20.7392, -25.8157 ], [ 20.7394, -25.8229 ], [ 20.7466, -25.827 ], [ 20.7535, -25.8262 ], [ 20.7684, -25.8079 ], [ 20.7788, -25.8016 ], [ 20.7876, -25.8029 ], [ 20.79, -25.8081 ], [ 20.7858, -25.8197 ], [ 20.7894, -25.8339 ], [ 20.7818, -25.848 ], [ 20.7825, -25.8544 ], [ 20.7862, -25.8603 ], [ 20.8044, -25.8623 ], [ 20.8129, -25.8695 ], [ 20.812, -25.8904 ], [ 20.7981, -25.8997 ], [ 20.8028, -25.921 ], [ 20.8089, -25.9288 ], [ 20.8369, -25.9503 ], [ 20.8406, -25.957 ], [ 20.8396, -25.9626 ], [ 20.8315, -25.9721 ], [ 20.8287, -25.9887 ], [ 20.8153, -26.0059 ], [ 20.8165, -26.01 ], [ 20.8321, -26.0225 ], [ 20.836, -26.0363 ], [ 20.8329, -26.0464 ], [ 20.8186, -26.0585 ], [ 20.8254, -26.0706 ], [ 20.8391, -26.0765 ], [ 20.842, -26.081 ], [ 20.8386, -26.0894 ], [ 20.8207, -26.1009 ], [ 20.8209, -26.1053 ], [ 20.8429, -26.125 ], [ 20.8522, -26.1221 ], [ 20.858, -26.124 ], [ 20.8629, -26.1333 ], [ 20.844, -26.1618 ], [ 20.824, -26.1752 ], [ 20.8192, -26.1824 ], [ 20.8151, -26.1934 ], [ 20.8163, -26.2139 ], [ 20.8078, -26.2293 ], [ 20.8057, -26.244 ], [ 20.7927, -26.2598 ], [ 20.7907, -26.2711 ], [ 20.7597, -26.2865 ], [ 20.7441, -26.3175 ], [ 20.7201, -26.3337 ], [ 20.7124, -26.3506 ], [ 20.6974, -26.369 ], [ 20.6986, -26.3836 ], [ 20.6934, -26.3978 ], [ 20.6767, -26.3982 ], [ 20.6607, -26.416 ], [ 20.651, -26.4321 ], [ 20.6466, -26.4352 ], [ 20.626, -26.4351 ], [ 20.6177, -26.4436 ], [ 20.6118, -26.4994 ], [ 20.6048, -26.5147 ], [ 20.6102, -26.5353 ], [ 20.6099, -26.5597 ], [ 20.6311, -26.5837 ], [ 20.6325, -26.5917 ], [ 20.6336, -26.6174 ], [ 20.6291, -26.6429 ], [ 20.635, -26.665 ], [ 20.6332, -26.6692 ], [ 20.6172, -26.6769 ], [ 20.6144, -26.687 ], [ 20.6207, -26.7131 ], [ 20.6344, -26.7257 ], [ 20.6258, -26.749 ], [ 20.6376, -26.7675 ], [ 20.6351, -26.7744 ], [ 20.6221, -26.7866 ], [ 20.6363, -26.7942 ], [ 20.6505, -26.8097 ], [ 20.6426, -26.8225 ], [ 20.6448, -26.8286 ], [ 20.6553, -26.8345 ], [ 20.6826, -26.8405 ], [ 20.6851, -26.8481 ], [ 20.676, -26.8609 ], [ 20.6869, -26.9021 ], [ 20.6848, -26.9075 ], [ 20.6982, -26.8985 ], [ 20.7083, -26.8751 ], [ 20.7146, -26.8703 ], [ 20.7288, -26.8664 ], [ 20.7631, -26.8664 ], [ 20.7734, -26.8593 ], [ 20.7866, -26.8417 ], [ 20.8167, -26.8414 ], [ 20.8178, -26.8227 ], [ 20.8205, -26.8194 ], [ 20.8446, -26.8185 ], [ 20.8848, -26.7973 ], [ 20.898, -26.7962 ], [ 20.9097, -26.7977 ], [ 20.9458, -26.8138 ], [ 20.962, -26.8068 ], [ 20.9706, -26.8069 ], [ 20.9777, -26.8115 ], [ 20.9859, -26.8252 ], [ 21.0104, -26.8463 ], [ 21.0413, -26.8465 ], [ 21.0596, -26.8515 ], [ 21.0788, -26.8483 ], [ 21.0966, -26.856 ], [ 21.1156, -26.8594 ], [ 21.1242, -26.8691 ], [ 21.1335, -26.8736 ], [ 21.1544, -26.8673 ], [ 21.1766, -26.8665 ], [ 21.1946, -26.8519 ], [ 21.2219, -26.8436 ], [ 21.2453, -26.846 ], [ 21.2598, -26.8386 ], [ 21.2693, -26.8374 ], [ 21.2885, -26.8486 ], [ 21.2998, -26.8491 ], [ 21.3154, -26.8424 ], [ 21.3327, -26.8254 ], [ 21.3756, -26.8305 ], [ 21.4048, -26.822 ], [ 21.4446, -26.8286 ], [ 21.4617, -26.8405 ], [ 21.4859, -26.8414 ], [ 21.498, -26.8505 ], [ 21.5254, -26.8617 ], [ 21.5336, -26.8556 ], [ 21.5408, -26.8431 ], [ 21.5614, -26.85 ], [ 21.576, -26.8399 ], [ 21.6007, -26.8437 ], [ 21.6266, -26.8663 ], [ 21.6434, -26.8634 ], [ 21.6626, -26.8645 ], [ 21.6774, -26.854 ], [ 21.6949, -26.861 ], [ 21.703, -26.8576 ], [ 21.7392, -26.827 ], [ 21.7638, -26.8121 ], [ 21.7715, -26.8029 ], [ 21.781, -26.8021 ], [ 21.7837, -26.7851 ], [ 21.7933, -26.7705 ], [ 21.7847, -26.7502 ], [ 21.7873, -26.7221 ], [ 21.7706, -26.7044 ], [ 21.7694, -26.695 ], [ 21.787, -26.6763 ], [ 21.8084, -26.6702 ], [ 21.8236, -26.6597 ], [ 21.8831, -26.6706 ], [ 21.904, -26.6699 ], [ 21.9276, -26.6647 ], [ 21.9491, -26.6699 ], [ 21.9845, -26.6503 ], [ 22.0006, -26.6481 ], [ 22.0161, -26.6369 ], [ 22.0517, -26.6331 ], [ 22.0696, -26.6076 ], [ 22.0775, -26.5809 ], [ 22.0817, -26.5766 ], [ 22.0984, -26.5706 ], [ 22.1078, -26.5492 ], [ 22.1326, -26.5446 ], [ 22.1319, -26.5314 ], [ 22.1348, -26.524 ], [ 22.1634, -26.5083 ], [ 22.1655, -26.4996 ], [ 22.1594, -26.4924 ], [ 22.1598, -26.4837 ], [ 22.1819, -26.4697 ], [ 22.1854, -26.4608 ], [ 22.1812, -26.4488 ], [ 22.1816, -26.4388 ], [ 22.2002, -26.4245 ], [ 22.1987, -26.414 ], [ 22.1904, -26.4002 ], [ 22.1952, -26.3937 ], [ 22.2139, -26.3861 ], [ 22.2385, -26.3707 ], [ 22.2375, -26.3581 ], [ 22.2423, -26.35 ], [ 22.2836, -26.34 ], [ 22.3065, -26.344 ], [ 22.3129, -26.3408 ], [ 22.318, -26.328 ], [ 22.3252, -26.3223 ], [ 22.3391, -26.3203 ], [ 22.3517, -26.3273 ], [ 22.3628, -26.3255 ], [ 22.3671, -26.3142 ], [ 22.3629, -26.2859 ], [ 22.3848, -26.2852 ], [ 22.3958, -26.278 ], [ 22.4058, -26.2679 ], [ 22.3988, -26.2479 ], [ 22.4155, -26.2373 ], [ 22.42, -26.2242 ], [ 22.4262, -26.2233 ], [ 22.4426, -26.229 ], [ 22.4541, -26.2278 ], [ 22.4609, -26.2216 ], [ 22.4659, -26.206 ], [ 22.4711, -26.2008 ], [ 22.4791, -26.2013 ], [ 22.4946, -26.2102 ], [ 22.5126, -26.2156 ], [ 22.5282, -26.2264 ], [ 22.5493, -26.2261 ], [ 22.5561, -26.2226 ], [ 22.563, -26.2066 ], [ 22.5776, -26.1916 ], [ 22.5796, -26.1582 ], [ 22.5761, -26.1477 ], [ 22.5782, -26.1425 ], [ 22.5875, -26.1415 ], [ 22.5987, -26.1517 ], [ 22.6047, -26.1494 ], [ 22.608, -26.1286 ], [ 22.6283, -26.1232 ], [ 22.6359, -26.1171 ], [ 22.6366, -26.1125 ], [ 22.629, -26.1023 ], [ 22.6304, -26.0959 ], [ 22.6729, -26.0737 ], [ 22.6702, -26.0585 ], [ 22.6718, -26.044 ], [ 22.6638, -26.0252 ], [ 22.666, -26.0175 ], [ 22.6727, -26.0132 ], [ 22.7088, -26.0204 ], [ 22.7244, -26.0158 ], [ 22.7294, -25.9752 ], [ 22.723, -25.9573 ], [ 22.7237, -25.9504 ], [ 22.7278, -25.9399 ], [ 22.748, -25.923 ], [ 22.7493, -25.9179 ], [ 22.7456, -25.9137 ], [ 22.7186, -25.9061 ], [ 22.7127, -25.8993 ], [ 22.712, -25.8933 ], [ 22.7177, -25.8873 ], [ 22.7379, -25.882 ], [ 22.7412, -25.876 ], [ 22.7348, -25.8623 ], [ 22.7357, -25.8568 ], [ 22.7578, -25.8498 ], [ 22.7711, -25.8418 ], [ 22.7792, -25.8328 ], [ 22.7817, -25.8248 ], [ 22.777, -25.8149 ], [ 22.7509, -25.8063 ], [ 22.7346, -25.7935 ], [ 22.7391, -25.7877 ], [ 22.7557, -25.7901 ], [ 22.7599, -25.7881 ], [ 22.7635, -25.7803 ], [ 22.7648, -25.7499 ], [ 22.769, -25.7335 ], [ 22.7994, -25.7234 ], [ 22.8214, -25.6904 ], [ 22.8215, -25.6773 ], [ 22.8301, -25.6627 ], [ 22.83, -25.6576 ], [ 22.8085, -25.651 ], [ 22.8018, -25.6412 ], [ 22.8004, -25.6327 ], [ 22.8315, -25.6207 ], [ 22.8471, -25.6216 ], [ 22.8537, -25.6144 ], [ 22.8476, -25.6058 ], [ 22.8139, -25.5822 ], [ 22.8149, -25.5788 ], [ 22.8278, -25.5709 ], [ 22.8399, -25.545 ], [ 22.8535, -25.5333 ], [ 22.852, -25.5214 ], [ 22.8603, -25.507 ], [ 22.8476, -25.4965 ], [ 22.8465, -25.49 ], [ 22.8512, -25.4843 ], [ 22.863, -25.4796 ], [ 22.8949, -25.4887 ], [ 22.9002, -25.4868 ], [ 22.9007, -25.4814 ], [ 22.888, -25.4769 ], [ 22.8855, -25.4689 ], [ 22.8983, -25.4552 ], [ 22.9096, -25.4227 ], [ 22.919, -25.4123 ], [ 22.9691, -25.3822 ], [ 22.9765, -25.3705 ], [ 22.9725, -25.3475 ], [ 22.9772, -25.3405 ], [ 22.987, -25.3383 ], [ 23.0033, -25.34 ], [ 23.0111, -25.3362 ], [ 23.0133, -25.3288 ], [ 23.0061, -25.3038 ], [ 23.0102, -25.2972 ], [ 23.0192, -25.3016 ], [ 23.031, -25.313 ], [ 23.0446, -25.3017 ], [ 23.0518, -25.2907 ], [ 23.0581, -25.2898 ], [ 23.0621, -25.3024 ], [ 23.0547, -25.3192 ], [ 23.0601, -25.3263 ], [ 23.0784, -25.332 ], [ 23.0876, -25.3257 ], [ 23.0887, -25.3132 ], [ 23.0969, -25.3117 ], [ 23.1074, -25.3041 ], [ 23.1133, -25.3035 ], [ 23.1291, -25.317 ], [ 23.1361, -25.317 ], [ 23.1478, -25.3032 ], [ 23.1657, -25.3039 ], [ 23.1734, -25.2894 ], [ 23.1874, -25.2791 ], [ 23.2118, -25.2735 ], [ 23.2347, -25.2809 ], [ 23.2475, -25.2754 ], [ 23.2597, -25.2796 ], [ 23.2789, -25.2741 ], [ 23.2941, -25.294 ], [ 23.3038, -25.2912 ], [ 23.3109, -25.2818 ], [ 23.315, -25.2821 ], [ 23.3243, -25.2923 ], [ 23.3393, -25.2866 ], [ 23.3562, -25.2851 ], [ 23.3622, -25.2877 ], [ 23.3683, -25.3034 ], [ 23.4036, -25.3074 ], [ 23.4142, -25.3158 ], [ 23.4243, -25.3079 ], [ 23.4417, -25.2773 ], [ 23.4487, -25.2748 ], [ 23.4663, -25.2767 ], [ 23.4675, -25.2814 ], [ 23.4578, -25.2972 ], [ 23.4628, -25.3011 ], [ 23.4782, -25.2985 ], [ 23.4823, -25.3098 ], [ 23.4945, -25.3182 ], [ 23.5004, -25.3314 ], [ 23.4963, -25.3518 ], [ 23.5013, -25.3522 ], [ 23.5246, -25.3402 ], [ 23.5341, -25.3526 ], [ 23.5598, -25.3548 ], [ 23.5615, -25.3577 ], [ 23.5569, -25.3714 ], [ 23.5685, -25.3702 ], [ 23.5847, -25.3759 ], [ 23.5845, -25.3918 ], [ 23.5896, -25.3964 ], [ 23.5987, -25.3954 ], [ 23.6067, -25.3818 ], [ 23.6156, -25.3836 ], [ 23.6206, -25.3896 ], [ 23.6113, -25.4029 ], [ 23.6324, -25.4105 ], [ 23.6376, -25.4316 ], [ 23.6532, -25.4311 ], [ 23.6577, -25.427 ], [ 23.6596, -25.4157 ], [ 23.6687, -25.4162 ], [ 23.677, -25.427 ], [ 23.6679, -25.4356 ], [ 23.6667, -25.4415 ], [ 23.6799, -25.4475 ], [ 23.6867, -25.4442 ], [ 23.6952, -25.4447 ], [ 23.7024, -25.4514 ], [ 23.7035, -25.4626 ], [ 23.7153, -25.4553 ], [ 23.7218, -25.4468 ], [ 23.7292, -25.4463 ], [ 23.7341, -25.4584 ], [ 23.7587, -25.4688 ], [ 23.7519, -25.4808 ], [ 23.764, -25.4895 ], [ 23.7629, -25.5031 ], [ 23.7762, -25.5035 ], [ 23.7861, -25.5125 ], [ 23.8037, -25.5083 ], [ 23.8208, -25.5124 ], [ 23.8212, -25.5171 ], [ 23.8049, -25.5333 ], [ 23.8085, -25.545 ], [ 23.8204, -25.5506 ], [ 23.8298, -25.5418 ], [ 23.8351, -25.5411 ], [ 23.8436, -25.553 ], [ 23.8379, -25.5621 ], [ 23.8397, -25.5679 ], [ 23.8561, -25.5727 ], [ 23.8674, -25.572 ], [ 23.8798, -25.5773 ], [ 23.8827, -25.595 ], [ 23.907, -25.606 ], [ 23.9015, -25.6224 ], [ 23.9039, -25.6274 ], [ 23.9185, -25.6297 ], [ 23.9282, -25.6383 ], [ 23.9463, -25.6384 ], [ 23.952, -25.6336 ], [ 23.9508, -25.6229 ], [ 23.961, -25.6233 ], [ 23.9661, -25.6154 ], [ 23.9717, -25.6148 ], [ 23.9839, -25.6218 ], [ 24.0038, -25.6203 ], [ 24.0117, -25.6243 ], [ 24.0124, -25.6284 ], [ 24.0028, -25.635 ], [ 24.005, -25.6513 ], [ 24.0253, -25.645 ], [ 24.0269, -25.6358 ], [ 24.0299, -25.6342 ], [ 24.0514, -25.651 ], [ 24.0585, -25.6519 ], [ 24.0672, -25.6484 ], [ 24.0641, -25.635 ], [ 24.067, -25.6312 ], [ 24.0771, -25.6304 ], [ 24.0806, -25.6408 ], [ 24.086, -25.6433 ], [ 24.0922, -25.6356 ], [ 24.1038, -25.6304 ], [ 24.138, -25.6281 ], [ 24.1402, -25.6144 ], [ 24.1567, -25.6082 ], [ 24.1629, -25.6153 ], [ 24.1565, -25.6259 ], [ 24.1591, -25.6299 ], [ 24.1692, -25.6314 ], [ 24.1842, -25.6214 ], [ 24.192, -25.6206 ], [ 24.2073, -25.6323 ], [ 24.2146, -25.6441 ], [ 24.2263, -25.6436 ], [ 24.2262, -25.6554 ], [ 24.2364, -25.6697 ], [ 24.2514, -25.6744 ], [ 24.247, -25.6843 ], [ 24.2606, -25.6919 ], [ 24.2604, -25.7071 ], [ 24.27, -25.7069 ], [ 24.2819, -25.6946 ], [ 24.2887, -25.6946 ], [ 24.2913, -25.7066 ], [ 24.2782, -25.7145 ], [ 24.2853, -25.7264 ], [ 24.3009, -25.7143 ], [ 24.3265, -25.711 ], [ 24.3277, -25.7151 ], [ 24.3225, -25.7232 ], [ 24.3243, -25.7319 ], [ 24.3394, -25.7456 ], [ 24.3501, -25.7499 ], [ 24.3563, -25.7577 ], [ 24.3802, -25.7648 ], [ 24.3916, -25.7547 ], [ 24.401, -25.7625 ], [ 24.4057, -25.7468 ], [ 24.4114, -25.7459 ], [ 24.4258, -25.7515 ], [ 24.4323, -25.746 ], [ 24.4327, -25.7341 ], [ 24.4414, -25.7408 ], [ 24.4464, -25.7335 ], [ 24.4573, -25.7426 ], [ 24.4626, -25.7428 ], [ 24.4675, -25.7376 ], [ 24.4717, -25.7471 ], [ 24.5049, -25.7566 ], [ 24.4973, -25.6467 ], [ 24.4083, -25.6465 ], [ 24.2522, -25.5023 ], [ 24.2703, -24.9825 ], [ 24.1402, -24.8542 ] ] ] } },
{ "type": "Feature", "properties": { "iso3": "BWA", "unit_id": "29308430B87371708055554", "unit_name": "Kgalagadi North" }, "geometry": { "type": "Polygon", "coordinates": [ [ [ 23.059, -24.8534 ], [ 23.0591, -23.6007 ], [ 22.9645, -23.6007 ], [ 22.9645, -23.4408 ], [ 23.059, -23.4409 ], [ 23.059, -23.3208 ], [ 20.6889, -23.3185 ], [ 19.9991, -23.3205 ], [ 19.9993, -24.7623 ], [ 20.0009, -24.7685 ], [ 21.9866, -24.8323 ], [ 22.8829, -24.8459 ], [ 23.059, -24.8534 ] ] ] } }
]
}
