{
"type": "FeatureCollection",
"name": "COM",
"crs": { "type": "name", "properties": { "name": "urn:ogc:def:crs:OGC:1.3:CRS84" } },
"xy_coordinate_resolution": 0.0001,
"features": [
{ "type": "Feature", "properties": { "iso3": "COM", "unit_id": "57664128B7073638003888", "unit_name": "Domoni" }, "geometry": { "type": "Polygon", "coordinates": [ [ [ 44.4575, -12.2778 ], [ 44.4906, -12.2894 ], [ 44.5012, -12.2893 ], [ 44.5202, -12.275 ], [ 44.5212, -12.2803 ], [ 44.5249, -12.2803 ], [ 44.5327, -12.2603 ], [ 44.5407, -12.2599 ], [ 44.5306, -12.258 ], [ 44.5347, -12.2516 ], [ 44.532, -12.2504 ], [ 44.5344, -12.2452 ], [ 44.5306, -12.2439 ], [ 44.5266, -12.2315 ], [ 44.5284, -12.2261 ], [ 44.5212, -12.2171 ], [ 44.5191, -12.207 ], [ 44.5211, -12.1993 ], [ 44.5179, -12.1945 ], [ 44.5198, -12.1915 ], [ 44.5031, -12.1624 ], [ 44.4982, -12.1319 ], [ 44.4935, -12.1307 ], [ 44.4953, -12.1228 ], [ 44.4871, -12.1185 ], [ 44.4863, -12.1137 ], [ 44.4928, -12.1032 ], [ 44.4923, -12.0959 ], [ 44.4777, -12.0743 ], [ 44.4659, -12.068 ], [ 44.4544, -12.0715 ], [ 44.435, -12.0857 ], [ 44.4398, -12.0922 ], [ 44.4396, -12.1081 ], [ 44.4561, -12.1287 ], [ 44.4668, -12.1619 ], [ 44.4738, -12.1724 ], [ 44.4927, -12.1882 ], [ 44.4865, -12.1989 ], [ 44.4748, -12.2078 ], [ 44.4747, -12.2115 ], [ 44.4585, -12.2295 ], [ 44.4519, -12.2324 ], [ 44.459, -12.2654 ], [ 44.4575, -12.2778 ] ] ] } },
{ "type": "Feature", "properties": { "iso3": "COM", "unit_id": "57664128B36655895768547", "unit_name": "Mrémani" }, "geometry": { "type": "Polygon", "coordinates": [ [ [ 44.4575, -12.2778 ], [ 44.452, -12.2888 ], [ 44.4531, -12.3002 ], [ 44.4642, -12.3126 ], [ 44.4607, -12.3222 ], [ 44.4925, -12.3554 ], [ 44.4907, -12.3764 ], [ 44.5107, -12.3844 ], [ 44.5267, -12.3811 ], [ 44.5258, -12.3776 ], [ 44.5318, -12.3687 ], [ 44.5294, -12.3662 ], [ 44.5328, -12.3505 ], [ 44.5372, -12.3483 ], [ 44.5288, -12.3377 ], [ 44.5318, -12.3123 ], [ 44.5285, -12.3081 ], [ 44.5249, -12.2803 ], [ 44.5212, -12.2803 ], [ 44.5202, -12.275 ], [ 44.5012, -12.2893 ], [ 44.4906, -12.2894 ], [ 44.4575, -12.2778 ] ] ] } },
{ "type": "Feature", "properties": { "iso3": "COM", "unit_id": "57664128B8603645115765", "unit_name": "Mutsamudu" }, "geometry": { "type": "Polygon", "coordinates": [ [ [ 44.2972, -12.1951 ], [ 44.2975, -12.1987 ], [ 44.3224, -12.2141 ], [ 44.3821, -12.2185 ], [ 44.412, -12.2147 ], [ 44.4358, -12.2081 ], [ 44.4458, -12.2011 ], [ 44.4398, -12.1764 ], [ 44.4311, -12.1668 ], [ 44.4252, -12.1492 ], [ 44.4209, -12.1466 ], [ 44.4174, -12.1547 ], [ 44.4101, -12.1581 ], [ 44.4011, -12.1571 ], [ 44.3921, -12.17 ], [ 44.3739, -12.1831 ], [ 44.3517, -12.1889 ], [ 44.3348, -12.1877 ], [ 44.3274, -12.1947 ], [ 44.3197, -12.1945 ], [ 44.3176, -12.1893 ], [ 44.3158, -12.195 ], [ 44.3118, -12.1926 ], [ 44.3069, -12.1975 ], [ 44.2972, -12.1951 ] ] ] } },
{ "type": "Feature", "properties": { "iso3": "COM", "unit_id": "57664128B80942311020047", "unit_name": "Ouani" }, "geometry": { "type": "Polygon", "coordinates": [ [ [ 44.435, -12.0857 ], [ 44.4218, -12.0912 ], [ 44.4194, -12.0953 ], [ 44.4205, -12.1013 ], [ 44.4317, -12.1122 ], [ 44.4339, -12.1192 ], [ 44.422, -12.1309 ], [ 44.4194, -12.1424 ], [ 44.4252, -12.1492 ], [ 44.4311, -12.1668 ], [ 44.4398, -12.1764 ], [ 44.4451, -12.1961 ], [ 44.4458, -12.2011 ], [ 44.4358, -12.2081 ], [ 44.4317, -12.2163 ], [ 44.4395, -12.2252 ], [ 44.4519, -12.2324 ], [ 44.4585, -12.2295 ], [ 44.4747, -12.2115 ], [ 44.4748, -12.2078 ], [ 44.4865, -12.1989 ], [ 44.4927, -12.1882 ], [ 44.4738, -12.1724 ], [ 44.4668, -12.1619 ], [ 44.4561, -12.1287 ], [ 44.4396, -12.1081 ], [ 44.4398, -12.0922 ], [ 44.435, -12.0857 ] ] ] } },
{ "type": "Feature", "properties": { "iso3": "COM", "unit_id": "57664128B61325925132333", "unit_name": "Sima" }, "geometry": { "type": "Polygon", "coordinates": [ [ [ 44.4519, -12.2324 ], [ 44.4333, -12.2195 ], [ 44.4317, -12.2163 ], [ 44.4358, -12.2081 ], [ 44.3969, -12.2185 ], [ 44.3224, -12.2141 ], [ 44.2975, -12.1987 ], [ 44.2923, -12.1917 ], [ 44.2884, -12.1918 ], [ 44.2878, -12.1829 ], [ 44.2796, -12.1848 ], [ 44.2782, -12.1826 ], [ 44.2781, -12.1871 ], [ 44.2719, -12.1866 ], [ 44.2432, -12.1813 ], [ 44.2381, -12.1709 ], [ 44.2329, -12.1683 ], [ 44.2134, -12.1664 ], [ 44.2099, -12.17 ], [ 44.2047, -12.1689 ], [ 44.2068, -12.1755 ], [ 44.2144, -12.1787 ], [ 44.2222, -12.1877 ], [ 44.2331, -12.1909 ], [ 44.2393, -12.1976 ], [ 44.2539, -12.2025 ], [ 44.2646, -12.2123 ], [ 44.2773, -12.216 ], [ 44.3204, -12.2392 ], [ 44.3308, -12.2406 ], [ 44.3402, -12.2358 ], [ 44.385, -12.2533 ], [ 44.4038, -12.284 ], [ 44.4107, -12.2875 ], [ 44.4171, -12.2863 ], [ 44.4241, -12.2908 ], [ 44.4367, -12.313 ], [ 44.444, -12.3168 ], [ 44.4509, -12.3151 ], [ 44.4529, -12.3194 ], [ 44.4607, -12.3222 ], [ 44.4642, -12.3126 ], [ 44.4531, -12.3002 ], [ 44.4524, -12.2948 ], [ 44.459, -12.2654 ], [ 44.4519, -12.2324 ] ] ] } },
{ "type": "Feature", "properties": { "iso3": "COM", "unit_id": "57664128B88597971922064", "unit_name": "Hamahamet-Mboinkou" }, "geometry": { "type": "Polygon", "coordinates": [ [ [ 43.4046, -11.5598 ], [ 43.4063, -11.5515 ], [ 43.4024, -11.5424 ], [ 43.4032, -11.5302 ], [ 43.406, -11.5281 ], [ 43.408, -11.5147 ], [ 43.4001, -11.5057 ], [ 43.4011, -11.4905 ], [ 43.3989, -11.4886 ], [ 43.4077, -11.4746 ], [ 43.4106, -11.4523 ], [ 43.4147, -11.4492 ], [ 43.4171, -11.4358 ], [ 43.4134, -11.4339 ], [ 43.4109, -11.4101 ], [ 43.404, -11.4032 ], [ 43.3669, -11.4125 ], [ 43.3553, -11.4531 ], [ 43.345, -11.4642 ], [ 43.3471, -11.5087 ], [ 43.3505, -11.5124 ], [ 43.3511, -11.5235 ], [ 43.3443, -11.5593 ], [ 43.4046, -11.5598 ] ] ] } },
{ "type": "Feature", "properties": { "iso3": "COM", "unit_id": "57664128B6223508137792", "unit_name": "Hambou" }, "geometry": { "type": "Polygon", "coordinates": [ [ [ 43.3632, -11.7789 ], [ 43.3565, -11.7729 ], [ 43.357, -11.769 ], [ 43.2768, -11.8035 ], [ 43.2639, -11.801 ], [ 43.2699, -11.8242 ], [ 43.2879, -11.8466 ], [ 43.3112, -11.8579 ], [ 43.3367, -11.8596 ], [ 43.3589, -11.8555 ], [ 43.3616, -11.8525 ], [ 43.3632, -11.7789 ] ] ] } },
{ "type": "Feature", "properties": { "iso3": "COM", "unit_id": "57664128B83271600454444", "unit_name": "Itsandra-Hamanvou" }, "geometry": { "type": "Polygon", "coordinates": [ [ [ 43.3471, -11.5087 ], [ 43.3256, -11.5096 ], [ 43.3206, -11.5274 ], [ 43.3124, -11.5273 ], [ 43.2995, -11.5168 ], [ 43.2748, -11.5134 ], [ 43.265, -11.5368 ], [ 43.2661, -11.5592 ], [ 43.2706, -11.5672 ], [ 43.2603, -11.5989 ], [ 43.2619, -11.6182 ], [ 43.2594, -11.6236 ], [ 43.263, -11.6293 ], [ 43.26, -11.6437 ], [ 43.2611, -11.6543 ], [ 43.2648, -11.6566 ], [ 43.2661, -11.6726 ], [ 43.2583, -11.6797 ], [ 43.27, -11.6837 ], [ 43.2756, -11.6904 ], [ 43.2734, -11.697 ], [ 43.2629, -11.7077 ], [ 43.2746, -11.7122 ], [ 43.3466, -11.7138 ], [ 43.3344, -11.6651 ], [ 43.333, -11.6333 ], [ 43.3128, -11.6168 ], [ 43.3443, -11.5593 ], [ 43.3511, -11.5235 ], [ 43.3505, -11.5124 ], [ 43.3471, -11.5087 ] ] ] } },
{ "type": "Feature", "properties": { "iso3": "COM", "unit_id": "57664128B73672108900600", "unit_name": "Mbadjini Est" }, "geometry": { "type": "Polygon", "coordinates": [ [ [ 43.4386, -11.9258 ], [ 43.4558, -11.938 ], [ 43.4725, -11.9388 ], [ 43.4823, -11.9317 ], [ 43.4881, -11.931 ], [ 43.4875, -11.9249 ], [ 43.4971, -11.9247 ], [ 43.5016, -11.9131 ], [ 43.498, -11.9117 ], [ 43.4981, -11.9085 ], [ 43.5139, -11.8996 ], [ 43.5175, -11.8937 ], [ 43.517, -11.8907 ], [ 43.511, -11.8885 ], [ 43.5082, -11.8749 ], [ 43.4979, -11.8712 ], [ 43.4941, -11.859 ], [ 43.484, -11.8513 ], [ 43.484, -11.8446 ], [ 43.4757, -11.829 ], [ 43.467, -11.8233 ], [ 43.4611, -11.7978 ], [ 43.4521, -11.7856 ], [ 43.4574, -11.7759 ], [ 43.4534, -11.7575 ], [ 43.4552, -11.7485 ], [ 43.4507, -11.7356 ], [ 43.4288, -11.7466 ], [ 43.4009, -11.7472 ], [ 43.3665, -11.7548 ], [ 43.3663, -11.7578 ], [ 43.3766, -11.7595 ], [ 43.3763, -11.7689 ], [ 43.4258, -11.8245 ], [ 43.4386, -11.8542 ], [ 43.4396, -11.8909 ], [ 43.4459, -11.9097 ], [ 43.4386, -11.9258 ] ] ] } },
{ "type": "Feature", "properties": { "iso3": "COM", "unit_id": "57664128B16594034618160", "unit_name": "Mbadjini Ouest" }, "geometry": { "type": "Polygon", "coordinates": [ [ [ 43.3589, -11.8555 ], [ 43.3837, -11.8635 ], [ 43.3866, -11.8744 ], [ 43.3967, -11.8884 ], [ 43.4179, -11.9066 ], [ 43.4243, -11.9066 ], [ 43.4331, -11.9223 ], [ 43.4386, -11.9258 ], [ 43.4459, -11.9097 ], [ 43.4396, -11.8909 ], [ 43.4386, -11.8542 ], [ 43.4258, -11.8245 ], [ 43.3763, -11.7689 ], [ 43.3709, -11.7781 ], [ 43.3632, -11.7789 ], [ 43.3616, -11.8525 ], [ 43.3589, -11.8555 ] ] ] } },
{ "type": "Feature", "properties": { "iso3": "COM", "unit_id": "57664128B79476774124653", "unit_name": "Mitsamiouli-Mboudé" }, "geometry": { "type": "Polygon", "coordinates": [ [ [ 43.404, -11.4032 ], [ 43.3995, -11.3982 ], [ 43.4005, -11.3927 ], [ 43.4033, -11.3922 ], [ 43.402, -11.3899 ], [ 43.3977, -11.391 ], [ 43.3932, -11.3739 ], [ 43.3819, -11.3711 ], [ 43.3756, -11.3735 ], [ 43.356, -11.3658 ], [ 43.3426, -11.3653 ], [ 43.3372, -11.3714 ], [ 43.3164, -11.3746 ], [ 43.3141, -11.3807 ], [ 43.3027, -11.3785 ], [ 43.296, -11.3861 ], [ 43.2839, -11.3926 ], [ 43.2711, -11.414 ], [ 43.2669, -11.4456 ], [ 43.2627, -11.4497 ], [ 43.2715, -11.4671 ], [ 43.2706, -11.4797 ], [ 43.2768, -11.4931 ], [ 43.2779, -11.5029 ], [ 43.2748, -11.5134 ], [ 43.2995, -11.5168 ], [ 43.3124, -11.5273 ], [ 43.3206, -11.5274 ], [ 43.3256, -11.5096 ], [ 43.3471, -11.5087 ], [ 43.345, -11.4642 ], [ 43.3553, -11.4531 ], [ 43.3669, -11.4125 ], [ 43.404, -11.4032 ] ] ] } },
{ "type": "Feature", "properties": { "iso3": "COM", "unit_id": "57664128B82332631904571", "unit_name": "Moroni-Bambao" }, "geometry": { "type": "Polygon", "coordinates": [ [ [ 43.357, -11.769 ], [ 43.359, -11.7628 ], [ 43.3542, -11.7545 ], [ 43.3577, -11.7491 ], [ 43.3466, -11.7138 ], [ 43.2746, -11.7122 ], [ 43.2629, -11.7077 ], [ 43.2734, -11.697 ], [ 43.2756, -11.6904 ], [ 43.27, -11.6837 ], [ 43.2583, -11.6797 ], [ 43.2532, -11.6848 ], [ 43.2499, -11.697 ], [ 43.2521, -11.7033 ], [ 43.2456, -11.7045 ], [ 43.2413, -11.7104 ], [ 43.2286, -11.7364 ], [ 43.2328, -11.7418 ], [ 43.2305, -11.7449 ], [ 43.2319, -11.7575 ], [ 43.2332, -11.7555 ], [ 43.2366, -11.7602 ], [ 43.2404, -11.7599 ], [ 43.2374, -11.7659 ], [ 43.2415, -11.7735 ], [ 43.2389, -11.78 ], [ 43.2526, -11.7871 ], [ 43.2639, -11.801 ], [ 43.2768, -11.8035 ], [ 43.357, -11.769 ] ] ] } },
{ "type": "Feature", "properties": { "iso3": "COM", "unit_id": "57664128B58034812723850", "unit_name": "Oichili-Dimani" }, "geometry": { "type": "Polygon", "coordinates": [ [ [ 43.3443, -11.5593 ], [ 43.3128, -11.6168 ], [ 43.333, -11.6333 ], [ 43.3344, -11.6651 ], [ 43.3577, -11.7491 ], [ 43.3641, -11.7498 ], [ 43.3665, -11.7548 ], [ 43.4009, -11.7472 ], [ 43.4288, -11.7466 ], [ 43.4507, -11.7356 ], [ 43.4383, -11.7186 ], [ 43.4383, -11.71 ], [ 43.4328, -11.7069 ], [ 43.4299, -11.6905 ], [ 43.4207, -11.6809 ], [ 43.4212, -11.6745 ], [ 43.4063, -11.6595 ], [ 43.4027, -11.6595 ], [ 43.3999, -11.651 ], [ 43.3964, -11.6493 ], [ 43.396, -11.6424 ], [ 43.4004, -11.6365 ], [ 43.391, -11.6118 ], [ 43.3979, -11.6056 ], [ 43.3945, -11.5931 ], [ 43.3978, -11.5736 ], [ 43.4036, -11.5699 ], [ 43.4046, -11.5598 ], [ 43.3443, -11.5593 ] ] ] } },
{ "type": "Feature", "properties": { "iso3": "COM", "unit_id": "57664128B48117229889890", "unit_name": "Kartala" }, "geometry": { "type": "Polygon", "coordinates": [ [ [ 43.3632, -11.7789 ], [ 43.3709, -11.7781 ], [ 43.3783, -11.7637 ], [ 43.3766, -11.7595 ], [ 43.3677, -11.7592 ], [ 43.3608, -11.7484 ], [ 43.3542, -11.7545 ], [ 43.359, -11.7628 ], [ 43.3565, -11.7729 ], [ 43.3632, -11.7789 ] ] ] } },
{ "type": "Feature", "properties": { "iso3": "COM", "unit_id": "57664128B51329798403626", "unit_name": "Djando" }, "geometry": { "type": "Polygon", "coordinates": [ [ [ 43.7445, -12.3406 ], [ 43.7464, -12.3449 ], [ 43.7675, -12.3555 ], [ 43.778, -12.3807 ], [ 43.7758, -12.3701 ], [ 43.7833, -12.3683 ], [ 43.7894, -12.3738 ], [ 43.8152, -12.3747 ], [ 43.8146, -12.3809 ], [ 43.8179, -12.3772 ], [ 43.8244, -12.3777 ], [ 43.8479, -12.3867 ], [ 43.8575, -12.3853 ], [ 43.8695, -12.3917 ], [ 43.8668, -12.386 ], [ 43.8699, -12.3846 ], [ 43.8674, -12.3822 ], [ 43.871, -12.3673 ], [ 43.8598, -12.355 ], [ 43.8586, -12.3469 ], [ 43.856, -12.3483 ], [ 43.8532, -12.3427 ], [ 43.8452, -12.3407 ], [ 43.832, -12.3289 ], [ 43.8265, -12.3294 ], [ 43.8208, -12.3246 ], [ 43.8146, -12.3244 ], [ 43.8129, -12.321 ], [ 43.8083, -12.3242 ], [ 43.8032, -12.3218 ], [ 43.7943, -12.3343 ], [ 43.7854, -12.334 ], [ 43.7793, -12.3295 ], [ 43.7635, -12.3288 ], [ 43.7445, -12.3406 ] ] ] } },
{ "type": "Feature", "properties": { "iso3": "COM", "unit_id": "57664128B81263250381656", "unit_name": "Fomboni" }, "geometry": { "type": "Polygon", "coordinates": [ [ [ 43.8032, -12.3218 ], [ 43.7958, -12.3172 ], [ 43.7905, -12.3082 ], [ 43.776, -12.3055 ], [ 43.7707, -12.2938 ], [ 43.754, -12.2917 ], [ 43.7512, -12.2868 ], [ 43.7384, -12.2794 ], [ 43.7328, -12.2705 ], [ 43.7247, -12.2729 ], [ 43.7133, -12.2711 ], [ 43.6955, -12.2609 ], [ 43.6778, -12.2582 ], [ 43.6735, -12.2548 ], [ 43.6628, -12.2582 ], [ 43.6568, -12.2489 ], [ 43.6545, -12.253 ], [ 43.6507, -12.2502 ], [ 43.6456, -12.2523 ], [ 43.642, -12.2581 ], [ 43.6318, -12.2569 ], [ 43.6265, -12.2633 ], [ 43.6342, -12.2694 ], [ 43.6459, -12.2718 ], [ 43.6643, -12.2886 ], [ 43.6795, -12.2963 ], [ 43.6881, -12.3078 ], [ 43.7077, -12.3201 ], [ 43.7092, -12.3243 ], [ 43.7131, -12.3246 ], [ 43.7099, -12.3216 ], [ 43.7117, -12.3162 ], [ 43.7243, -12.3171 ], [ 43.7258, -12.3263 ], [ 43.7365, -12.3295 ], [ 43.7445, -12.3406 ], [ 43.7635, -12.3288 ], [ 43.7793, -12.3295 ], [ 43.7854, -12.334 ], [ 43.7943, -12.3343 ], [ 43.8032, -12.3218 ] ] ] } },
{ "type": "Feature", "properties": { "iso3": "COM", "unit_id": "57664128B45118905643410", "unit_name": "Nioumachioi" }, "geometry": { "type": "MultiPolygon", "coordinates": [ [ [ [ 43.7206, -12.4093 ], [ 43.7145, -12.4007 ], [ 43.7155, -12.4074 ], [ 43.7212, -12.4124 ], [ 43.723, -12.4228 ], [ 43.7265, -12.4123 ], [ 43.7206, -12.4093 ] ] ], [ [ [ 43.6751, -12.3949 ], [ 43.6597, -12.4002 ], [ 43.6508, -12.4085 ], [ 43.6504, -12.4126 ], [ 43.6545, -12.4081 ], [ 43.6578, -12.4121 ], [ 43.662, -12.4017 ], [ 43.6662, -12.4011 ], [ 43.6668, -12.4139 ], [ 43.6713, -12.4165 ], [ 43.6719, -12.4222 ], [ 43.6738, -12.4199 ], [ 43.6702, -12.4086 ], [ 43.6751, -12.3949 ] ] ], [ [ [ 43.7148, -12.3951 ], [ 43.7033, -12.3907 ], [ 43.7003, -12.3941 ], [ 43.7062, -12.402 ], [ 43.7037, -12.4146 ], [ 43.7083, -12.4211 ], [ 43.7066, -12.4003 ], [ 43.7148, -12.3951 ] ] ], [ [ [ 43.7298, -12.4009 ], [ 43.7286, -12.4006 ], [ 43.7308, -12.4033 ], [ 43.7298, -12.4009 ] ] ], [ [ [ 43.6473, -12.3999 ], [ 43.6401, -12.3979 ], [ 43.6383, -12.404 ], [ 43.642, -12.4055 ], [ 43.6473, -12.3999 ] ] ], [ [ [ 43.7426, -12.3893 ], [ 43.7353, -12.3811 ], [ 43.735, -12.3861 ], [ 43.7426, -12.3893 ] ] ], [ [ [ 43.7615, -12.3778 ], [ 43.7614, -12.3798 ], [ 43.7631, -12.3801 ], [ 43.7615, -12.3778 ] ] ], [ [ [ 43.7464, -12.3449 ], [ 43.7365, -12.3295 ], [ 43.7258, -12.3263 ], [ 43.7243, -12.3171 ], [ 43.7117, -12.3162 ], [ 43.7099, -12.3216 ], [ 43.7131, -12.3246 ], [ 43.7092, -12.3243 ], [ 43.7077, -12.3201 ], [ 43.6881, -12.3078 ], [ 43.6795, -12.2963 ], [ 43.6643, -12.2886 ], [ 43.6459, -12.2718 ], [ 43.6271, -12.266 ], [ 43.6234, -12.2771 ], [ 43.6255, -12.2839 ], [ 43.6228, -12.2862 ], [ 43.6355, -12.301 ], [ 43.6367, -12.315 ], [ 43.6401, -12.3163 ], [ 43.6328, -12.3217 ], [ 43.6406, -12.3193 ], [ 43.6453, -12.3236 ], [ 43.648, -12.3206 ], [ 43.655, -12.323 ], [ 43.6568, -12.328 ], [ 43.6626, -12.3297 ], [ 43.6636, -12.338 ], [ 43.6677, -12.3399 ], [ 43.6683, -12.3485 ], [ 43.6646, -12.3501 ], [ 43.6643, -12.355 ], [ 43.6603, -12.3537 ], [ 43.6634, -12.3562 ], [ 43.6591, -12.3598 ], [ 43.6716, -12.3554 ], [ 43.6754, -12.364 ], [ 43.6825, -12.3615 ], [ 43.6867, -12.3649 ], [ 43.6857, -12.3617 ], [ 43.6885, -12.3597 ], [ 43.6924, -12.361 ], [ 43.6941, -12.3582 ], [ 43.6962, -12.3605 ], [ 43.7008, -12.3576 ], [ 43.7041, -12.3616 ], [ 43.7073, -12.3584 ], [ 43.714, -12.3598 ], [ 43.7135, -12.367 ], [ 43.7196, -12.3702 ], [ 43.7267, -12.3621 ], [ 43.7374, -12.3637 ], [ 43.7441, -12.3713 ], [ 43.7452, -12.3675 ], [ 43.7485, -12.3685 ], [ 43.7438, -12.3635 ], [ 43.7493, -12.3594 ], [ 43.7643, -12.368 ], [ 43.7691, -12.3666 ], [ 43.778, -12.3807 ], [ 43.7675, -12.3555 ], [ 43.7464, -12.3449 ] ] ] ] } }
]
}
