{
"type": "FeatureCollection",
"name": "CPV",
"crs": { "type": "name", "properties": { "name": "urn:ogc:def:crs:OGC:1.3:CRS84" } },
"xy_coordinate_resolution": 0.0001,
"features": [
{ "type": "Feature", "properties": { "iso3": "CPV", "unit_id": "55419318B74360566441906", "unit_name": "Santa Isabel" }, "geometry": { "type": "MultiPolygon", "coordinates": [ [ [ [ -22.7945, 15.968 ], [ -22.8013, 15.9773 ], [ -22.8059, 16.0037 ], [ -22.8019, 16.0146 ], [ -22.7848, 16.0228 ], [ -22.7824, 16.0317 ], [ -22.7716, 16.0403 ], [ -22.7595, 16.0427 ], [ -22.7583, 16.0532 ], [ -22.7478, 16.0612 ], [ -22.7578, 16.0768 ], [ -22.7551, 16.0839 ], [ -22.7593, 16.0872 ], [ -22.7582, 16.0928 ], [ -22.7646, 16.0962 ], [ -22.7614, 16.1025 ], [ -22.7722, 16.1079 ], [ -22.7709, 16.1151 ], [ -22.7751, 16.1175 ], [ -22.7752, 16.1246 ], [ -22.7903, 16.1283 ], [ -22.8005, 16.1422 ], [ -22.7989, 16.1474 ], [ -22.8065, 16.1546 ], [ -22.8092, 16.1622 ], [ -22.8144, 16.1672 ], [ -22.8233, 16.1677 ], [ -22.8274, 16.1715 ], [ -22.8167, 16.1896 ], [ -22.8039, 16.1991 ], [ -22.8007, 16.1977 ], [ -22.791, 16.2082 ], [ -22.7911, 16.2142 ], [ -22.7812, 16.2262 ], [ -22.7849, 16.2256 ], [ -22.7853, 16.2286 ], [ -22.7886, 16.2251 ], [ -22.7896, 16.2302 ], [ -22.7929, 16.2279 ], [ -22.7916, 16.2243 ], [ -22.7956, 16.2244 ], [ -22.7945, 16.2169 ], [ -22.8047, 16.21 ], [ -22.8316, 16.203 ], [ -22.8605, 16.2022 ], [ -22.8883, 16.2095 ], [ -22.893, 16.2136 ], [ -22.8931, 16.2177 ], [ -22.8988, 16.2175 ], [ -22.9094, 16.2248 ], [ -22.909, 16.231 ], [ -22.9181, 16.2284 ], [ -22.9208, 16.2218 ], [ -22.9171, 16.2163 ], [ -22.9196, 16.2097 ], [ -22.9102, 16.2023 ], [ -22.9169, 16.1949 ], [ -22.9144, 16.1924 ], [ -22.9186, 16.1891 ], [ -22.92, 16.18 ], [ -22.9253, 16.1778 ], [ -22.9161, 16.1744 ], [ -22.9074, 16.1568 ], [ -22.907, 16.1248 ], [ -22.9091, 16.1192 ], [ -22.9287, 16.101 ], [ -22.9362, 16.097 ], [ -22.9427, 16.0985 ], [ -22.9541, 16.0854 ], [ -22.9567, 16.0862 ], [ -22.9586, 16.0821 ], [ -22.9551, 16.0716 ], [ -22.9604, 16.0656 ], [ -22.9599, 16.0558 ], [ -22.966, 16.0422 ], [ -22.9608, 16.0261 ], [ -22.9486, 16.0128 ], [ -22.9225, 16.0018 ], [ -22.8955, 15.9951 ], [ -22.8847, 15.9786 ], [ -22.8768, 15.9736 ], [ -22.8357, 15.9772 ], [ -22.8125, 15.9755 ], [ -22.7945, 15.968 ] ] ], [ [ [ -22.9342, 16.1763 ], [ -22.9364, 16.1729 ], [ -22.9319, 16.1708 ], [ -22.9308, 16.1663 ], [ -22.9234, 16.1647 ], [ -22.9261, 16.1718 ], [ -22.9342, 16.1763 ] ] ] ] } },
{ "type": "Feature", "properties": { "iso3": "CPV", "unit_id": "55419318B32693050792859", "unit_name": "Sao Joao Baptista" }, "geometry": { "type": "MultiPolygon", "coordinates": [ [ [ [ -22.7945, 15.968 ], [ -22.7912, 15.9805 ], [ -22.7819, 15.9908 ], [ -22.7641, 15.9992 ], [ -22.7598, 16.0049 ], [ -22.7343, 16.0194 ], [ -22.716, 16.0255 ], [ -22.7067, 16.0341 ], [ -22.7009, 16.0336 ], [ -22.6981, 16.0411 ], [ -22.6885, 16.0422 ], [ -22.6813, 16.051 ], [ -22.6805, 16.0626 ], [ -22.673, 16.0708 ], [ -22.6682, 16.0852 ], [ -22.6648, 16.0849 ], [ -22.6684, 16.087 ], [ -22.6702, 16.1054 ], [ -22.6775, 16.1191 ], [ -22.6743, 16.1295 ], [ -22.6697, 16.1287 ], [ -22.6732, 16.1456 ], [ -22.7052, 16.1767 ], [ -22.7083, 16.1848 ], [ -22.7048, 16.192 ], [ -22.7097, 16.1952 ], [ -22.7057, 16.2027 ], [ -22.7094, 16.2004 ], [ -22.7162, 16.2066 ], [ -22.723, 16.2037 ], [ -22.7298, 16.2094 ], [ -22.744, 16.2089 ], [ -22.7711, 16.2217 ], [ -22.7801, 16.2206 ], [ -22.7832, 16.2229 ], [ -22.8007, 16.1977 ], [ -22.8039, 16.1991 ], [ -22.8167, 16.1896 ], [ -22.8274, 16.1715 ], [ -22.8233, 16.1677 ], [ -22.8144, 16.1672 ], [ -22.8092, 16.1622 ], [ -22.8065, 16.1546 ], [ -22.7989, 16.1474 ], [ -22.8005, 16.1422 ], [ -22.7903, 16.1283 ], [ -22.7752, 16.1246 ], [ -22.7751, 16.1175 ], [ -22.7709, 16.1151 ], [ -22.7722, 16.1079 ], [ -22.7614, 16.1025 ], [ -22.7646, 16.0962 ], [ -22.7582, 16.0928 ], [ -22.7593, 16.0872 ], [ -22.7551, 16.0839 ], [ -22.7578, 16.0768 ], [ -22.7478, 16.0612 ], [ -22.7583, 16.0532 ], [ -22.7595, 16.0427 ], [ -22.7716, 16.0403 ], [ -22.7824, 16.0317 ], [ -22.7848, 16.0228 ], [ -22.8019, 16.0146 ], [ -22.8059, 16.0037 ], [ -22.8013, 15.9773 ], [ -22.7945, 15.968 ] ] ], [ [ [ -22.6588, 16.1536 ], [ -22.664, 16.1528 ], [ -22.6576, 16.1531 ], [ -22.6588, 16.1536 ] ] ] ] } },
{ "type": "Feature", "properties": { "iso3": "CPV", "unit_id": "55419318B59149499432825", "unit_name": "Nossa Senhora Do Monte" }, "geometry": { "type": "MultiPolygon", "coordinates": [ [ [ [ -24.7278, 14.8907 ], [ -24.7288, 14.8904 ], [ -24.7279, 14.8887 ], [ -24.7278, 14.8907 ] ] ], [ [ [ -24.7157, 14.8073 ], [ -24.7133, 14.8215 ], [ -24.7071, 14.8214 ], [ -24.7046, 14.8263 ], [ -24.7063, 14.8299 ], [ -24.7032, 14.8314 ], [ -24.7033, 14.8406 ], [ -24.7065, 14.8449 ], [ -24.7021, 14.8473 ], [ -24.7048, 14.8515 ], [ -24.6992, 14.8618 ], [ -24.7186, 14.8716 ], [ -24.7167, 14.8772 ], [ -24.7222, 14.8811 ], [ -24.7245, 14.8879 ], [ -24.7283, 14.8874 ], [ -24.7332, 14.8807 ], [ -24.7354, 14.8821 ], [ -24.7347, 14.8749 ], [ -24.7314, 14.8732 ], [ -24.7333, 14.8676 ], [ -24.7426, 14.8657 ], [ -24.7451, 14.8686 ], [ -24.7482, 14.8645 ], [ -24.7491, 14.8588 ], [ -24.7454, 14.8551 ], [ -24.7487, 14.8509 ], [ -24.7442, 14.8479 ], [ -24.7447, 14.8403 ], [ -24.7481, 14.8397 ], [ -24.7487, 14.8357 ], [ -24.7412, 14.8284 ], [ -24.7375, 14.8329 ], [ -24.7257, 14.8175 ], [ -24.7266, 14.8136 ], [ -24.7207, 14.8129 ], [ -24.7157, 14.8073 ] ] ] ] } },
{ "type": "Feature", "properties": { "iso3": "CPV", "unit_id": "55419318B42586405581584", "unit_name": "Sao Joao Baptista" }, "geometry": { "type": "MultiPolygon", "coordinates": [ [ [ [ -24.6356, 14.9837 ], [ -24.6361, 14.9731 ], [ -24.6463, 14.9675 ], [ -24.6418, 14.9634 ], [ -24.6399, 14.9685 ], [ -24.6326, 14.9726 ], [ -24.6338, 14.9751 ], [ -24.6303, 14.9743 ], [ -24.6299, 14.9778 ], [ -24.6356, 14.9837 ] ] ], [ [ [ -24.6836, 14.9778 ], [ -24.6842, 14.9737 ], [ -24.6869, 14.9777 ], [ -24.6895, 14.9732 ], [ -24.6935, 14.9729 ], [ -24.6922, 14.9707 ], [ -24.6974, 14.9638 ], [ -24.6949, 14.9601 ], [ -24.6839, 14.9639 ], [ -24.6837, 14.9701 ], [ -24.6797, 14.9722 ], [ -24.6836, 14.9778 ] ] ], [ [ [ -24.6477, 14.9711 ], [ -24.6498, 14.9704 ], [ -24.6475, 14.9689 ], [ -24.6477, 14.9711 ] ] ], [ [ [ -24.6569, 14.9702 ], [ -24.6585, 14.9688 ], [ -24.6567, 14.9677 ], [ -24.6569, 14.9702 ] ] ], [ [ [ -24.6587, 14.9693 ], [ -24.6627, 14.9695 ], [ -24.6617, 14.967 ], [ -24.6587, 14.9693 ] ] ], [ [ [ -24.7157, 14.8073 ], [ -24.7072, 14.8101 ], [ -24.7039, 14.8071 ], [ -24.7055, 14.8045 ], [ -24.7016, 14.8026 ], [ -24.698, 14.8082 ], [ -24.6917, 14.8087 ], [ -24.6785, 14.82 ], [ -24.6751, 14.8191 ], [ -24.6744, 14.8293 ], [ -24.6689, 14.8321 ], [ -24.6704, 14.8411 ], [ -24.6651, 14.8417 ], [ -24.6702, 14.8491 ], [ -24.6688, 14.8616 ], [ -24.6752, 14.8734 ], [ -24.6793, 14.8749 ], [ -24.6774, 14.8838 ], [ -24.68, 14.8874 ], [ -24.673, 14.8911 ], [ -24.6832, 14.8941 ], [ -24.6815, 14.9004 ], [ -24.6846, 14.8965 ], [ -24.6875, 14.9 ], [ -24.6923, 14.8996 ], [ -24.6914, 14.8961 ], [ -24.6949, 14.8922 ], [ -24.7019, 14.8936 ], [ -24.7141, 14.8856 ], [ -24.719, 14.8891 ], [ -24.7234, 14.8866 ], [ -24.7222, 14.8811 ], [ -24.7167, 14.8772 ], [ -24.7186, 14.8716 ], [ -24.6992, 14.8618 ], [ -24.7048, 14.8515 ], [ -24.7021, 14.8473 ], [ -24.7065, 14.8449 ], [ -24.7033, 14.8406 ], [ -24.7032, 14.8314 ], [ -24.7063, 14.8299 ], [ -24.7046, 14.8263 ], [ -24.7071, 14.8214 ], [ -24.7133, 14.8215 ], [ -24.7157, 14.8073 ] ] ] ] } },
{ "type": "Feature", "properties": { "iso3": "CPV", "unit_id": "55419318B6547325778745", "unit_name": "Nossa Senhora Da Luz" }, "geometry": { "type": "Polygon", "coordinates": [ [ [ -23.18, 15.3379 ], [ -23.1822, 15.3331 ], [ -23.1802, 15.3308 ], [ -23.1882, 15.3246 ], [ -23.1834, 15.3135 ], [ -23.1887, 15.3105 ], [ -23.1969, 15.3144 ], [ -23.2009, 15.3132 ], [ -23.1959, 15.3064 ], [ -23.2018, 15.2936 ], [ -23.2278, 15.2756 ], [ -23.2242, 15.2724 ], [ -23.2304, 15.2667 ], [ -23.2305, 15.2581 ], [ -23.2191, 15.2557 ], [ -23.2155, 15.2471 ], [ -23.2158, 15.2308 ], [ -23.2175, 15.223 ], [ -23.2277, 15.218 ], [ -23.2342, 15.1638 ], [ -23.2292, 15.1462 ], [ -23.2155, 15.1403 ], [ -23.2061, 15.1261 ], [ -23.1852, 15.1182 ], [ -23.1777, 15.1197 ], [ -23.1577, 15.1165 ], [ -23.1501, 15.1178 ], [ -23.1445, 15.1261 ], [ -23.1356, 15.1288 ], [ -23.1284, 15.1363 ], [ -23.1158, 15.1387 ], [ -23.1, 15.1514 ], [ -23.0951, 15.1644 ], [ -23.0882, 15.1676 ], [ -23.0911, 15.1759 ], [ -23.0877, 15.179 ], [ -23.0935, 15.1893 ], [ -23.0888, 15.197 ], [ -23.0943, 15.2141 ], [ -23.0921, 15.2157 ], [ -23.0952, 15.2216 ], [ -23.0947, 15.2371 ], [ -23.0989, 15.2437 ], [ -23.0974, 15.2518 ], [ -23.1057, 15.2681 ], [ -23.1007, 15.2741 ], [ -23.1007, 15.2795 ], [ -23.1119, 15.3102 ], [ -23.1193, 15.3158 ], [ -23.1219, 15.3132 ], [ -23.124, 15.3157 ], [ -23.1339, 15.3077 ], [ -23.1526, 15.3137 ], [ -23.16, 15.321 ], [ -23.1603, 15.3327 ], [ -23.1638, 15.3214 ], [ -23.1733, 15.3214 ], [ -23.18, 15.3379 ] ] ] } },
{ "type": "Feature", "properties": { "iso3": "CPV", "unit_id": "55419318B86569985122137", "unit_name": "Nossa Senhora Da Ajuda" }, "geometry": { "type": "Polygon", "coordinates": [ [ [ -24.3732, 14.9885 ], [ -24.3682, 14.9891 ], [ -24.3636, 14.978 ], [ -24.3422, 14.9509 ], [ -24.2893, 14.9525 ], [ -24.2904, 14.9588 ], [ -24.2865, 14.9715 ], [ -24.2917, 14.9804 ], [ -24.2934, 14.9944 ], [ -24.2993, 14.9996 ], [ -24.3003, 15.0155 ], [ -24.3094, 15.0223 ], [ -24.3155, 15.034 ], [ -24.3275, 15.0354 ], [ -24.3316, 15.0434 ], [ -24.3368, 15.0458 ], [ -24.3634, 15.0484 ], [ -24.3688, 15.0519 ], [ -24.3879, 15.0393 ], [ -24.3961, 15.0374 ], [ -24.3952, 15.0332 ], [ -24.4, 15.0308 ], [ -24.3908, 15.0145 ], [ -24.3782, 15.0015 ], [ -24.3732, 14.9885 ] ] ] } },
{ "type": "Feature", "properties": { "iso3": "CPV", "unit_id": "55419318B48142935150305", "unit_name": "Santo Antonio Das Pombas" }, "geometry": { "type": "Polygon", "coordinates": [ [ [ -25.0684, 17.1118 ], [ -25.0638, 17.1034 ], [ -25.0571, 17.1065 ], [ -25.034, 17.1017 ], [ -25.0212, 17.0929 ], [ -25.0109, 17.0779 ], [ -24.9989, 17.0749 ], [ -24.989, 17.0684 ], [ -24.9779, 17.0686 ], [ -24.9753, 17.0766 ], [ -24.9694, 17.0795 ], [ -24.9633, 17.0887 ], [ -24.9653, 17.0929 ], [ -24.9631, 17.0955 ], [ -24.9666, 17.0976 ], [ -24.9645, 17.1022 ], [ -24.9666, 17.1141 ], [ -24.9702, 17.1161 ], [ -24.9756, 17.1129 ], [ -24.9772, 17.1165 ], [ -24.9851, 17.1183 ], [ -24.9849, 17.1226 ], [ -24.9885, 17.1196 ], [ -24.9947, 17.1219 ], [ -25.0127, 17.1437 ], [ -25.0189, 17.1586 ], [ -25.0163, 17.1709 ], [ -25.0304, 17.1517 ], [ -25.0435, 17.1459 ], [ -25.0527, 17.1363 ], [ -25.063, 17.1147 ], [ -25.0673, 17.115 ], [ -25.0684, 17.1118 ] ] ] } },
{ "type": "Feature", "properties": { "iso3": "CPV", "unit_id": "55419318B72525009454137", "unit_name": "Santo Andre" }, "geometry": { "type": "Polygon", "coordinates": [ [ [ -25.3361, 17.0229 ], [ -25.3155, 17.0327 ], [ -25.3068, 17.0444 ], [ -25.2905, 17.0383 ], [ -25.2709, 17.0505 ], [ -25.2647, 17.0497 ], [ -25.26, 17.0537 ], [ -25.2487, 17.0528 ], [ -25.2341, 17.058 ], [ -25.2233, 17.0665 ], [ -25.1869, 17.0687 ], [ -25.1732, 17.0799 ], [ -25.1785, 17.0846 ], [ -25.179, 17.0949 ], [ -25.1933, 17.0963 ], [ -25.2094, 17.1077 ], [ -25.2129, 17.1066 ], [ -25.221, 17.1201 ], [ -25.233, 17.1284 ], [ -25.2482, 17.1208 ], [ -25.2603, 17.1221 ], [ -25.2782, 17.109 ], [ -25.2989, 17.1086 ], [ -25.3056, 17.1036 ], [ -25.3311, 17.0972 ], [ -25.3332, 17.0935 ], [ -25.3388, 17.0928 ], [ -25.3386, 17.085 ], [ -25.3451, 17.0834 ], [ -25.3429, 17.0759 ], [ -25.3531, 17.0705 ], [ -25.3543, 17.0632 ], [ -25.359, 17.0602 ], [ -25.3571, 17.0565 ], [ -25.3612, 17.0542 ], [ -25.3583, 17.0491 ], [ -25.361, 17.048 ], [ -25.3598, 17.0399 ], [ -25.3492, 17.0242 ], [ -25.3361, 17.0229 ] ] ] } },
{ "type": "Feature", "properties": { "iso3": "CPV", "unit_id": "55419318B30091409777819", "unit_name": "Sao Joao Baptista" }, "geometry": { "type": "Polygon", "coordinates": [ [ [ -25.0684, 17.1118 ], [ -25.0867, 17.1156 ], [ -25.09, 17.1095 ], [ -25.0879, 17.1061 ], [ -25.0968, 17.0983 ], [ -25.1119, 17.097 ], [ -25.1394, 17.0863 ], [ -25.1445, 17.0814 ], [ -25.1511, 17.0875 ], [ -25.1561, 17.0835 ], [ -25.1698, 17.0833 ], [ -25.1869, 17.0687 ], [ -25.2233, 17.0665 ], [ -25.2341, 17.058 ], [ -25.2487, 17.0528 ], [ -25.26, 17.0537 ], [ -25.2647, 17.0497 ], [ -25.2709, 17.0505 ], [ -25.2905, 17.0383 ], [ -25.3068, 17.0444 ], [ -25.3155, 17.0327 ], [ -25.3278, 17.0252 ], [ -25.3352, 17.0252 ], [ -25.3361, 17.0229 ], [ -25.3273, 17.0174 ], [ -25.3204, 17.0043 ], [ -25.3177, 16.9906 ], [ -25.3211, 16.9762 ], [ -25.3114, 16.9616 ], [ -25.3097, 16.9525 ], [ -25.3187, 16.9414 ], [ -25.3188, 16.9334 ], [ -25.315, 16.9282 ], [ -25.3169, 16.9246 ], [ -25.298, 16.9058 ], [ -25.2849, 16.9143 ], [ -25.2735, 16.9165 ], [ -25.2707, 16.9206 ], [ -25.2612, 16.9223 ], [ -25.2425, 16.9202 ], [ -25.2365, 16.9143 ], [ -25.2277, 16.9116 ], [ -25.2148, 16.9134 ], [ -25.2074, 16.908 ], [ -25.1969, 16.9159 ], [ -25.1812, 16.9186 ], [ -25.1741, 16.923 ], [ -25.1505, 16.9566 ], [ -25.1331, 16.9617 ], [ -25.1272, 16.9732 ], [ -25.1243, 16.973 ], [ -25.1075, 16.9943 ], [ -25.0979, 16.9991 ], [ -25.0851, 17.013 ], [ -25.0796, 17.0128 ], [ -25.0724, 17.0177 ], [ -25.0622, 17.0183 ], [ -25.0589, 17.0176 ], [ -25.0599, 17.0152 ], [ -25.0459, 17.019 ], [ -25.0401, 17.0266 ], [ -25.025, 17.0311 ], [ -24.9972, 17.0513 ], [ -24.9866, 17.055 ], [ -24.9875, 17.0602 ], [ -24.9815, 17.0675 ], [ -25.0109, 17.0779 ], [ -25.0212, 17.0929 ], [ -25.034, 17.1017 ], [ -25.0571, 17.1065 ], [ -25.0638, 17.1034 ], [ -25.0684, 17.1118 ] ] ] } },
{ "type": "Feature", "properties": { "iso3": "CPV", "unit_id": "55419318B89032804041658", "unit_name": "Nossa Senhora Da Graca" }, "geometry": { "type": "MultiPolygon", "coordinates": [ [ [ [ -23.508, 14.9095 ], [ -23.5088, 14.9082 ], [ -23.5067, 14.9056 ], [ -23.508, 14.9095 ] ] ], [ [ [ -23.4933, 14.9846 ], [ -23.521, 14.9963 ], [ -23.5286, 14.9892 ], [ -23.5331, 14.9904 ], [ -23.5387, 14.9828 ], [ -23.5399, 14.9859 ], [ -23.5503, 14.9887 ], [ -23.5882, 14.9767 ], [ -23.5812, 14.9576 ], [ -23.5683, 14.9491 ], [ -23.5692, 14.9332 ], [ -23.5654, 14.9248 ], [ -23.5601, 14.9268 ], [ -23.5557, 14.9038 ], [ -23.5444, 14.9064 ], [ -23.5333, 14.9025 ], [ -23.5211, 14.9046 ], [ -23.52, 14.9019 ], [ -23.5155, 14.9041 ], [ -23.509, 14.9 ], [ -23.5117, 14.903 ], [ -23.5109, 14.9123 ], [ -23.5034, 14.9184 ], [ -23.4997, 14.9079 ], [ -23.4946, 14.9112 ], [ -23.4932, 14.9089 ], [ -23.4849, 14.911 ], [ -23.4818, 14.9059 ], [ -23.4782, 14.9134 ], [ -23.4791, 14.9234 ], [ -23.4718, 14.932 ], [ -23.472, 14.9397 ], [ -23.4634, 14.9474 ], [ -23.4637, 14.9511 ], [ -23.4691, 14.9535 ], [ -23.4616, 14.9546 ], [ -23.4541, 14.963 ], [ -23.4596, 14.9645 ], [ -23.4585, 14.9732 ], [ -23.4725, 14.9812 ], [ -23.4933, 14.9846 ] ] ] ] } },
{ "type": "Feature", "properties": { "iso3": "CPV", "unit_id": "55419318B81085863214929", "unit_name": "Nossa Senhora Da Lapa" }, "geometry": { "type": "Polygon", "coordinates": [ [ [ -24.3502, 16.6446 ], [ -24.3407, 16.6529 ], [ -24.3387, 16.6483 ], [ -24.3316, 16.6469 ], [ -24.3309, 16.6421 ], [ -24.3263, 16.6386 ], [ -24.319, 16.6372 ], [ -24.3225, 16.6333 ], [ -24.3217, 16.6284 ], [ -24.3125, 16.6267 ], [ -24.3086, 16.629 ], [ -24.3106, 16.6407 ], [ -24.3071, 16.6521 ], [ -24.3007, 16.6529 ], [ -24.3023, 16.656 ], [ -24.3072, 16.6562 ], [ -24.3079, 16.6614 ], [ -24.3103, 16.6609 ], [ -24.3173, 16.6704 ], [ -24.3337, 16.6731 ], [ -24.3344, 16.6791 ], [ -24.3436, 16.6818 ], [ -24.3516, 16.6726 ], [ -24.3563, 16.6717 ], [ -24.3554, 16.6633 ], [ -24.3512, 16.6588 ], [ -24.3502, 16.6446 ] ] ] } },
{ "type": "Feature", "properties": { "iso3": "CPV", "unit_id": "55419318B76778788115390", "unit_name": "Nossa Senhora Do Rosario" }, "geometry": { "type": "Polygon", "coordinates": [ [ [ -24.3407, 16.6529 ], [ -24.3585, 16.6351 ], [ -24.355, 16.6216 ], [ -24.3325, 16.6171 ], [ -24.3135, 16.6068 ], [ -24.3124, 16.5935 ], [ -24.3036, 16.5787 ], [ -24.3055, 16.5758 ], [ -24.3006, 16.5593 ], [ -24.3017, 16.544 ], [ -24.312, 16.5243 ], [ -24.3126, 16.5014 ], [ -24.3188, 16.4879 ], [ -24.3153, 16.4793 ], [ -24.316, 16.4836 ], [ -24.3046, 16.4853 ], [ -24.3071, 16.486 ], [ -24.3045, 16.4905 ], [ -24.3084, 16.4937 ], [ -24.3035, 16.5039 ], [ -24.3044, 16.509 ], [ -24.2957, 16.5185 ], [ -24.2901, 16.5414 ], [ -24.2835, 16.5431 ], [ -24.2813, 16.561 ], [ -24.2721, 16.5657 ], [ -24.2605, 16.581 ], [ -24.2464, 16.5807 ], [ -24.2335, 16.5929 ], [ -24.206, 16.5937 ], [ -24.1985, 16.5897 ], [ -24.1674, 16.5918 ], [ -24.1531, 16.5788 ], [ -24.141, 16.5769 ], [ -24.1348, 16.5714 ], [ -24.1322, 16.5729 ], [ -24.1326, 16.5705 ], [ -24.1279, 16.5723 ], [ -24.1215, 16.5611 ], [ -24.1167, 16.5592 ], [ -24.1176, 16.5557 ], [ -24.1057, 16.5519 ], [ -24.1013, 16.5553 ], [ -24.0937, 16.5518 ], [ -24.0919, 16.5559 ], [ -24.0879, 16.5563 ], [ -24.0826, 16.555 ], [ -24.0807, 16.5512 ], [ -24.0688, 16.5506 ], [ -24.0606, 16.5527 ], [ -24.0542, 16.5586 ], [ -24.0483, 16.5551 ], [ -24.0413, 16.557 ], [ -24.037, 16.5499 ], [ -24.0332, 16.5521 ], [ -24.0227, 16.5493 ], [ -24.0157, 16.5531 ], [ -24.0157, 16.5592 ], [ -24.0084, 16.5664 ], [ -24.0103, 16.5748 ], [ -24.017, 16.5812 ], [ -24.0229, 16.578 ], [ -24.0231, 16.5857 ], [ -24.0354, 16.5838 ], [ -24.0439, 16.6007 ], [ -24.0624, 16.6099 ], [ -24.0799, 16.613 ], [ -24.0828, 16.6107 ], [ -24.086, 16.6144 ], [ -24.0995, 16.6161 ], [ -24.1126, 16.6135 ], [ -24.13, 16.6215 ], [ -24.1388, 16.6123 ], [ -24.1609, 16.6151 ], [ -24.171, 16.6217 ], [ -24.1767, 16.6303 ], [ -24.1971, 16.6389 ], [ -24.2005, 16.6368 ], [ -24.2073, 16.6387 ], [ -24.2157, 16.6464 ], [ -24.2272, 16.6457 ], [ -24.2409, 16.6374 ], [ -24.252, 16.6361 ], [ -24.263, 16.6396 ], [ -24.2676, 16.6383 ], [ -24.2717, 16.6313 ], [ -24.2784, 16.631 ], [ -24.2862, 16.6358 ], [ -24.2873, 16.6438 ], [ -24.2985, 16.6461 ], [ -24.3007, 16.6529 ], [ -24.3053, 16.6536 ], [ -24.3106, 16.6407 ], [ -24.3086, 16.629 ], [ -24.3125, 16.6267 ], [ -24.3217, 16.6284 ], [ -24.3225, 16.6333 ], [ -24.319, 16.6372 ], [ -24.3263, 16.6386 ], [ -24.3309, 16.6421 ], [ -24.3316, 16.6469 ], [ -24.3387, 16.6483 ], [ -24.3407, 16.6529 ] ] ] } },
{ "type": "Feature", "properties": { "iso3": "CPV", "unit_id": "55419318B45510132162086", "unit_name": "Nossa Senhora Do Livramento" }, "geometry": { "type": "Polygon", "coordinates": [ [ [ -25.0942, 17.1815 ], [ -25.0734, 17.1857 ], [ -25.0708, 17.1886 ], [ -25.0866, 17.1956 ], [ -25.089, 17.2045 ], [ -25.093, 17.2052 ], [ -25.0981, 17.1957 ], [ -25.1183, 17.1921 ], [ -25.1381, 17.18 ], [ -25.14, 17.1753 ], [ -25.1348, 17.1592 ], [ -25.1304, 17.1598 ], [ -25.1207, 17.1691 ], [ -25.1027, 17.1736 ], [ -25.0942, 17.1815 ] ] ] } },
{ "type": "Feature", "properties": { "iso3": "CPV", "unit_id": "55419318B35188786311355", "unit_name": "Nossa Senhora Do Rosario" }, "geometry": { "type": "Polygon", "coordinates": [ [ [ -25.0163, 17.1709 ], [ -25.0332, 17.1811 ], [ -25.0355, 17.178 ], [ -25.045, 17.1786 ], [ -25.0708, 17.1886 ], [ -25.0861, 17.1823 ], [ -25.0923, 17.1834 ], [ -25.0942, 17.1815 ], [ -25.0887, 17.1716 ], [ -25.0936, 17.1524 ], [ -25.0846, 17.1516 ], [ -25.0821, 17.1457 ], [ -25.078, 17.1288 ], [ -25.0807, 17.1141 ], [ -25.0684, 17.1118 ], [ -25.0673, 17.115 ], [ -25.063, 17.1147 ], [ -25.0527, 17.1363 ], [ -25.0435, 17.1459 ], [ -25.0304, 17.1517 ], [ -25.0163, 17.1709 ] ] ] } },
{ "type": "Feature", "properties": { "iso3": "CPV", "unit_id": "55419318B93028805994419", "unit_name": "Santo Crucifixo" }, "geometry": { "type": "Polygon", "coordinates": [ [ [ -25.0807, 17.1141 ], [ -25.078, 17.1288 ], [ -25.0846, 17.1516 ], [ -25.0936, 17.1524 ], [ -25.0887, 17.1716 ], [ -25.0942, 17.1815 ], [ -25.1027, 17.1736 ], [ -25.1246, 17.167 ], [ -25.1304, 17.1598 ], [ -25.1426, 17.1538 ], [ -25.1454, 17.1466 ], [ -25.1513, 17.1425 ], [ -25.1533, 17.1341 ], [ -25.1383, 17.1282 ], [ -25.1444, 17.1107 ], [ -25.1427, 17.1017 ], [ -25.1511, 17.0875 ], [ -25.1489, 17.0832 ], [ -25.1445, 17.0814 ], [ -25.1394, 17.0863 ], [ -25.1119, 17.097 ], [ -25.0968, 17.0983 ], [ -25.0879, 17.1061 ], [ -25.09, 17.1095 ], [ -25.0867, 17.1156 ], [ -25.0807, 17.1141 ] ] ] } },
{ "type": "Feature", "properties": { "iso3": "CPV", "unit_id": "55419318B15937380038116", "unit_name": "Sao Pedro Apostolo" }, "geometry": { "type": "Polygon", "coordinates": [ [ [ -25.1732, 17.0799 ], [ -25.1698, 17.0833 ], [ -25.1561, 17.0835 ], [ -25.1455, 17.094 ], [ -25.1427, 17.1017 ], [ -25.1444, 17.1107 ], [ -25.1383, 17.1282 ], [ -25.1533, 17.1341 ], [ -25.1513, 17.1425 ], [ -25.1348, 17.1592 ], [ -25.14, 17.1753 ], [ -25.1381, 17.18 ], [ -25.1482, 17.176 ], [ -25.1608, 17.1761 ], [ -25.1723, 17.1623 ], [ -25.1855, 17.1574 ], [ -25.1973, 17.1571 ], [ -25.2004, 17.1618 ], [ -25.2034, 17.1519 ], [ -25.2142, 17.1537 ], [ -25.2151, 17.144 ], [ -25.2208, 17.1411 ], [ -25.2273, 17.1432 ], [ -25.2261, 17.1349 ], [ -25.233, 17.1284 ], [ -25.221, 17.1201 ], [ -25.2129, 17.1066 ], [ -25.2094, 17.1077 ], [ -25.1933, 17.0963 ], [ -25.179, 17.0949 ], [ -25.1785, 17.0846 ], [ -25.1732, 17.0799 ] ] ] } },
{ "type": "Feature", "properties": { "iso3": "CPV", "unit_id": "55419318B97734075204482", "unit_name": "Santissimo Nome De Jesus" }, "geometry": { "type": "Polygon", "coordinates": [ [ [ -23.5882, 14.9767 ], [ -23.62, 14.9936 ], [ -23.6181, 14.9752 ], [ -23.6252, 14.9622 ], [ -23.6256, 14.9535 ], [ -23.6294, 14.9496 ], [ -23.6283, 14.9439 ], [ -23.6333, 14.9347 ], [ -23.6298, 14.9194 ], [ -23.627, 14.9193 ], [ -23.6283, 14.9141 ], [ -23.6238, 14.91 ], [ -23.6201, 14.9139 ], [ -23.6124, 14.913 ], [ -23.6089, 14.9161 ], [ -23.6042, 14.9121 ], [ -23.5918, 14.911 ], [ -23.5899, 14.9071 ], [ -23.5804, 14.9094 ], [ -23.5803, 14.9118 ], [ -23.573, 14.9093 ], [ -23.5727, 14.9065 ], [ -23.5697, 14.9104 ], [ -23.5579, 14.9088 ], [ -23.5566, 14.9166 ], [ -23.5601, 14.9268 ], [ -23.5654, 14.9248 ], [ -23.5692, 14.9332 ], [ -23.5683, 14.9491 ], [ -23.5812, 14.9576 ], [ -23.5882, 14.9767 ] ] ] } },
{ "type": "Feature", "properties": { "iso3": "CPV", "unit_id": "55419318B82734081266586", "unit_name": "Sao Joao Baptista" }, "geometry": { "type": "Polygon", "coordinates": [ [ [ -23.62, 14.9936 ], [ -23.6245, 15.0001 ], [ -23.6221, 15.0112 ], [ -23.6167, 15.0163 ], [ -23.6177, 15.03 ], [ -23.6205, 15.0283 ], [ -23.6261, 15.0325 ], [ -23.623, 15.0377 ], [ -23.632, 15.0436 ], [ -23.6364, 15.052 ], [ -23.6433, 15.0549 ], [ -23.6448, 15.0614 ], [ -23.6585, 15.0573 ], [ -23.6633, 15.036 ], [ -23.6754, 15.0379 ], [ -23.6868, 15.0265 ], [ -23.6858, 15.0196 ], [ -23.6933, 15.0083 ], [ -23.6934, 15.0027 ], [ -23.6897, 15.0021 ], [ -23.6888, 14.9988 ], [ -23.7078, 14.977 ], [ -23.7117, 14.9763 ], [ -23.706, 14.9722 ], [ -23.7035, 14.9646 ], [ -23.6942, 14.9591 ], [ -23.6935, 14.9543 ], [ -23.6862, 14.9516 ], [ -23.6746, 14.9397 ], [ -23.6661, 14.9359 ], [ -23.6605, 14.9373 ], [ -23.6522, 14.9286 ], [ -23.6317, 14.92 ], [ -23.6296, 14.9206 ], [ -23.6333, 14.9347 ], [ -23.6283, 14.9439 ], [ -23.6294, 14.9496 ], [ -23.6256, 14.9535 ], [ -23.6252, 14.9622 ], [ -23.6181, 14.9752 ], [ -23.62, 14.9936 ] ] ] } },
{ "type": "Feature", "properties": { "iso3": "CPV", "unit_id": "55419318B70465492068335", "unit_name": "Nossa Senhora Das Dores" }, "geometry": { "type": "MultiPolygon", "coordinates": [ [ [ [ -22.9194, 16.8559 ], [ -22.9251, 16.8482 ], [ -22.9416, 16.8405 ], [ -22.9512, 16.8451 ], [ -22.9622, 16.835 ], [ -22.9841, 16.827 ], [ -22.988, 16.8163 ], [ -22.9934, 16.8111 ], [ -22.992, 16.7989 ], [ -22.9944, 16.7941 ], [ -22.9912, 16.7793 ], [ -22.986, 16.7714 ], [ -22.9908, 16.7676 ], [ -22.9894, 16.7597 ], [ -22.9858, 16.7551 ], [ -22.982, 16.7531 ], [ -22.9807, 16.7568 ], [ -22.9778, 16.753 ], [ -22.9778, 16.7479 ], [ -22.9819, 16.7437 ], [ -22.979, 16.7393 ], [ -22.9876, 16.7315 ], [ -22.9835, 16.7203 ], [ -22.9762, 16.7122 ], [ -22.9824, 16.7107 ], [ -22.9896, 16.6997 ], [ -22.9866, 16.695 ], [ -22.9801, 16.6942 ], [ -22.9697, 16.7003 ], [ -22.955, 16.6978 ], [ -22.9397, 16.6888 ], [ -22.9354, 16.6718 ], [ -22.9382, 16.6624 ], [ -22.949, 16.6529 ], [ -22.9455, 16.651 ], [ -22.9474, 16.6484 ], [ -22.9444, 16.6395 ], [ -22.9355, 16.6328 ], [ -22.9312, 16.6249 ], [ -22.9286, 16.5902 ], [ -22.9227, 16.5852 ], [ -22.9082, 16.597 ], [ -22.8866, 16.5921 ], [ -22.8882, 16.6013 ], [ -22.8986, 16.6174 ], [ -22.9003, 16.6329 ], [ -22.8947, 16.6424 ], [ -22.8872, 16.6429 ], [ -22.8872, 16.6546 ], [ -22.8796, 16.6655 ], [ -22.8722, 16.6693 ], [ -22.8806, 16.684 ], [ -22.8801, 16.6968 ], [ -22.8919, 16.7118 ], [ -22.8929, 16.7225 ], [ -22.8993, 16.7335 ], [ -22.8937, 16.7385 ], [ -22.8962, 16.7502 ], [ -22.8991, 16.7517 ], [ -22.8953, 16.7602 ], [ -22.8837, 16.7611 ], [ -22.8799, 16.7716 ], [ -22.8873, 16.7778 ], [ -22.895, 16.799 ], [ -22.9013, 16.8011 ], [ -22.9028, 16.8055 ], [ -22.8975, 16.8124 ], [ -22.8963, 16.8209 ], [ -22.892, 16.8223 ], [ -22.8895, 16.834 ], [ -22.9033, 16.8382 ], [ -22.9046, 16.8426 ], [ -22.9093, 16.8407 ], [ -22.9124, 16.8505 ], [ -22.9194, 16.8559 ] ] ], [ [ [ -22.9929, 16.7011 ], [ -22.9937, 16.699 ], [ -22.992, 16.7002 ], [ -22.9929, 16.7011 ] ] ] ] } },
{ "type": "Feature", "properties": { "iso3": "CPV", "unit_id": "55419318B60566809005905", "unit_name": "Santa Catarina" }, "geometry": { "type": "Polygon", "coordinates": [ [ [ -23.6494, 15.0601 ], [ -23.6532, 15.0651 ], [ -23.6541, 15.0779 ], [ -23.649, 15.0834 ], [ -23.6558, 15.097 ], [ -23.6573, 15.1088 ], [ -23.653, 15.1127 ], [ -23.6273, 15.1134 ], [ -23.6229, 15.123 ], [ -23.6155, 15.1241 ], [ -23.617, 15.133 ], [ -23.6204, 15.1341 ], [ -23.616, 15.1466 ], [ -23.6187, 15.1527 ], [ -23.6226, 15.1531 ], [ -23.6356, 15.1425 ], [ -23.6475, 15.1428 ], [ -23.654, 15.135 ], [ -23.6543, 15.1409 ], [ -23.6461, 15.1499 ], [ -23.6491, 15.1619 ], [ -23.6555, 15.1624 ], [ -23.6709, 15.1769 ], [ -23.6745, 15.1778 ], [ -23.678, 15.1726 ], [ -23.6827, 15.1728 ], [ -23.6894, 15.18 ], [ -23.6936, 15.1958 ], [ -23.7007, 15.1946 ], [ -23.7106, 15.2038 ], [ -23.7171, 15.2048 ], [ -23.7185, 15.1949 ], [ -23.7232, 15.1926 ], [ -23.732, 15.2014 ], [ -23.7366, 15.1958 ], [ -23.7399, 15.1991 ], [ -23.7502, 15.1969 ], [ -23.7556, 15.2031 ], [ -23.7635, 15.1916 ], [ -23.7628, 15.1798 ], [ -23.7705, 15.1777 ], [ -23.7636, 15.1658 ], [ -23.7675, 15.1629 ], [ -23.7667, 15.1523 ], [ -23.7604, 15.1505 ], [ -23.764, 15.1424 ], [ -23.76, 15.1367 ], [ -23.7648, 15.1286 ], [ -23.7709, 15.1259 ], [ -23.766, 15.1232 ], [ -23.7712, 15.109 ], [ -23.7699, 15.0965 ], [ -23.7782, 15.0909 ], [ -23.7735, 15.0746 ], [ -23.7817, 15.0719 ], [ -23.7793, 15.0629 ], [ -23.773, 15.0647 ], [ -23.7659, 15.0606 ], [ -23.7633, 15.0519 ], [ -23.7536, 15.0432 ], [ -23.7496, 15.0313 ], [ -23.7403, 15.0355 ], [ -23.7349, 15.0274 ], [ -23.7284, 15.0261 ], [ -23.7153, 15.0126 ], [ -23.7151, 15.0083 ], [ -23.7182, 15.0068 ], [ -23.7162, 14.9986 ], [ -23.7207, 14.9972 ], [ -23.7205, 14.9926 ], [ -23.7282, 14.9899 ], [ -23.7267, 14.9862 ], [ -23.7078, 14.977 ], [ -23.6888, 14.9988 ], [ -23.6897, 15.0021 ], [ -23.6934, 15.0027 ], [ -23.6933, 15.0083 ], [ -23.6858, 15.0196 ], [ -23.6868, 15.0265 ], [ -23.6754, 15.0379 ], [ -23.6633, 15.036 ], [ -23.6585, 15.0573 ], [ -23.6494, 15.0601 ] ] ] } },
{ "type": "Feature", "properties": { "iso3": "CPV", "unit_id": "55419318B67528596943137", "unit_name": "Santa Catarina Do Fogo" }, "geometry": { "type": "Polygon", "coordinates": [ [ [ -24.3732, 14.9885 ], [ -24.3883, 14.9695 ], [ -24.3957, 14.9447 ], [ -24.3869, 14.9259 ], [ -24.3762, 14.919 ], [ -24.3626, 14.9176 ], [ -24.3679, 14.8983 ], [ -24.3765, 14.8917 ], [ -24.3769, 14.8707 ], [ -24.3812, 14.8565 ], [ -24.3797, 14.846 ], [ -24.3859, 14.8355 ], [ -24.385, 14.8279 ], [ -24.3907, 14.8143 ], [ -24.3685, 14.8123 ], [ -24.3492, 14.8167 ], [ -24.3255, 14.8271 ], [ -24.3207, 14.8347 ], [ -24.3113, 14.8369 ], [ -24.3019, 14.8445 ], [ -24.2918, 14.8587 ], [ -24.2845, 14.8637 ], [ -24.2777, 14.8866 ], [ -24.2822, 14.9077 ], [ -24.2821, 14.9257 ], [ -24.2893, 14.9525 ], [ -24.3422, 14.9509 ], [ -24.3636, 14.978 ], [ -24.3682, 14.9891 ], [ -24.3732, 14.9885 ] ] ] } },
{ "type": "Feature", "properties": { "iso3": "CPV", "unit_id": "55419318B14227933859474", "unit_name": "Santiago Maior" }, "geometry": { "type": "Polygon", "coordinates": [ [ [ -23.617, 15.133 ], [ -23.6136, 15.1132 ], [ -23.5998, 15.1123 ], [ -23.5992, 15.1086 ], [ -23.5929, 15.1045 ], [ -23.592, 15.1092 ], [ -23.5827, 15.1074 ], [ -23.5999, 15.0964 ], [ -23.5959, 15.0931 ], [ -23.5889, 15.0953 ], [ -23.5845, 15.0859 ], [ -23.563, 15.0926 ], [ -23.5662, 15.082 ], [ -23.5575, 15.084 ], [ -23.5477, 15.0766 ], [ -23.5502, 15.0577 ], [ -23.5375, 15.0549 ], [ -23.5344, 15.0463 ], [ -23.5195, 15.0429 ], [ -23.5007, 15.056 ], [ -23.4896, 15.084 ], [ -23.4968, 15.1052 ], [ -23.5007, 15.1039 ], [ -23.4976, 15.1061 ], [ -23.5019, 15.1144 ], [ -23.5021, 15.1248 ], [ -23.5276, 15.1331 ], [ -23.5261, 15.1417 ], [ -23.5319, 15.1508 ], [ -23.541, 15.1459 ], [ -23.5386, 15.1521 ], [ -23.5424, 15.1526 ], [ -23.5426, 15.1557 ], [ -23.5554, 15.1511 ], [ -23.558, 15.1526 ], [ -23.5569, 15.1558 ], [ -23.5638, 15.1553 ], [ -23.5736, 15.1604 ], [ -23.5711, 15.1697 ], [ -23.5768, 15.1701 ], [ -23.5759, 15.1777 ], [ -23.5797, 15.1757 ], [ -23.5826, 15.1792 ], [ -23.5927, 15.173 ], [ -23.6016, 15.1607 ], [ -23.6187, 15.1527 ], [ -23.616, 15.1466 ], [ -23.6204, 15.1341 ], [ -23.617, 15.133 ] ] ] } },
{ "type": "Feature", "properties": { "iso3": "CPV", "unit_id": "55419318B75655306592771", "unit_name": "Nossa Senhora Da Luz" }, "geometry": { "type": "Polygon", "coordinates": [ [ [ -23.4585, 14.9732 ], [ -23.4491, 14.9788 ], [ -23.4438, 14.9863 ], [ -23.4392, 14.9869 ], [ -23.4344, 14.9802 ], [ -23.431, 14.9847 ], [ -23.4332, 14.9917 ], [ -23.4287, 14.9988 ], [ -23.433, 14.9976 ], [ -23.4362, 15.0018 ], [ -23.4303, 15.0006 ], [ -23.4284, 15.0035 ], [ -23.4368, 15.0065 ], [ -23.4335, 15.0124 ], [ -23.4308, 15.0108 ], [ -23.4304, 15.0162 ], [ -23.4349, 15.023 ], [ -23.4412, 15.02 ], [ -23.4391, 15.0235 ], [ -23.4429, 15.0421 ], [ -23.4463, 15.0393 ], [ -23.4568, 15.0406 ], [ -23.4546, 15.044 ], [ -23.4469, 15.0429 ], [ -23.4468, 15.0471 ], [ -23.4625, 15.0534 ], [ -23.4633, 15.0599 ], [ -23.4736, 15.0624 ], [ -23.4719, 15.0654 ], [ -23.4761, 15.073 ], [ -23.4819, 15.0754 ], [ -23.4805, 15.0809 ], [ -23.485, 15.0832 ], [ -23.4854, 15.0882 ], [ -23.4901, 15.0889 ], [ -23.4896, 15.084 ], [ -23.5007, 15.056 ], [ -23.5096, 15.048 ], [ -23.5249, 15.0426 ], [ -23.5282, 15.0382 ], [ -23.5271, 15.0331 ], [ -23.5356, 15.0319 ], [ -23.5276, 15.0216 ], [ -23.5295, 15.0194 ], [ -23.519, 15.0138 ], [ -23.5091, 15.0136 ], [ -23.5118, 15.0112 ], [ -23.5106, 15.0059 ], [ -23.5046, 15.0016 ], [ -23.5003, 14.9895 ], [ -23.4933, 14.9846 ], [ -23.4725, 14.9812 ], [ -23.4585, 14.9732 ] ] ] } },
{ "type": "Feature", "properties": { "iso3": "CPV", "unit_id": "55419318B24374274424399", "unit_name": "Sao Nicolau Tolentino" }, "geometry": { "type": "Polygon", "coordinates": [ [ [ -23.5003, 14.9895 ], [ -23.5046, 15.0016 ], [ -23.5106, 15.0059 ], [ -23.5118, 15.0112 ], [ -23.5091, 15.0136 ], [ -23.519, 15.0138 ], [ -23.5295, 15.0194 ], [ -23.5276, 15.0216 ], [ -23.533, 15.0261 ], [ -23.5356, 15.0319 ], [ -23.5271, 15.0331 ], [ -23.5282, 15.0382 ], [ -23.5249, 15.0426 ], [ -23.5344, 15.0463 ], [ -23.5375, 15.0549 ], [ -23.5502, 15.0577 ], [ -23.5484, 15.0615 ], [ -23.5507, 15.0646 ], [ -23.5619, 15.0626 ], [ -23.567, 15.0532 ], [ -23.5858, 15.0404 ], [ -23.6012, 15.0379 ], [ -23.604, 15.0342 ], [ -23.623, 15.0377 ], [ -23.6255, 15.0357 ], [ -23.6261, 15.0325 ], [ -23.6205, 15.0283 ], [ -23.6177, 15.03 ], [ -23.6158, 15.0208 ], [ -23.6221, 15.0112 ], [ -23.6245, 15.0001 ], [ -23.6181, 14.9917 ], [ -23.6114, 14.9904 ], [ -23.6106, 14.9871 ], [ -23.5937, 14.9775 ], [ -23.576, 14.979 ], [ -23.5503, 14.9887 ], [ -23.5399, 14.9859 ], [ -23.5387, 14.9828 ], [ -23.5331, 14.9904 ], [ -23.5286, 14.9892 ], [ -23.521, 14.9963 ], [ -23.5003, 14.9895 ] ] ] } },
{ "type": "Feature", "properties": { "iso3": "CPV", "unit_id": "55419318B16546280176750", "unit_name": "Nossa Senhora Da Conceicao" }, "geometry": { "type": "Polygon", "coordinates": [ [ [ -24.3935, 14.9477 ], [ -24.407, 14.9456 ], [ -24.4355, 14.9338 ], [ -24.4765, 14.9267 ], [ -24.489, 14.9288 ], [ -24.502, 14.9257 ], [ -24.5046, 14.9195 ], [ -24.501, 14.9179 ], [ -24.5019, 14.8922 ], [ -24.4984, 14.8826 ], [ -24.4803, 14.8743 ], [ -24.4615, 14.8527 ], [ -24.4489, 14.8486 ], [ -24.422, 14.8224 ], [ -24.4141, 14.8173 ], [ -24.408, 14.8181 ], [ -24.3992, 14.8138 ], [ -24.3907, 14.8143 ], [ -24.385, 14.8279 ], [ -24.3859, 14.8355 ], [ -24.3797, 14.846 ], [ -24.3812, 14.8565 ], [ -24.3769, 14.8707 ], [ -24.3765, 14.8917 ], [ -24.3679, 14.8983 ], [ -24.3626, 14.9176 ], [ -24.3762, 14.919 ], [ -24.3869, 14.9259 ], [ -24.3955, 14.9413 ], [ -24.3935, 14.9477 ] ] ] } },
{ "type": "Feature", "properties": { "iso3": "CPV", "unit_id": "55419318B166180001402", "unit_name": "Sao Lourenco" }, "geometry": { "type": "Polygon", "coordinates": [ [ [ -24.4, 15.0308 ], [ -24.4144, 15.0247 ], [ -24.4241, 15.0265 ], [ -24.4346, 15.0223 ], [ -24.4387, 15.0154 ], [ -24.4518, 15.0107 ], [ -24.4557, 15.0041 ], [ -24.4723, 14.9935 ], [ -24.4782, 14.9833 ], [ -24.4866, 14.979 ], [ -24.4915, 14.9591 ], [ -24.5002, 14.9425 ], [ -24.502, 14.9257 ], [ -24.489, 14.9288 ], [ -24.4765, 14.9267 ], [ -24.4355, 14.9338 ], [ -24.407, 14.9456 ], [ -24.3935, 14.9477 ], [ -24.3938, 14.9572 ], [ -24.3883, 14.9695 ], [ -24.3732, 14.9885 ], [ -24.3782, 15.0015 ], [ -24.3908, 15.0145 ], [ -24.4, 15.0308 ] ] ] } },
{ "type": "Feature", "properties": { "iso3": "CPV", "unit_id": "55419318B98442861515361", "unit_name": "Sao Lourenco Dos Orgaos" }, "geometry": { "type": "Polygon", "coordinates": [ [ [ -23.623, 15.0377 ], [ -23.604, 15.0342 ], [ -23.6012, 15.0379 ], [ -23.5858, 15.0404 ], [ -23.567, 15.0532 ], [ -23.5619, 15.0626 ], [ -23.5489, 15.0657 ], [ -23.5477, 15.0766 ], [ -23.5575, 15.084 ], [ -23.5662, 15.082 ], [ -23.563, 15.0926 ], [ -23.5845, 15.0859 ], [ -23.5889, 15.0953 ], [ -23.5959, 15.0931 ], [ -23.5999, 15.0964 ], [ -23.5978, 15.0988 ], [ -23.602, 15.1 ], [ -23.6118, 15.0898 ], [ -23.6108, 15.0857 ], [ -23.6143, 15.0833 ], [ -23.6119, 15.0754 ], [ -23.6349, 15.0573 ], [ -23.6364, 15.052 ], [ -23.632, 15.0436 ], [ -23.623, 15.0377 ] ] ] } },
{ "type": "Feature", "properties": { "iso3": "CPV", "unit_id": "55419318B28712422359499", "unit_name": "Sao Miguel Arcanjo" }, "geometry": { "type": "Polygon", "coordinates": [ [ [ -23.6226, 15.1531 ], [ -23.6016, 15.1607 ], [ -23.5927, 15.173 ], [ -23.5826, 15.1792 ], [ -23.5873, 15.1815 ], [ -23.5861, 15.1856 ], [ -23.5895, 15.1896 ], [ -23.5924, 15.1871 ], [ -23.5919, 15.1904 ], [ -23.5946, 15.1901 ], [ -23.5936, 15.1966 ], [ -23.5986, 15.2034 ], [ -23.6009, 15.2018 ], [ -23.6038, 15.2089 ], [ -23.6017, 15.2108 ], [ -23.6106, 15.2166 ], [ -23.6148, 15.2279 ], [ -23.6247, 15.2289 ], [ -23.6242, 15.2317 ], [ -23.6334, 15.2296 ], [ -23.6317, 15.2321 ], [ -23.6395, 15.2451 ], [ -23.6555, 15.2484 ], [ -23.6556, 15.2442 ], [ -23.6581, 15.2451 ], [ -23.6595, 15.2402 ], [ -23.6661, 15.2361 ], [ -23.6626, 15.2333 ], [ -23.665, 15.229 ], [ -23.6823, 15.2145 ], [ -23.6799, 15.2077 ], [ -23.6917, 15.1935 ], [ -23.6894, 15.18 ], [ -23.6827, 15.1728 ], [ -23.678, 15.1726 ], [ -23.6745, 15.1778 ], [ -23.6709, 15.1769 ], [ -23.6555, 15.1624 ], [ -23.6491, 15.1619 ], [ -23.6461, 15.1499 ], [ -23.6543, 15.1409 ], [ -23.654, 15.135 ], [ -23.6475, 15.1428 ], [ -23.6356, 15.1425 ], [ -23.6226, 15.1531 ] ] ] } },
{ "type": "Feature", "properties": { "iso3": "CPV", "unit_id": "55419318B85675021517295", "unit_name": "Sao Salvador Do Mundo" }, "geometry": { "type": "Polygon", "coordinates": [ [ [ -23.6364, 15.052 ], [ -23.6284, 15.0645 ], [ -23.6202, 15.0675 ], [ -23.6119, 15.0754 ], [ -23.6143, 15.0833 ], [ -23.6086, 15.094 ], [ -23.602, 15.1 ], [ -23.5978, 15.0988 ], [ -23.5827, 15.1074 ], [ -23.592, 15.1092 ], [ -23.5929, 15.1045 ], [ -23.5992, 15.1086 ], [ -23.5998, 15.1123 ], [ -23.6136, 15.1132 ], [ -23.6155, 15.1241 ], [ -23.6229, 15.123 ], [ -23.6273, 15.1134 ], [ -23.653, 15.1127 ], [ -23.6573, 15.1088 ], [ -23.6558, 15.097 ], [ -23.649, 15.0834 ], [ -23.6541, 15.0779 ], [ -23.6532, 15.0651 ], [ -23.6494, 15.0601 ], [ -23.6448, 15.0614 ], [ -23.6433, 15.0549 ], [ -23.6364, 15.052 ] ] ] } },
{ "type": "Feature", "properties": { "iso3": "CPV", "unit_id": "55419318B31569571929401", "unit_name": "Nossa Senhora Da Luz" }, "geometry": { "type": "MultiPolygon", "coordinates": [ [ [ [ -24.5936, 16.6264 ], [ -24.6066, 16.621 ], [ -24.613, 16.6216 ], [ -24.6156, 16.6157 ], [ -24.6115, 16.6062 ], [ -24.5911, 16.6042 ], [ -24.5833, 16.6177 ], [ -24.5936, 16.6264 ] ] ], [ [ [ -24.6837, 16.6744 ], [ -24.6883, 16.6696 ], [ -24.6793, 16.6594 ], [ -24.6711, 16.6518 ], [ -24.6602, 16.6488 ], [ -24.6697, 16.6634 ], [ -24.6837, 16.6744 ] ] ], [ [ [ -24.7763, 16.8063 ], [ -24.7912, 16.7842 ], [ -24.7861, 16.7696 ], [ -24.7675, 16.7632 ], [ -24.7516, 16.7531 ], [ -24.7454, 16.7451 ], [ -24.7433, 16.7354 ], [ -24.7242, 16.7351 ], [ -24.7125, 16.7385 ], [ -24.7016, 16.7369 ], [ -24.6958, 16.7406 ], [ -24.6903, 16.7397 ], [ -24.6834, 16.7494 ], [ -24.6858, 16.7564 ], [ -24.7046, 16.755 ], [ -24.7115, 16.7508 ], [ -24.7223, 16.7537 ], [ -24.7301, 16.7625 ], [ -24.7352, 16.776 ], [ -24.7442, 16.7792 ], [ -24.7489, 16.795 ], [ -24.7763, 16.8063 ] ] ], [ [ [ -24.9202, 16.9227 ], [ -24.9322, 16.9214 ], [ -24.9329, 16.9163 ], [ -24.9384, 16.9134 ], [ -24.9371, 16.9088 ], [ -24.9457, 16.9053 ], [ -24.9653, 16.914 ], [ -24.9619, 16.9224 ], [ -24.9736, 16.9173 ], [ -24.9773, 16.9102 ], [ -24.9906, 16.9115 ], [ -24.9912, 16.9056 ], [ -24.999, 16.9065 ], [ -24.9968, 16.9023 ], [ -24.9989, 16.9003 ], [ -24.9923, 16.8959 ], [ -24.9931, 16.8924 ], [ -24.9977, 16.8917 ], [ -25.0009, 16.8881 ], [ -24.9949, 16.89 ], [ -24.9933, 16.8868 ], [ -24.99, 16.8884 ], [ -24.9899, 16.885 ], [ -25.0008, 16.8759 ], [ -25.0186, 16.8762 ], [ -25.0277, 16.8871 ], [ -25.033, 16.8876 ], [ -25.0375, 16.8819 ], [ -25.0441, 16.8844 ], [ -25.0445, 16.88 ], [ -25.0522, 16.8838 ], [ -25.0499, 16.878 ], [ -25.0572, 16.8725 ], [ -25.056, 16.8661 ], [ -25.0622, 16.8625 ], [ -25.0663, 16.8657 ], [ -25.0677, 16.8606 ], [ -25.0711, 16.8624 ], [ -25.072, 16.8526 ], [ -25.0842, 16.8455 ], [ -25.0774, 16.8391 ], [ -25.0858, 16.8264 ], [ -25.0737, 16.8293 ], [ -25.0666, 16.8268 ], [ -25.0614, 16.8224 ], [ -25.0603, 16.8115 ], [ -25.0525, 16.8036 ], [ -25.045, 16.8063 ], [ -25.0389, 16.8016 ], [ -25.0342, 16.8031 ], [ -25.0235, 16.7992 ], [ -25.0152, 16.7931 ], [ -25.009, 16.7932 ], [ -24.9844, 16.7765 ], [ -24.9751, 16.7776 ], [ -24.974, 16.7825 ], [ -24.9689, 16.7853 ], [ -24.916, 16.7968 ], [ -24.8973, 16.81 ], [ -24.8754, 16.809 ], [ -24.8644, 16.8141 ], [ -24.8593, 16.836 ], [ -24.8662, 16.8396 ], [ -24.8684, 16.8484 ], [ -24.8636, 16.8545 ], [ -24.8605, 16.8544 ], [ -24.8601, 16.8617 ], [ -24.8677, 16.8652 ], [ -24.8761, 16.8604 ], [ -24.8837, 16.8615 ], [ -24.8974, 16.8676 ], [ -24.909, 16.8772 ], [ -24.9141, 16.8856 ], [ -24.9141, 16.8914 ], [ -24.9095, 16.8953 ], [ -24.9135, 16.8997 ], [ -24.9112, 16.9016 ], [ -24.9072, 16.8993 ], [ -24.9037, 16.9081 ], [ -24.9085, 16.9161 ], [ -24.9202, 16.9227 ] ] ] ] } },
{ "type": "Feature", "properties": { "iso3": "CPV", "unit_id": "55419318B61496166560566", "unit_name": "Santo Amaro Abade" }, "geometry": { "type": "Polygon", "coordinates": [ [ [ -23.6917, 15.1935 ], [ -23.6799, 15.2077 ], [ -23.6823, 15.2145 ], [ -23.665, 15.229 ], [ -23.6626, 15.2333 ], [ -23.6661, 15.2361 ], [ -23.6595, 15.2402 ], [ -23.6581, 15.2451 ], [ -23.6556, 15.2442 ], [ -23.6646, 15.2543 ], [ -23.6669, 15.25 ], [ -23.6744, 15.2572 ], [ -23.6805, 15.2577 ], [ -23.6872, 15.2664 ], [ -23.6918, 15.2875 ], [ -23.687, 15.2994 ], [ -23.6917, 15.3021 ], [ -23.6851, 15.3033 ], [ -23.6817, 15.3117 ], [ -23.6868, 15.3211 ], [ -23.6962, 15.3279 ], [ -23.6947, 15.3302 ], [ -23.7052, 15.3283 ], [ -23.7045, 15.3325 ], [ -23.7132, 15.3351 ], [ -23.7218, 15.328 ], [ -23.7244, 15.332 ], [ -23.7325, 15.3331 ], [ -23.7335, 15.3363 ], [ -23.7364, 15.3341 ], [ -23.7393, 15.3389 ], [ -23.7447, 15.3397 ], [ -23.745, 15.3335 ], [ -23.7573, 15.333 ], [ -23.7581, 15.3271 ], [ -23.755, 15.325 ], [ -23.7593, 15.3222 ], [ -23.7582, 15.3192 ], [ -23.7667, 15.3198 ], [ -23.7657, 15.3155 ], [ -23.7588, 15.3146 ], [ -23.7604, 15.3057 ], [ -23.7692, 15.3059 ], [ -23.7743, 15.2994 ], [ -23.7717, 15.2986 ], [ -23.7717, 15.2929 ], [ -23.763, 15.2921 ], [ -23.7526, 15.2828 ], [ -23.7596, 15.2789 ], [ -23.7565, 15.2588 ], [ -23.7489, 15.258 ], [ -23.7408, 15.248 ], [ -23.7417, 15.2354 ], [ -23.7542, 15.224 ], [ -23.7556, 15.2031 ], [ -23.7502, 15.1969 ], [ -23.7399, 15.1991 ], [ -23.7366, 15.1958 ], [ -23.732, 15.2014 ], [ -23.7232, 15.1926 ], [ -23.7185, 15.1949 ], [ -23.7158, 15.2049 ], [ -23.7007, 15.1946 ], [ -23.6917, 15.1935 ] ] ] } },
{ "type": "Feature", "properties": { "iso3": "CPV", "unit_id": "55419318B35008212063896", "unit_name": "Sao Francisco De Assis" }, "geometry": { "type": "Polygon", "coordinates": [ [ [ -24.3563, 16.6717 ], [ -24.3673, 16.6668 ], [ -24.3801, 16.6712 ], [ -24.3812, 16.6681 ], [ -24.3888, 16.6684 ], [ -24.398, 16.6587 ], [ -24.4201, 16.6556 ], [ -24.4167, 16.6523 ], [ -24.4221, 16.6514 ], [ -24.4271, 16.6405 ], [ -24.4246, 16.6312 ], [ -24.4276, 16.6262 ], [ -24.426, 16.6142 ], [ -24.4189, 16.6103 ], [ -24.4178, 16.6035 ], [ -24.3967, 16.5889 ], [ -24.3848, 16.582 ], [ -24.3634, 16.5763 ], [ -24.3585, 16.5683 ], [ -24.3607, 16.5675 ], [ -24.3582, 16.5635 ], [ -24.3595, 16.5551 ], [ -24.3568, 16.5517 ], [ -24.3513, 16.5514 ], [ -24.3457, 16.5315 ], [ -24.3347, 16.5237 ], [ -24.3315, 16.5172 ], [ -24.3247, 16.4984 ], [ -24.3271, 16.482 ], [ -24.3224, 16.4859 ], [ -24.3153, 16.4793 ], [ -24.3188, 16.4879 ], [ -24.3126, 16.5014 ], [ -24.312, 16.5243 ], [ -24.3017, 16.544 ], [ -24.3006, 16.5593 ], [ -24.3055, 16.5758 ], [ -24.3036, 16.5787 ], [ -24.3124, 16.5935 ], [ -24.3135, 16.6068 ], [ -24.3325, 16.6171 ], [ -24.355, 16.6216 ], [ -24.3585, 16.6351 ], [ -24.3502, 16.6446 ], [ -24.3512, 16.6588 ], [ -24.3554, 16.6633 ], [ -24.3563, 16.6717 ] ] ] } }
]
}
