{
"type": "FeatureCollection",
"name": "DJI",
"crs": { "type": "name", "properties": { "name": "urn:ogc:def:crs:OGC:1.3:CRS84" } },
"xy_coordinate_resolution": 0.0001,
"features": [
{ "type": "Feature", "properties": { "iso3": "DJI", "unit_id": "6485868B34521288372538", "unit_name": "Alaili Dadda" }, "geometry": { "type": "Polygon", "coordinates": [ [ [ 42.8108, 12.1993 ], [ 42.8577, 12.2329 ], [ 42.896, 12.2708 ], [ 42.936, 12.2945 ], [ 43.2555, 12.517 ], [ 43.207, 12.5761 ], [ 43.1896, 12.6065 ], [ 43.1649, 12.6319 ], [ 43.1428, 12.6756 ], [ 43.1346, 12.7068 ], [ 43.1141, 12.7055 ], [ 43.0, 12.6576 ], [ 42.9968, 12.6523 ], [ 42.9861, 12.6537 ], [ 42.9185, 12.6167 ], [ 42.9084, 12.6169 ], [ 42.8943, 12.6242 ], [ 42.8877, 12.6244 ], [ 42.8701, 12.6084 ], [ 42.8733, 12.5997 ], [ 42.8718, 12.5911 ], [ 42.8607, 12.5877 ], [ 42.8621, 12.5819 ], [ 42.8572, 12.5739 ], [ 42.8584, 12.5504 ], [ 42.8464, 12.5499 ], [ 42.8373, 12.5381 ], [ 42.8226, 12.5375 ], [ 42.8054, 12.511 ], [ 42.7959, 12.503 ], [ 42.7968, 12.4778 ], [ 42.8127, 12.4683 ], [ 42.8185, 12.4557 ], [ 42.8224, 12.454 ], [ 42.8182, 12.4325 ], [ 42.8112, 12.4258 ], [ 42.7916, 12.4166 ], [ 42.7698, 12.4145 ], [ 42.7565, 12.4081 ], [ 42.7478, 12.3925 ], [ 42.7389, 12.3851 ], [ 42.72, 12.3841 ], [ 42.7095, 12.3772 ], [ 42.7095, 12.3458 ], [ 42.8108, 12.1993 ] ] ] } },
{ "type": "Feature", "properties": { "iso3": "DJI", "unit_id": "6485868B80004077722770", "unit_name": "Obock" }, "geometry": { "type": "Polygon", "coordinates": [ [ [ 42.8108, 12.1993 ], [ 42.8269, 12.1623 ], [ 42.8692, 12.1131 ], [ 42.8964, 12.0678 ], [ 42.9468, 12.006 ], [ 43.0434, 11.8557 ], [ 43.0692, 11.8298 ], [ 43.1022, 11.8592 ], [ 43.1469, 11.9147 ], [ 43.1596, 11.9223 ], [ 43.1817, 11.9467 ], [ 43.1898, 11.9513 ], [ 43.2102, 11.9559 ], [ 43.2236, 11.9541 ], [ 43.2535, 11.9621 ], [ 43.2854, 11.9584 ], [ 43.2912, 11.9602 ], [ 43.3094, 11.9774 ], [ 43.3471, 11.9745 ], [ 43.3666, 11.9791 ], [ 43.3847, 12.0073 ], [ 43.4036, 12.0491 ], [ 43.4155, 12.0914 ], [ 43.4161, 12.1496 ], [ 43.4066, 12.1763 ], [ 43.4091, 12.2005 ], [ 43.4052, 12.2269 ], [ 43.3988, 12.24 ], [ 43.3723, 12.2749 ], [ 43.3676, 12.3274 ], [ 43.3558, 12.383 ], [ 43.3378, 12.4031 ], [ 43.321, 12.4427 ], [ 43.3195, 12.4558 ], [ 43.3235, 12.4741 ], [ 43.3211, 12.4793 ], [ 43.3133, 12.481 ], [ 43.3125, 12.4653 ], [ 43.3028, 12.4598 ], [ 43.2934, 12.4608 ], [ 43.2872, 12.4751 ], [ 43.2555, 12.517 ], [ 42.936, 12.2945 ], [ 42.896, 12.2708 ], [ 42.8577, 12.2329 ], [ 42.8108, 12.1993 ] ] ] } },
{ "type": "Feature", "properties": { "iso3": "DJI", "unit_id": "6485868B23665406530379", "unit_name": "Dorra" }, "geometry": { "type": "Polygon", "coordinates": [ [ [ 42.7095, 12.3772 ], [ 42.7005, 12.3712 ], [ 42.6965, 12.3596 ], [ 42.6881, 12.3623 ], [ 42.6697, 12.3769 ], [ 42.6654, 12.3874 ], [ 42.6418, 12.4033 ], [ 42.6104, 12.4327 ], [ 42.6038, 12.4425 ], [ 42.5475, 12.4902 ], [ 42.4831, 12.5228 ], [ 42.464, 12.5239 ], [ 42.3863, 12.4391 ], [ 42.3848, 12.4332 ], [ 42.3371, 12.3718 ], [ 42.3172, 12.3046 ], [ 42.3091, 12.2949 ], [ 42.2577, 12.255 ], [ 42.2402, 12.2345 ], [ 42.2198, 12.2025 ], [ 42.2771, 12.1327 ], [ 42.3588, 11.9828 ], [ 42.3854, 11.9412 ], [ 42.454, 11.8786 ], [ 42.5031, 11.9439 ], [ 42.5714, 12.0793 ], [ 42.6121, 12.1408 ], [ 42.6739, 12.293 ], [ 42.7095, 12.3458 ], [ 42.7095, 12.3772 ] ] ] } },
{ "type": "Feature", "properties": { "iso3": "DJI", "unit_id": "6485868B40544115018731", "unit_name": "Randa" }, "geometry": { "type": "Polygon", "coordinates": [ [ [ 42.7095, 12.3458 ], [ 42.6739, 12.293 ], [ 42.6121, 12.1408 ], [ 42.5714, 12.0793 ], [ 42.5031, 11.9439 ], [ 42.454, 11.8786 ], [ 42.5485, 11.7591 ], [ 42.5898, 11.6993 ], [ 42.6993, 11.7888 ], [ 42.7374, 11.8294 ], [ 42.9468, 12.006 ], [ 42.8964, 12.0678 ], [ 42.8692, 12.1131 ], [ 42.8269, 12.1623 ], [ 42.8108, 12.1993 ], [ 42.7095, 12.3458 ] ] ] } },
{ "type": "Feature", "properties": { "iso3": "DJI", "unit_id": "6485868B78181364169589", "unit_name": "Balha" }, "geometry": { "type": "Polygon", "coordinates": [ [ [ 42.2198, 12.2025 ], [ 42.1848, 12.1427 ], [ 42.1702, 12.1285 ], [ 42.1627, 12.1137 ], [ 42.1523, 12.0767 ], [ 42.1341, 12.0676 ], [ 42.096, 12.0053 ], [ 42.0666, 11.9758 ], [ 42.0399, 11.9321 ], [ 42.1302, 11.8626 ], [ 42.1654, 11.8223 ], [ 42.3459, 11.6634 ], [ 42.4174, 11.6171 ], [ 42.4627, 11.5935 ], [ 42.4943, 11.6158 ], [ 42.5459, 11.6711 ], [ 42.5898, 11.6993 ], [ 42.5485, 11.7591 ], [ 42.454, 11.8786 ], [ 42.3854, 11.9412 ], [ 42.3588, 11.9828 ], [ 42.2771, 12.1327 ], [ 42.2198, 12.2025 ] ] ] } },
{ "type": "Feature", "properties": { "iso3": "DJI", "unit_id": "6485868B78944554500998", "unit_name": "Tadjourah" }, "geometry": { "type": "Polygon", "coordinates": [ [ [ 42.9468, 12.006 ], [ 42.7374, 11.8294 ], [ 42.6993, 11.7888 ], [ 42.5898, 11.6993 ], [ 42.5459, 11.6711 ], [ 42.4943, 11.6158 ], [ 42.4627, 11.5935 ], [ 42.5156, 11.5657 ], [ 42.5148, 11.5769 ], [ 42.5267, 11.5816 ], [ 42.5259, 11.5862 ], [ 42.5351, 11.5782 ], [ 42.5343, 11.5854 ], [ 42.5575, 11.5789 ], [ 42.5715, 11.5644 ], [ 42.5783, 11.5643 ], [ 42.5824, 11.5581 ], [ 42.5866, 11.5575 ], [ 42.6056, 11.5679 ], [ 42.6115, 11.5671 ], [ 42.6325, 11.5526 ], [ 42.6441, 11.5513 ], [ 42.6472, 11.5537 ], [ 42.6333, 11.5634 ], [ 42.6338, 11.5656 ], [ 42.645, 11.5625 ], [ 42.6533, 11.5539 ], [ 42.6577, 11.5522 ], [ 42.6598, 11.5556 ], [ 42.6768, 11.5492 ], [ 42.6798, 11.5521 ], [ 42.6817, 11.5682 ], [ 42.6876, 11.5755 ], [ 42.6925, 11.5908 ], [ 42.6922, 11.6026 ], [ 42.7034, 11.6371 ], [ 42.716, 11.6498 ], [ 42.7179, 11.6574 ], [ 42.7464, 11.677 ], [ 42.7512, 11.6857 ], [ 42.7514, 11.7013 ], [ 42.7616, 11.7104 ], [ 42.7717, 11.7337 ], [ 42.7798, 11.7409 ], [ 42.8137, 11.7489 ], [ 42.839, 11.767 ], [ 42.8572, 11.7706 ], [ 42.8758, 11.78 ], [ 42.9007, 11.7762 ], [ 42.9234, 11.7775 ], [ 42.9289, 11.7712 ], [ 42.9338, 11.7695 ], [ 42.9369, 11.7745 ], [ 42.9424, 11.7671 ], [ 42.9464, 11.7666 ], [ 42.9758, 11.7985 ], [ 43.0016, 11.801 ], [ 43.0229, 11.8093 ], [ 43.0516, 11.8106 ], [ 43.0664, 11.8239 ], [ 43.0692, 11.8298 ], [ 43.0434, 11.8557 ], [ 42.9468, 12.006 ] ] ] } },
{ "type": "Feature", "properties": { "iso3": "DJI", "unit_id": "6485868B30389359574281", "unit_name": "YobokiI" }, "geometry": { "type": "Polygon", "coordinates": [ [ [ 42.0399, 11.9321 ], [ 42.0237, 11.9116 ], [ 42.0037, 11.8791 ], [ 41.9999, 11.8656 ], [ 41.9778, 11.8345 ], [ 41.9352, 11.8031 ], [ 41.901, 11.7875 ], [ 41.897, 11.7818 ], [ 41.892, 11.7554 ], [ 41.8865, 11.7496 ], [ 41.8774, 11.7479 ], [ 41.8368, 11.728 ], [ 41.8287, 11.7072 ], [ 41.8053, 11.6301 ], [ 41.8072, 11.6204 ], [ 41.8035, 11.5964 ], [ 41.7908, 11.5437 ], [ 41.7838, 11.5317 ], [ 41.7761, 11.5047 ], [ 41.7734, 11.4875 ], [ 41.8018, 11.3621 ], [ 41.8077, 11.3183 ], [ 41.8097, 11.2396 ], [ 41.854, 11.2405 ], [ 41.8774, 11.2358 ], [ 41.9814, 11.2521 ], [ 42.1474, 11.2585 ], [ 42.2194, 11.2711 ], [ 42.3003, 11.2792 ], [ 42.3, 11.2428 ], [ 42.4829, 11.42 ], [ 42.5525, 11.481 ], [ 42.5695, 11.4866 ], [ 42.5607, 11.4901 ], [ 42.5583, 11.4956 ], [ 42.5225, 11.5221 ], [ 42.5221, 11.5313 ], [ 42.5289, 11.5356 ], [ 42.5267, 11.5413 ], [ 42.5358, 11.5457 ], [ 42.5286, 11.5599 ], [ 42.5303, 11.5668 ], [ 42.5237, 11.5657 ], [ 42.521, 11.5688 ], [ 42.5183, 11.5642 ], [ 42.4174, 11.6171 ], [ 42.3459, 11.6634 ], [ 42.1654, 11.8223 ], [ 42.1302, 11.8626 ], [ 42.0399, 11.9321 ] ] ] } },
{ "type": "Feature", "properties": { "iso3": "DJI", "unit_id": "6485868B87705778564736", "unit_name": "Dilkhil" }, "geometry": { "type": "Polygon", "coordinates": [ [ [ 42.3, 11.2428 ], [ 42.3215, 11.0738 ], [ 42.3275, 10.9892 ], [ 42.3502, 10.9965 ], [ 42.3728, 10.9961 ], [ 42.4047, 10.9828 ], [ 42.4241, 10.9801 ], [ 42.4589, 11.0013 ], [ 42.4993, 11.0325 ], [ 42.592, 11.0639 ], [ 42.5989, 11.0635 ], [ 42.6323, 11.089 ], [ 42.6409, 11.0883 ], [ 42.664, 11.0715 ], [ 42.6673, 11.176 ], [ 42.6604, 11.2448 ], [ 42.661, 11.3271 ], [ 42.6958, 11.3504 ], [ 42.7364, 11.3603 ], [ 42.795, 11.3843 ], [ 42.8185, 11.3982 ], [ 42.8183, 11.4076 ], [ 42.7545, 11.5618 ], [ 42.7445, 11.5558 ], [ 42.711, 11.5462 ], [ 42.6971, 11.5383 ], [ 42.6853, 11.5417 ], [ 42.6728, 11.5288 ], [ 42.6639, 11.5275 ], [ 42.6603, 11.5193 ], [ 42.6674, 11.5128 ], [ 42.6653, 11.5105 ], [ 42.688, 11.5005 ], [ 42.69, 11.4908 ], [ 42.6873, 11.4826 ], [ 42.6903, 11.4793 ], [ 42.6843, 11.4709 ], [ 42.6802, 11.4742 ], [ 42.6389, 11.4777 ], [ 42.6312, 11.4608 ], [ 42.6068, 11.4619 ], [ 42.5695, 11.4866 ], [ 42.5525, 11.481 ], [ 42.4829, 11.42 ], [ 42.3, 11.2428 ] ] ] } },
{ "type": "Feature", "properties": { "iso3": "DJI", "unit_id": "6485868B93273470848280", "unit_name": "As Eyla" }, "geometry": { "type": "Polygon", "coordinates": [ [ [ 41.8097, 11.2396 ], [ 41.7997, 11.0094 ], [ 41.789, 10.982 ], [ 41.7913, 10.9732 ], [ 41.7985, 10.9687 ], [ 41.811, 10.9678 ], [ 41.8111, 10.962 ], [ 41.816, 10.9594 ], [ 41.8411, 10.9589 ], [ 41.9006, 10.9433 ], [ 41.9422, 10.9395 ], [ 41.9397, 10.9285 ], [ 41.9447, 10.9132 ], [ 41.9491, 10.9099 ], [ 41.9584, 10.9109 ], [ 41.9678, 10.9169 ], [ 41.975, 10.9276 ], [ 42.003, 10.9164 ], [ 42.0313, 10.9244 ], [ 42.0673, 10.923 ], [ 42.0756, 10.9511 ], [ 42.0808, 10.9581 ], [ 42.0992, 10.9592 ], [ 42.1427, 10.9767 ], [ 42.1629, 10.974 ], [ 42.189, 10.9774 ], [ 42.1959, 10.9738 ], [ 42.1999, 10.9636 ], [ 42.207, 10.9602 ], [ 42.2325, 10.9663 ], [ 42.2705, 10.9688 ], [ 42.289, 10.9845 ], [ 42.3094, 10.9908 ], [ 42.3275, 10.9892 ], [ 42.3215, 11.0738 ], [ 42.3, 11.2428 ], [ 42.3003, 11.2792 ], [ 42.2194, 11.2711 ], [ 42.1474, 11.2585 ], [ 41.9814, 11.2521 ], [ 41.8774, 11.2358 ], [ 41.854, 11.2405 ], [ 41.8097, 11.2396 ] ] ] } },
{ "type": "Feature", "properties": { "iso3": "DJI", "unit_id": "6485868B76883161423082", "unit_name": "Djibouti" }, "geometry": { "type": "Polygon", "coordinates": [ [ [ 42.8183, 11.4076 ], [ 42.9198, 11.4479 ], [ 43.0019, 11.4909 ], [ 43.0247, 11.492 ], [ 43.0578, 11.4779 ], [ 43.0944, 11.4424 ], [ 43.1279, 11.4213 ], [ 43.1936, 11.3701 ], [ 43.2547, 11.4696 ], [ 43.249, 11.4727 ], [ 43.2412, 11.4843 ], [ 43.233, 11.5053 ], [ 43.2148, 11.5182 ], [ 43.1982, 11.5197 ], [ 43.1864, 11.5353 ], [ 43.1732, 11.5722 ], [ 43.1627, 11.5823 ], [ 43.1568, 11.5935 ], [ 43.1576, 11.6087 ], [ 43.1467, 11.6158 ], [ 43.1331, 11.6097 ], [ 43.1341, 11.6072 ], [ 43.1488, 11.6048 ], [ 43.1469, 11.5983 ], [ 43.1049, 11.5806 ], [ 43.099, 11.5811 ], [ 43.0941, 11.5902 ], [ 43.0863, 11.5944 ], [ 43.0641, 11.5994 ], [ 43.055, 11.5902 ], [ 43.0331, 11.598 ], [ 43.0073, 11.5946 ], [ 42.9908, 11.5859 ], [ 42.9764, 11.5902 ], [ 42.9689, 11.5862 ], [ 42.959, 11.5928 ], [ 42.8715, 11.5807 ], [ 42.8674, 11.5865 ], [ 42.8606, 11.5839 ], [ 42.8496, 11.5939 ], [ 42.8513, 11.5854 ], [ 42.8475, 11.5827 ], [ 42.8336, 11.5872 ], [ 42.8251, 11.5816 ], [ 42.8037, 11.5835 ], [ 42.7938, 11.5765 ], [ 42.7864, 11.5658 ], [ 42.7726, 11.5605 ], [ 42.7545, 11.5618 ], [ 42.8183, 11.4076 ] ] ] } },
{ "type": "Feature", "properties": { "iso3": "DJI", "unit_id": "6485868B95918360153500", "unit_name": "Ali Sabeh" }, "geometry": { "type": "Polygon", "coordinates": [ [ [ 42.664, 11.0715 ], [ 42.6783, 11.0709 ], [ 42.6834, 11.0625 ], [ 42.6979, 11.053 ], [ 42.7113, 11.0601 ], [ 42.7279, 11.0613 ], [ 42.7463, 11.0722 ], [ 42.7574, 11.0706 ], [ 42.7645, 11.0642 ], [ 42.7847, 11.0288 ], [ 42.7889, 10.995 ], [ 42.7914, 10.9879 ], [ 42.796, 10.9855 ], [ 42.853, 10.975 ], [ 42.9108, 10.9776 ], [ 42.9616, 10.9844 ], [ 42.9859, 11.0219 ], [ 43.0, 11.0549 ], [ 43.1936, 11.3701 ], [ 43.1279, 11.4213 ], [ 43.0944, 11.4424 ], [ 43.0578, 11.4779 ], [ 43.0247, 11.492 ], [ 43.0019, 11.4909 ], [ 42.9198, 11.4479 ], [ 42.8183, 11.4076 ], [ 42.8185, 11.3982 ], [ 42.795, 11.3843 ], [ 42.7364, 11.3603 ], [ 42.6958, 11.3504 ], [ 42.661, 11.3271 ], [ 42.6604, 11.2448 ], [ 42.6673, 11.176 ], [ 42.664, 11.0715 ] ] ] } }
]
}
