{
"type": "FeatureCollection",
"name": "GMB",
"crs": { "type": "name", "properties": { "name": "urn:ogc:def:crs:OGC:1.3:CRS84" } },
"xy_coordinate_resolution": 0.0001,
"features": [
{ "type": "Feature", "properties": { "iso3": "GMB", "unit_id": "55004077B56817564714105", "unit_name": "Banjul Central" }, "geometry": { "type": "Polygon", "coordinates": [ [ [ -16.5828, 13.4499 ], [ -16.5779, 13.4546 ], [ -16.5719, 13.4565 ], [ -16.5798, 13.4585 ], [ -16.5828, 13.4499 ] ] ] } },
{ "type": "Feature", "properties": { "iso3": "GMB", "unit_id": "55004077B58700909504960", "unit_name": "Banjul North" }, "geometry": { "type": "Polygon", "coordinates": [ [ [ -16.5767, 13.4592 ], [ -16.6016, 13.4649 ], [ -16.6164, 13.4736 ], [ -16.6271, 13.4679 ], [ -16.6186, 13.4667 ], [ -16.6075, 13.4598 ], [ -16.6128, 13.4474 ], [ -16.6058, 13.4434 ], [ -16.5911, 13.4488 ], [ -16.5832, 13.4473 ], [ -16.5804, 13.4492 ], [ -16.5824, 13.4543 ], [ -16.5767, 13.4592 ] ] ] } },
{ "type": "Feature", "properties": { "iso3": "GMB", "unit_id": "55004077B89112766014074", "unit_name": "Banjul South" }, "geometry": { "type": "Polygon", "coordinates": [ [ [ -16.5719, 13.4565 ], [ -16.5832, 13.4473 ], [ -16.5745, 13.4424 ], [ -16.5703, 13.4517 ], [ -16.5719, 13.4565 ] ] ] } },
{ "type": "Feature", "properties": { "iso3": "GMB", "unit_id": "55004077B30602896438178", "unit_name": "Basse" }, "geometry": { "type": "Polygon", "coordinates": [ [ [ -14.253, 13.2325 ], [ -14.2481, 13.2277 ], [ -14.2264, 13.2199 ], [ -14.2071, 13.2169 ], [ -14.1848, 13.2191 ], [ -14.1312, 13.237 ], [ -14.1254, 13.244 ], [ -14.1268, 13.2661 ], [ -14.1192, 13.2828 ], [ -14.1304, 13.2846 ], [ -14.1526, 13.2951 ], [ -14.1697, 13.3146 ], [ -14.2006, 13.3149 ], [ -14.208, 13.3191 ], [ -14.2108, 13.3159 ], [ -14.2155, 13.3164 ], [ -14.2248, 13.3355 ], [ -14.2431, 13.338 ], [ -14.2536, 13.3558 ], [ -14.2826, 13.3686 ], [ -14.2874, 13.3662 ], [ -14.2986, 13.3352 ], [ -14.3075, 13.3293 ], [ -14.2478, 13.2846 ], [ -14.253, 13.2325 ] ] ] } },
{ "type": "Feature", "properties": { "iso3": "GMB", "unit_id": "55004077B43860093093230", "unit_name": "Kantora" }, "geometry": { "type": "Polygon", "coordinates": [ [ [ -13.9444, 13.3187 ], [ -13.8932, 13.3166 ], [ -13.8883, 13.3198 ], [ -13.8793, 13.3189 ], [ -13.8518, 13.3252 ], [ -13.8213, 13.3526 ], [ -13.7971, 13.3843 ], [ -13.7911, 13.4309 ], [ -13.7938, 13.4449 ], [ -13.8133, 13.4444 ], [ -13.8177, 13.4518 ], [ -13.8253, 13.4485 ], [ -13.8299, 13.4627 ], [ -13.8267, 13.4724 ], [ -13.8136, 13.4767 ], [ -13.8145, 13.4812 ], [ -13.8236, 13.4845 ], [ -13.8313, 13.4917 ], [ -13.8308, 13.5009 ], [ -13.8345, 13.5043 ], [ -13.8583, 13.512 ], [ -13.8861, 13.5002 ], [ -13.8913, 13.4944 ], [ -13.8878, 13.4768 ], [ -13.8693, 13.4518 ], [ -13.8733, 13.4434 ], [ -13.8822, 13.4381 ], [ -13.8844, 13.4152 ], [ -13.888, 13.4079 ], [ -13.9071, 13.4098 ], [ -13.9188, 13.4189 ], [ -13.926, 13.4315 ], [ -13.9335, 13.456 ], [ -13.9446, 13.4726 ], [ -13.9506, 13.4761 ], [ -13.9788, 13.4652 ], [ -14.0026, 13.4505 ], [ -13.9972, 13.4134 ], [ -14.0339, 13.3884 ], [ -14.0228, 13.387 ], [ -14.0194, 13.3924 ], [ -14.0037, 13.3976 ], [ -14.0006, 13.4016 ], [ -13.9875, 13.3959 ], [ -13.9819, 13.3703 ], [ -13.9531, 13.3382 ], [ -13.9456, 13.3344 ], [ -13.943, 13.3287 ], [ -13.9444, 13.3187 ] ] ] } },
{ "type": "Feature", "properties": { "iso3": "GMB", "unit_id": "55004077B82495975294025", "unit_name": "Sandu" }, "geometry": { "type": "Polygon", "coordinates": [ [ [ -14.2874, 13.3662 ], [ -14.2671, 13.3736 ], [ -14.2693, 13.4009 ], [ -14.2625, 13.4039 ], [ -14.2566, 13.4162 ], [ -14.2519, 13.4163 ], [ -14.2448, 13.4225 ], [ -14.2369, 13.4527 ], [ -14.2356, 13.464 ], [ -14.2385, 13.4703 ], [ -14.2435, 13.4629 ], [ -14.2815, 13.4629 ], [ -14.3301, 13.4515 ], [ -14.3954, 13.4876 ], [ -14.424, 13.497 ], [ -14.4463, 13.5277 ], [ -14.4615, 13.5098 ], [ -14.4821, 13.4964 ], [ -14.4742, 13.48 ], [ -14.476, 13.4734 ], [ -14.4886, 13.4682 ], [ -14.4994, 13.4677 ], [ -14.5066, 13.4587 ], [ -14.5099, 13.46 ], [ -14.5042, 13.4212 ], [ -14.4871, 13.4063 ], [ -14.4813, 13.3873 ], [ -14.4762, 13.3865 ], [ -14.4517, 13.4097 ], [ -14.4378, 13.4055 ], [ -14.4271, 13.395 ], [ -14.4248, 13.3817 ], [ -14.4202, 13.3765 ], [ -14.4039, 13.3703 ], [ -14.385, 13.3717 ], [ -14.373, 13.3363 ], [ -14.3626, 13.3291 ], [ -14.3473, 13.3245 ], [ -14.3026, 13.3303 ], [ -14.2889, 13.3571 ], [ -14.2874, 13.3662 ] ] ] } },
{ "type": "Feature", "properties": { "iso3": "GMB", "unit_id": "55004077B66797633992931", "unit_name": "Jimara" }, "geometry": { "type": "Polygon", "coordinates": [ [ [ -14.3075, 13.3293 ], [ -14.3473, 13.3245 ], [ -14.3626, 13.3291 ], [ -14.373, 13.3363 ], [ -14.385, 13.3717 ], [ -14.4039, 13.3703 ], [ -14.4202, 13.3765 ], [ -14.4248, 13.3817 ], [ -14.4297, 13.3988 ], [ -14.4475, 13.4095 ], [ -14.4564, 13.4072 ], [ -14.4796, 13.3859 ], [ -14.4871, 13.4063 ], [ -14.5042, 13.4212 ], [ -14.5044, 13.4104 ], [ -14.4979, 13.3851 ], [ -14.5097, 13.3803 ], [ -14.5236, 13.3802 ], [ -14.5279, 13.3844 ], [ -14.5267, 13.3622 ], [ -14.5464, 13.3213 ], [ -14.532, 13.3103 ], [ -14.5005, 13.2954 ], [ -14.4866, 13.2926 ], [ -14.463, 13.2938 ], [ -14.4226, 13.258 ], [ -14.3969, 13.2418 ], [ -14.3218, 13.2327 ], [ -14.2749, 13.2426 ], [ -14.2668, 13.2415 ], [ -14.253, 13.2325 ], [ -14.2478, 13.2846 ], [ -14.3075, 13.3293 ] ] ] } },
{ "type": "Feature", "properties": { "iso3": "GMB", "unit_id": "55004077B19148037072502", "unit_name": "Tumana" }, "geometry": { "type": "Polygon", "coordinates": [ [ [ -14.1304, 13.2846 ], [ -14.0809, 13.2845 ], [ -14.0657, 13.2924 ], [ -14.0316, 13.2935 ], [ -13.9928, 13.302 ], [ -13.9444, 13.3187 ], [ -13.943, 13.3287 ], [ -13.9819, 13.3703 ], [ -13.9875, 13.3959 ], [ -13.9941, 13.4007 ], [ -14.0006, 13.4016 ], [ -14.0037, 13.3976 ], [ -14.0194, 13.3924 ], [ -14.0228, 13.387 ], [ -14.0403, 13.3889 ], [ -14.0507, 13.4019 ], [ -14.0504, 13.4332 ], [ -14.0547, 13.446 ], [ -14.0579, 13.4511 ], [ -14.0701, 13.4556 ], [ -14.0766, 13.4546 ], [ -14.0872, 13.4481 ], [ -14.1086, 13.4219 ], [ -14.1122, 13.4125 ], [ -14.1122, 13.4003 ], [ -14.1048, 13.3806 ], [ -14.1064, 13.3768 ], [ -14.1161, 13.3765 ], [ -14.1303, 13.3887 ], [ -14.142, 13.3832 ], [ -14.1482, 13.3835 ], [ -14.1497, 13.3919 ], [ -14.1402, 13.4157 ], [ -14.1484, 13.4241 ], [ -14.158, 13.4246 ], [ -14.1632, 13.394 ], [ -14.1716, 13.3881 ], [ -14.1849, 13.3876 ], [ -14.1891, 13.3747 ], [ -14.1884, 13.3519 ], [ -14.2044, 13.3464 ], [ -14.2084, 13.3396 ], [ -14.208, 13.3191 ], [ -14.2006, 13.3149 ], [ -14.1697, 13.3146 ], [ -14.1526, 13.2951 ], [ -14.1304, 13.2846 ] ] ] } },
{ "type": "Feature", "properties": { "iso3": "GMB", "unit_id": "55004077B98740850017420", "unit_name": "Wuli West" }, "geometry": { "type": "Polygon", "coordinates": [ [ [ -14.208, 13.3191 ], [ -14.2084, 13.3396 ], [ -14.2044, 13.3464 ], [ -14.1884, 13.3519 ], [ -14.1891, 13.3747 ], [ -14.1849, 13.3876 ], [ -14.1716, 13.3881 ], [ -14.1632, 13.394 ], [ -14.158, 13.4246 ], [ -14.1484, 13.4241 ], [ -14.1402, 13.4157 ], [ -14.1497, 13.3919 ], [ -14.1482, 13.3835 ], [ -14.142, 13.3832 ], [ -14.1303, 13.3887 ], [ -14.1161, 13.3765 ], [ -14.1064, 13.3768 ], [ -14.1048, 13.3806 ], [ -14.1122, 13.4003 ], [ -14.1122, 13.4125 ], [ -14.1086, 13.4219 ], [ -14.0944, 13.438 ], [ -14.1071, 13.467 ], [ -14.1177, 13.5188 ], [ -14.1032, 13.5318 ], [ -14.1047, 13.5475 ], [ -14.1089, 13.5473 ], [ -14.1388, 13.5259 ], [ -14.1571, 13.5272 ], [ -14.1853, 13.5238 ], [ -14.2113, 13.509 ], [ -14.2258, 13.4938 ], [ -14.2385, 13.4703 ], [ -14.2356, 13.464 ], [ -14.2369, 13.4527 ], [ -14.2448, 13.4225 ], [ -14.2519, 13.4163 ], [ -14.2566, 13.4162 ], [ -14.2625, 13.4039 ], [ -14.2693, 13.4009 ], [ -14.2671, 13.3736 ], [ -14.2826, 13.3686 ], [ -14.2536, 13.3558 ], [ -14.2431, 13.338 ], [ -14.2248, 13.3355 ], [ -14.2155, 13.3164 ], [ -14.2108, 13.3159 ], [ -14.208, 13.3191 ] ] ] } },
{ "type": "Feature", "properties": { "iso3": "GMB", "unit_id": "55004077B73276081134947", "unit_name": "Wuli East" }, "geometry": { "type": "Polygon", "coordinates": [ [ [ -13.8583, 13.512 ], [ -13.8855, 13.5475 ], [ -13.9007, 13.5586 ], [ -13.9181, 13.5653 ], [ -13.9625, 13.5726 ], [ -13.9854, 13.5795 ], [ -14.0035, 13.5731 ], [ -14.0113, 13.5619 ], [ -14.0322, 13.5555 ], [ -14.1047, 13.5475 ], [ -14.1032, 13.5318 ], [ -14.1177, 13.5188 ], [ -14.1071, 13.467 ], [ -14.0944, 13.438 ], [ -14.0872, 13.4481 ], [ -14.0766, 13.4546 ], [ -14.0701, 13.4556 ], [ -14.0579, 13.4511 ], [ -14.0504, 13.4332 ], [ -14.0507, 13.4019 ], [ -14.0403, 13.3889 ], [ -14.0339, 13.3884 ], [ -13.9972, 13.4134 ], [ -14.0026, 13.4505 ], [ -13.9788, 13.4652 ], [ -13.9506, 13.4761 ], [ -13.9446, 13.4726 ], [ -13.9335, 13.456 ], [ -13.926, 13.4315 ], [ -13.9188, 13.4189 ], [ -13.9071, 13.4098 ], [ -13.888, 13.4079 ], [ -13.8844, 13.4152 ], [ -13.8822, 13.4381 ], [ -13.8733, 13.4434 ], [ -13.8693, 13.4518 ], [ -13.8878, 13.4768 ], [ -13.8913, 13.4944 ], [ -13.8861, 13.5002 ], [ -13.8583, 13.512 ] ] ] } },
{ "type": "Feature", "properties": { "iso3": "GMB", "unit_id": "55004077B55445289424422", "unit_name": "Foni Bintang Karenai" }, "geometry": { "type": "Polygon", "coordinates": [ [ [ -16.111, 13.1886 ], [ -16.1136, 13.2029 ], [ -16.1101, 13.2089 ], [ -16.1169, 13.212 ], [ -16.1166, 13.2175 ], [ -16.1214, 13.2211 ], [ -16.1199, 13.2285 ], [ -16.1396, 13.2252 ], [ -16.1381, 13.2431 ], [ -16.1507, 13.2417 ], [ -16.1506, 13.2545 ], [ -16.1397, 13.2517 ], [ -16.1381, 13.2649 ], [ -16.1495, 13.2591 ], [ -16.1618, 13.263 ], [ -16.1776, 13.2596 ], [ -16.1829, 13.264 ], [ -16.1923, 13.26 ], [ -16.2037, 13.2495 ], [ -16.2076, 13.2531 ], [ -16.2096, 13.2689 ], [ -16.2021, 13.3021 ], [ -16.2213, 13.3261 ], [ -16.2826, 13.3058 ], [ -16.3155, 13.2892 ], [ -16.332, 13.2916 ], [ -16.342, 13.2812 ], [ -16.3493, 13.2801 ], [ -16.3663, 13.2591 ], [ -16.3663, 13.2548 ], [ -16.3521, 13.2528 ], [ -16.3486, 13.2462 ], [ -16.3383, 13.2386 ], [ -16.3338, 13.2474 ], [ -16.329, 13.2439 ], [ -16.3267, 13.249 ], [ -16.3248, 13.2405 ], [ -16.3231, 13.2448 ], [ -16.3144, 13.2455 ], [ -16.3195, 13.2423 ], [ -16.3193, 13.2398 ], [ -16.3139, 13.2402 ], [ -16.3173, 13.2377 ], [ -16.3153, 13.2338 ], [ -16.3116, 13.2366 ], [ -16.2846, 13.2212 ], [ -16.2726, 13.192 ], [ -16.283, 13.1656 ], [ -16.1099, 13.1654 ], [ -16.1081, 13.1867 ], [ -16.111, 13.1886 ] ] ] } },
{ "type": "Feature", "properties": { "iso3": "GMB", "unit_id": "55004077B99805162487819", "unit_name": "Foni Bondali" }, "geometry": { "type": "Polygon", "coordinates": [ [ [ -15.8496, 13.1662 ], [ -15.8504, 13.2091 ], [ -15.8735, 13.2076 ], [ -15.874, 13.2178 ], [ -15.8871, 13.2277 ], [ -15.886, 13.2378 ], [ -15.8934, 13.2546 ], [ -15.8995, 13.2581 ], [ -15.914, 13.2567 ], [ -15.9163, 13.2651 ], [ -15.9139, 13.2708 ], [ -15.922, 13.2784 ], [ -15.925, 13.2777 ], [ -15.9274, 13.2705 ], [ -15.9427, 13.2712 ], [ -15.9527, 13.286 ], [ -15.9514, 13.2929 ], [ -15.9612, 13.2932 ], [ -15.9657, 13.2884 ], [ -15.9763, 13.2988 ], [ -15.9716, 13.2718 ], [ -15.9988, 13.2449 ], [ -15.9987, 13.2268 ], [ -16.0158, 13.2249 ], [ -16.0194, 13.2172 ], [ -16.0192, 13.1826 ], [ -16.0118, 13.1787 ], [ -16.0013, 13.1836 ], [ -15.9845, 13.1835 ], [ -15.9841, 13.1662 ], [ -15.8496, 13.1662 ] ] ] } },
{ "type": "Feature", "properties": { "iso3": "GMB", "unit_id": "55004077B83381798949312", "unit_name": "Foni Brefet" }, "geometry": { "type": "Polygon", "coordinates": [ [ [ -16.3595, 13.2664 ], [ -16.3682, 13.2685 ], [ -16.38, 13.2612 ], [ -16.3887, 13.2467 ], [ -16.4088, 13.2503 ], [ -16.4122, 13.2461 ], [ -16.4118, 13.2312 ], [ -16.4017, 13.2264 ], [ -16.4017, 13.2221 ], [ -16.408, 13.2209 ], [ -16.4118, 13.2075 ], [ -16.4171, 13.2075 ], [ -16.4135, 13.2018 ], [ -16.4211, 13.1921 ], [ -16.4162, 13.1847 ], [ -16.4265, 13.1666 ], [ -16.283, 13.1656 ], [ -16.2726, 13.192 ], [ -16.2846, 13.2212 ], [ -16.3116, 13.2366 ], [ -16.3153, 13.2338 ], [ -16.3173, 13.2377 ], [ -16.3139, 13.2402 ], [ -16.3193, 13.2398 ], [ -16.3195, 13.2423 ], [ -16.3144, 13.2455 ], [ -16.3231, 13.2448 ], [ -16.3248, 13.2405 ], [ -16.3267, 13.249 ], [ -16.329, 13.2439 ], [ -16.3338, 13.2474 ], [ -16.3383, 13.2386 ], [ -16.3486, 13.2462 ], [ -16.3521, 13.2528 ], [ -16.3643, 13.2534 ], [ -16.3663, 13.2591 ], [ -16.3595, 13.2664 ] ] ] } },
{ "type": "Feature", "properties": { "iso3": "GMB", "unit_id": "55004077B52227637984198", "unit_name": "Foni Jarrol" }, "geometry": { "type": "Polygon", "coordinates": [ [ [ -15.8496, 13.1662 ], [ -15.8012, 13.1658 ], [ -15.8022, 13.2412 ], [ -15.8101, 13.2425 ], [ -15.81, 13.2517 ], [ -15.8057, 13.2554 ], [ -15.8075, 13.2589 ], [ -15.8253, 13.2606 ], [ -15.8315, 13.253 ], [ -15.8384, 13.2541 ], [ -15.8441, 13.2592 ], [ -15.8504, 13.2548 ], [ -15.8527, 13.2709 ], [ -15.8593, 13.2712 ], [ -15.8612, 13.2668 ], [ -15.8681, 13.2683 ], [ -15.866, 13.2746 ], [ -15.875, 13.2812 ], [ -15.8795, 13.2766 ], [ -15.8793, 13.2699 ], [ -15.8885, 13.2656 ], [ -15.8953, 13.2676 ], [ -15.8995, 13.2581 ], [ -15.8934, 13.2546 ], [ -15.886, 13.2378 ], [ -15.8871, 13.2277 ], [ -15.874, 13.2178 ], [ -15.8735, 13.2076 ], [ -15.8504, 13.2091 ], [ -15.8496, 13.1662 ] ] ] } },
{ "type": "Feature", "properties": { "iso3": "GMB", "unit_id": "55004077B89343470627300", "unit_name": "Foni Kansala" }, "geometry": { "type": "Polygon", "coordinates": [ [ [ -16.1099, 13.1654 ], [ -15.9841, 13.1662 ], [ -15.9845, 13.1835 ], [ -16.0013, 13.1836 ], [ -16.0118, 13.1787 ], [ -16.0192, 13.1826 ], [ -16.0194, 13.2172 ], [ -16.0158, 13.2249 ], [ -15.9987, 13.2268 ], [ -15.9988, 13.2449 ], [ -15.9716, 13.2718 ], [ -15.9763, 13.2988 ], [ -15.9938, 13.2973 ], [ -15.9996, 13.2872 ], [ -16.0052, 13.2914 ], [ -16.0058, 13.2961 ], [ -16.0116, 13.2968 ], [ -16.0309, 13.2761 ], [ -16.0517, 13.2743 ], [ -16.0597, 13.264 ], [ -16.0678, 13.2651 ], [ -16.0706, 13.2785 ], [ -16.0839, 13.2796 ], [ -16.0913, 13.2698 ], [ -16.0891, 13.2612 ], [ -16.0765, 13.2554 ], [ -16.0832, 13.2495 ], [ -16.0959, 13.2495 ], [ -16.1249, 13.275 ], [ -16.1251, 13.2796 ], [ -16.1165, 13.2802 ], [ -16.1109, 13.2844 ], [ -16.1107, 13.2899 ], [ -16.1208, 13.295 ], [ -16.1431, 13.2944 ], [ -16.1697, 13.2694 ], [ -16.1829, 13.264 ], [ -16.1776, 13.2596 ], [ -16.1618, 13.263 ], [ -16.1495, 13.2591 ], [ -16.1381, 13.2649 ], [ -16.1397, 13.2517 ], [ -16.1506, 13.2545 ], [ -16.1507, 13.2417 ], [ -16.1381, 13.2431 ], [ -16.1396, 13.2252 ], [ -16.1199, 13.2285 ], [ -16.1214, 13.2211 ], [ -16.1166, 13.2175 ], [ -16.1169, 13.212 ], [ -16.1101, 13.2089 ], [ -16.1136, 13.2029 ], [ -16.1131, 13.1942 ], [ -16.1081, 13.1867 ], [ -16.1099, 13.1654 ] ] ] } },
{ "type": "Feature", "properties": { "iso3": "GMB", "unit_id": "55004077B97964110675264", "unit_name": "Kombo Central" }, "geometry": { "type": "Polygon", "coordinates": [ [ [ -16.6024, 13.1667 ], [ -16.6035, 13.256 ], [ -16.5956, 13.2828 ], [ -16.5911, 13.3141 ], [ -16.5862, 13.3149 ], [ -16.5858, 13.3296 ], [ -16.5886, 13.332 ], [ -16.5935, 13.3289 ], [ -16.6123, 13.3307 ], [ -16.6105, 13.3387 ], [ -16.6157, 13.3383 ], [ -16.6209, 13.3281 ], [ -16.6181, 13.3278 ], [ -16.6396, 13.314 ], [ -16.6625, 13.3111 ], [ -16.6621, 13.2997 ], [ -16.7328, 13.2549 ], [ -16.743, 13.224 ], [ -16.6787, 13.2233 ], [ -16.6789, 13.1685 ], [ -16.6024, 13.1667 ] ] ] } },
{ "type": "Feature", "properties": { "iso3": "GMB", "unit_id": "55004077B25886234813011", "unit_name": "Kombo East" }, "geometry": { "type": "Polygon", "coordinates": [ [ [ -16.3682, 13.2685 ], [ -16.3743, 13.2698 ], [ -16.3773, 13.2788 ], [ -16.383, 13.2812 ], [ -16.4149, 13.2725 ], [ -16.4487, 13.271 ], [ -16.4591, 13.2799 ], [ -16.4822, 13.2865 ], [ -16.5427, 13.2934 ], [ -16.5565, 13.2993 ], [ -16.5676, 13.3126 ], [ -16.5751, 13.3294 ], [ -16.5791, 13.3336 ], [ -16.5843, 13.3339 ], [ -16.5862, 13.3149 ], [ -16.5911, 13.3141 ], [ -16.5956, 13.2828 ], [ -16.6035, 13.256 ], [ -16.6024, 13.1667 ], [ -16.4265, 13.1666 ], [ -16.4162, 13.1847 ], [ -16.4211, 13.1921 ], [ -16.4135, 13.2018 ], [ -16.4171, 13.2075 ], [ -16.4118, 13.2075 ], [ -16.408, 13.2209 ], [ -16.4017, 13.2221 ], [ -16.4017, 13.2264 ], [ -16.4118, 13.2312 ], [ -16.4122, 13.2461 ], [ -16.4088, 13.2503 ], [ -16.3887, 13.2467 ], [ -16.38, 13.2612 ], [ -16.3682, 13.2685 ] ] ] } },
{ "type": "Feature", "properties": { "iso3": "GMB", "unit_id": "55004077B53956890192718", "unit_name": "Kombo North/St Marie" }, "geometry": { "type": "Polygon", "coordinates": [ [ [ -16.5858, 13.3296 ], [ -16.5843, 13.3339 ], [ -16.5791, 13.3336 ], [ -16.5715, 13.3577 ], [ -16.5856, 13.386 ], [ -16.613, 13.3796 ], [ -16.6177, 13.3826 ], [ -16.6157, 13.3853 ], [ -16.6225, 13.387 ], [ -16.6222, 13.4015 ], [ -16.6328, 13.3993 ], [ -16.6352, 13.4042 ], [ -16.6425, 13.402 ], [ -16.6441, 13.3951 ], [ -16.6596, 13.3844 ], [ -16.6657, 13.4039 ], [ -16.6894, 13.4187 ], [ -16.6917, 13.4262 ], [ -16.7048, 13.4281 ], [ -16.7072, 13.4413 ], [ -16.719, 13.4411 ], [ -16.7246, 13.444 ], [ -16.7378, 13.4184 ], [ -16.7519, 13.401 ], [ -16.7664, 13.3897 ], [ -16.7935, 13.3791 ], [ -16.7968, 13.3605 ], [ -16.7896, 13.3652 ], [ -16.7875, 13.3583 ], [ -16.7792, 13.3609 ], [ -16.7658, 13.3584 ], [ -16.7719, 13.3535 ], [ -16.7663, 13.3379 ], [ -16.7381, 13.3389 ], [ -16.7239, 13.3327 ], [ -16.7168, 13.3334 ], [ -16.7066, 13.3271 ], [ -16.6839, 13.3361 ], [ -16.6778, 13.3325 ], [ -16.6755, 13.3174 ], [ -16.641, 13.3217 ], [ -16.6313, 13.3194 ], [ -16.6181, 13.3278 ], [ -16.6209, 13.3281 ], [ -16.6157, 13.3383 ], [ -16.6094, 13.3362 ], [ -16.6123, 13.3307 ], [ -16.5935, 13.3289 ], [ -16.5886, 13.332 ], [ -16.5858, 13.3296 ] ] ] } },
{ "type": "Feature", "properties": { "iso3": "GMB", "unit_id": "55004077B11234413644931", "unit_name": "Kombo South" }, "geometry": { "type": "Polygon", "coordinates": [ [ [ -16.6313, 13.3194 ], [ -16.641, 13.3217 ], [ -16.6755, 13.3174 ], [ -16.6778, 13.3325 ], [ -16.6839, 13.3361 ], [ -16.7066, 13.3271 ], [ -16.7168, 13.3334 ], [ -16.7239, 13.3327 ], [ -16.7381, 13.3389 ], [ -16.7663, 13.3379 ], [ -16.7719, 13.3535 ], [ -16.7658, 13.3584 ], [ -16.7792, 13.3609 ], [ -16.7875, 13.3583 ], [ -16.7896, 13.3652 ], [ -16.7984, 13.3599 ], [ -16.8014, 13.349 ], [ -16.8062, 13.3449 ], [ -16.812, 13.3449 ], [ -16.8143, 13.3389 ], [ -16.8073, 13.3311 ], [ -16.8037, 13.3189 ], [ -16.8029, 13.3012 ], [ -16.8071, 13.2758 ], [ -16.7907, 13.2642 ], [ -16.7838, 13.2312 ], [ -16.7835, 13.1865 ], [ -16.788, 13.1618 ], [ -16.7911, 13.1588 ], [ -16.7775, 13.1507 ], [ -16.7734, 13.1413 ], [ -16.7739, 13.1331 ], [ -16.7671, 13.1238 ], [ -16.7723, 13.078 ], [ -16.7522, 13.0698 ], [ -16.7395, 13.0437 ], [ -16.7366, 13.0469 ], [ -16.7442, 13.07 ], [ -16.7416, 13.0737 ], [ -16.7322, 13.074 ], [ -16.7286, 13.0819 ], [ -16.7333, 13.0904 ], [ -16.7275, 13.0926 ], [ -16.7256, 13.0968 ], [ -16.7358, 13.1032 ], [ -16.7357, 13.112 ], [ -16.7304, 13.1141 ], [ -16.7299, 13.108 ], [ -16.7258, 13.1064 ], [ -16.7163, 13.1102 ], [ -16.7251, 13.1162 ], [ -16.7254, 13.1221 ], [ -16.7204, 13.1186 ], [ -16.7123, 13.1208 ], [ -16.7086, 13.1274 ], [ -16.71, 13.133 ], [ -16.7028, 13.131 ], [ -16.6968, 13.1402 ], [ -16.6978, 13.1434 ], [ -16.7072, 13.1478 ], [ -16.7089, 13.1552 ], [ -16.7014, 13.1527 ], [ -16.6992, 13.1562 ], [ -16.7014, 13.1625 ], [ -16.6977, 13.1592 ], [ -16.6912, 13.1598 ], [ -16.689, 13.1675 ], [ -16.6844, 13.169 ], [ -16.6806, 13.1653 ], [ -16.6789, 13.1685 ], [ -16.6787, 13.2233 ], [ -16.743, 13.224 ], [ -16.7328, 13.2549 ], [ -16.6621, 13.2997 ], [ -16.6625, 13.3111 ], [ -16.6396, 13.314 ], [ -16.6313, 13.3194 ] ] ] } },
{ "type": "Feature", "properties": { "iso3": "GMB", "unit_id": "55004077B55093367135536", "unit_name": "Lower Fuladu West" }, "geometry": { "type": "Polygon", "coordinates": [ [ [ -14.8058, 13.5574 ], [ -14.8217, 13.565 ], [ -14.8394, 13.565 ], [ -14.8624, 13.5527 ], [ -14.9076, 13.5783 ], [ -14.9639, 13.5781 ], [ -14.9746, 13.5918 ], [ -14.9777, 13.6049 ], [ -14.9764, 13.613 ], [ -14.9814, 13.6147 ], [ -15.0659, 13.5413 ], [ -15.0468, 13.5202 ], [ -15.0134, 13.493 ], [ -14.9963, 13.485 ], [ -14.9626, 13.4779 ], [ -14.9316, 13.4571 ], [ -14.9049, 13.4492 ], [ -14.8542, 13.4527 ], [ -14.8161, 13.4371 ], [ -14.7913, 13.5085 ], [ -14.7476, 13.5114 ], [ -14.7488, 13.5259 ], [ -14.761, 13.5233 ], [ -14.7787, 13.5271 ], [ -14.8022, 13.5473 ], [ -14.8058, 13.5574 ] ] ] } },
{ "type": "Feature", "properties": { "iso3": "GMB", "unit_id": "55004077B63928399419575", "unit_name": "Janjanbureh" }, "geometry": { "type": "Polygon", "coordinates": [ [ [ -14.761, 13.5233 ], [ -14.7348, 13.5308 ], [ -14.7174, 13.5305 ], [ -14.7114, 13.5344 ], [ -14.7159, 13.5367 ], [ -14.7439, 13.5356 ], [ -14.7657, 13.546 ], [ -14.7927, 13.5455 ], [ -14.8065, 13.5565 ], [ -14.8022, 13.5473 ], [ -14.7787, 13.5271 ], [ -14.761, 13.5233 ] ] ] } },
{ "type": "Feature", "properties": { "iso3": "GMB", "unit_id": "55004077B40412775642667", "unit_name": "Niamina Dankunku" }, "geometry": { "type": "Polygon", "coordinates": [ [ [ -15.2794, 13.5999 ], [ -15.2782, 13.6066 ], [ -15.2831, 13.6106 ], [ -15.2601, 13.6539 ], [ -15.2795, 13.6647 ], [ -15.3022, 13.6896 ], [ -15.3088, 13.6922 ], [ -15.323, 13.691 ], [ -15.3367, 13.6849 ], [ -15.3564, 13.6656 ], [ -15.3693, 13.6287 ], [ -15.3727, 13.6071 ], [ -15.3734, 13.5602 ], [ -15.3698, 13.5485 ], [ -15.3534, 13.5203 ], [ -15.3456, 13.5158 ], [ -15.336, 13.5367 ], [ -15.3381, 13.5438 ], [ -15.3354, 13.5474 ], [ -15.3261, 13.5492 ], [ -15.3096, 13.5825 ], [ -15.3002, 13.5916 ], [ -15.293, 13.5898 ], [ -15.2943, 13.5971 ], [ -15.287, 13.6028 ], [ -15.2794, 13.5999 ] ] ] } },
{ "type": "Feature", "properties": { "iso3": "GMB", "unit_id": "55004077B86773028962967", "unit_name": "Niamina East" }, "geometry": { "type": "Polygon", "coordinates": [ [ [ -14.9764, 13.613 ], [ -14.9703, 13.6228 ], [ -14.9562, 13.6355 ], [ -14.9212, 13.645 ], [ -14.899, 13.6597 ], [ -14.8935, 13.6664 ], [ -14.8918, 13.6919 ], [ -14.9046, 13.7008 ], [ -14.9548, 13.7112 ], [ -15.0037, 13.7 ], [ -15.0503, 13.7249 ], [ -15.0714, 13.7216 ], [ -15.101, 13.7086 ], [ -15.2058, 13.645 ], [ -15.215, 13.6421 ], [ -15.2086, 13.6292 ], [ -15.2161, 13.6239 ], [ -15.2088, 13.6098 ], [ -15.1798, 13.5913 ], [ -15.1795, 13.5809 ], [ -15.1686, 13.546 ], [ -15.1425, 13.5592 ], [ -15.117, 13.5848 ], [ -15.0766, 13.5846 ], [ -15.074, 13.5566 ], [ -15.0659, 13.5413 ], [ -14.9835, 13.6136 ], [ -14.9764, 13.613 ] ] ] } },
{ "type": "Feature", "properties": { "iso3": "GMB", "unit_id": "55004077B67372922978480", "unit_name": "Niamina West" }, "geometry": { "type": "Polygon", "coordinates": [ [ [ -15.3456, 13.5158 ], [ -15.2998, 13.5046 ], [ -15.296, 13.5091 ], [ -15.2971, 13.5134 ], [ -15.2913, 13.5189 ], [ -15.2831, 13.5182 ], [ -15.2798, 13.5224 ], [ -15.2751, 13.5205 ], [ -15.269, 13.5272 ], [ -15.2704, 13.5307 ], [ -15.2648, 13.5328 ], [ -15.2571, 13.5281 ], [ -15.2567, 13.5244 ], [ -15.2622, 13.5193 ], [ -15.256, 13.5171 ], [ -15.2563, 13.5201 ], [ -15.2426, 13.5294 ], [ -15.2455, 13.5367 ], [ -15.2382, 13.5413 ], [ -15.2366, 13.5471 ], [ -15.2294, 13.5436 ], [ -15.2226, 13.5462 ], [ -15.2202, 13.5445 ], [ -15.2212, 13.537 ], [ -15.2153, 13.5352 ], [ -15.2042, 13.544 ], [ -15.2041, 13.5497 ], [ -15.2117, 13.5531 ], [ -15.2058, 13.5583 ], [ -15.1953, 13.5583 ], [ -15.1868, 13.5544 ], [ -15.1824, 13.5561 ], [ -15.1772, 13.5509 ], [ -15.1705, 13.5514 ], [ -15.1795, 13.5809 ], [ -15.1798, 13.5913 ], [ -15.2088, 13.6098 ], [ -15.2161, 13.6239 ], [ -15.2086, 13.6292 ], [ -15.215, 13.6421 ], [ -15.2403, 13.6434 ], [ -15.2601, 13.6539 ], [ -15.2831, 13.6106 ], [ -15.2782, 13.6066 ], [ -15.2794, 13.5999 ], [ -15.287, 13.6028 ], [ -15.2943, 13.5971 ], [ -15.293, 13.5898 ], [ -15.3002, 13.5916 ], [ -15.3096, 13.5825 ], [ -15.3261, 13.5492 ], [ -15.3354, 13.5474 ], [ -15.3381, 13.5438 ], [ -15.336, 13.5367 ], [ -15.3456, 13.5158 ] ] ] } },
{ "type": "Feature", "properties": { "iso3": "GMB", "unit_id": "55004077B70100240404401", "unit_name": "Upper Fuladu West" }, "geometry": { "type": "Polygon", "coordinates": [ [ [ -14.5056, 13.4432 ], [ -14.5143, 13.4704 ], [ -14.5373, 13.472 ], [ -14.5526, 13.4834 ], [ -14.5734, 13.4868 ], [ -14.5791, 13.4908 ], [ -14.5803, 13.5025 ], [ -14.5674, 13.5323 ], [ -14.5694, 13.5505 ], [ -14.5763, 13.5606 ], [ -14.5955, 13.5658 ], [ -14.6115, 13.5608 ], [ -14.627, 13.5428 ], [ -14.6282, 13.5323 ], [ -14.6195, 13.4872 ], [ -14.6196, 13.4691 ], [ -14.6318, 13.4412 ], [ -14.6424, 13.4347 ], [ -14.6496, 13.4342 ], [ -14.6581, 13.444 ], [ -14.6826, 13.4888 ], [ -14.7035, 13.5098 ], [ -14.7114, 13.5344 ], [ -14.7174, 13.5305 ], [ -14.7348, 13.5308 ], [ -14.7488, 13.5259 ], [ -14.7476, 13.5114 ], [ -14.7913, 13.5085 ], [ -14.8161, 13.4371 ], [ -14.7688, 13.4351 ], [ -14.7629, 13.4202 ], [ -14.7329, 13.3807 ], [ -14.7212, 13.3762 ], [ -14.7009, 13.3558 ], [ -14.6894, 13.3485 ], [ -14.6654, 13.3436 ], [ -14.6321, 13.3438 ], [ -14.5908, 13.3557 ], [ -14.5809, 13.3634 ], [ -14.5464, 13.3213 ], [ -14.5267, 13.3622 ], [ -14.5279, 13.3844 ], [ -14.5236, 13.3802 ], [ -14.5097, 13.3803 ], [ -14.4979, 13.3851 ], [ -14.5044, 13.4104 ], [ -14.5056, 13.4432 ] ] ] } },
{ "type": "Feature", "properties": { "iso3": "GMB", "unit_id": "55004077B88761295961587", "unit_name": "Bakau" }, "geometry": { "type": "Polygon", "coordinates": [ [ [ -16.6928, 13.4615 ], [ -16.6818, 13.468 ], [ -16.6759, 13.4572 ], [ -16.6698, 13.4657 ], [ -16.6636, 13.466 ], [ -16.6557, 13.4635 ], [ -16.6544, 13.4581 ], [ -16.6446, 13.4589 ], [ -16.6406, 13.4536 ], [ -16.6329, 13.4547 ], [ -16.6288, 13.468 ], [ -16.6421, 13.4742 ], [ -16.6591, 13.4744 ], [ -16.6674, 13.4892 ], [ -16.6712, 13.4846 ], [ -16.6937, 13.4758 ], [ -16.7026, 13.4667 ], [ -16.6928, 13.4615 ] ] ] } },
{ "type": "Feature", "properties": { "iso3": "GMB", "unit_id": "55004077B28869988146542", "unit_name": "Jeshwang" }, "geometry": { "type": "Polygon", "coordinates": [ [ [ -16.6888, 13.4642 ], [ -16.6756, 13.4451 ], [ -16.6764, 13.4359 ], [ -16.6568, 13.4353 ], [ -16.6554, 13.4416 ], [ -16.6611, 13.4466 ], [ -16.6543, 13.4516 ], [ -16.6495, 13.4511 ], [ -16.6488, 13.4476 ], [ -16.6468, 13.4504 ], [ -16.6434, 13.4493 ], [ -16.6406, 13.4536 ], [ -16.6446, 13.4589 ], [ -16.6544, 13.4581 ], [ -16.6557, 13.4635 ], [ -16.6636, 13.466 ], [ -16.6698, 13.4657 ], [ -16.6759, 13.4572 ], [ -16.6818, 13.468 ], [ -16.6888, 13.4642 ] ] ] } },
{ "type": "Feature", "properties": { "iso3": "GMB", "unit_id": "55004077B12042932944174", "unit_name": "Mangrove" }, "geometry": { "type": "Polygon", "coordinates": [ [ [ -16.6271, 13.4679 ], [ -16.6329, 13.4547 ], [ -16.6406, 13.4536 ], [ -16.6488, 13.4476 ], [ -16.6495, 13.4511 ], [ -16.6543, 13.4516 ], [ -16.6611, 13.4466 ], [ -16.6554, 13.4416 ], [ -16.656, 13.4238 ], [ -16.6499, 13.4224 ], [ -16.6555, 13.4167 ], [ -16.6384, 13.4079 ], [ -16.6328, 13.3993 ], [ -16.6222, 13.4015 ], [ -16.6225, 13.387 ], [ -16.6157, 13.3853 ], [ -16.6177, 13.3826 ], [ -16.613, 13.3796 ], [ -16.5856, 13.386 ], [ -16.5968, 13.407 ], [ -16.6054, 13.4337 ], [ -16.6029, 13.4436 ], [ -16.6128, 13.4474 ], [ -16.6075, 13.4598 ], [ -16.6186, 13.4667 ], [ -16.6271, 13.4679 ] ] ] } },
{ "type": "Feature", "properties": { "iso3": "GMB", "unit_id": "55004077B86814038041460", "unit_name": "Sere Kunda Central" }, "geometry": { "type": "Polygon", "coordinates": [ [ [ -16.6843, 13.4166 ], [ -16.6736, 13.4189 ], [ -16.6756, 13.4451 ], [ -16.691, 13.4337 ], [ -16.6894, 13.4187 ], [ -16.6843, 13.4166 ] ] ] } },
{ "type": "Feature", "properties": { "iso3": "GMB", "unit_id": "55004077B89292634867349", "unit_name": "Sere Kunda East" }, "geometry": { "type": "Polygon", "coordinates": [ [ [ -16.6352, 13.4042 ], [ -16.6555, 13.4167 ], [ -16.6499, 13.4224 ], [ -16.656, 13.4238 ], [ -16.654, 13.4269 ], [ -16.6574, 13.429 ], [ -16.6568, 13.4353 ], [ -16.6764, 13.4359 ], [ -16.6736, 13.4189 ], [ -16.6843, 13.4166 ], [ -16.6657, 13.4039 ], [ -16.6596, 13.3844 ], [ -16.6441, 13.3951 ], [ -16.6425, 13.402 ], [ -16.6352, 13.4042 ] ] ] } },
{ "type": "Feature", "properties": { "iso3": "GMB", "unit_id": "55004077B25403081930845", "unit_name": "Sere Kunda West" }, "geometry": { "type": "Polygon", "coordinates": [ [ [ -16.6917, 13.4262 ], [ -16.691, 13.4337 ], [ -16.6756, 13.4451 ], [ -16.6888, 13.4642 ], [ -16.6928, 13.4615 ], [ -16.7026, 13.4667 ], [ -16.7075, 13.4607 ], [ -16.7148, 13.4589 ], [ -16.7246, 13.444 ], [ -16.719, 13.4411 ], [ -16.7072, 13.4413 ], [ -16.7048, 13.4281 ], [ -16.6917, 13.4262 ] ] ] } },
{ "type": "Feature", "properties": { "iso3": "GMB", "unit_id": "55004077B75275433744395", "unit_name": "Central Baddibu" }, "geometry": { "type": "Polygon", "coordinates": [ [ [ -15.8172, 13.4598 ], [ -15.8175, 13.4745 ], [ -15.8218, 13.475 ], [ -15.8304, 13.4926 ], [ -15.8414, 13.5001 ], [ -15.8343, 13.5039 ], [ -15.8322, 13.5109 ], [ -15.8351, 13.5111 ], [ -15.8376, 13.5179 ], [ -15.8428, 13.5175 ], [ -15.8438, 13.5289 ], [ -15.8518, 13.5319 ], [ -15.8604, 13.5672 ], [ -15.8498, 13.5808 ], [ -15.8489, 13.593 ], [ -15.9902, 13.5931 ], [ -15.9904, 13.5542 ], [ -16.0013, 13.5018 ], [ -15.9966, 13.4981 ], [ -15.9992, 13.4957 ], [ -15.9982, 13.4896 ], [ -16.0014, 13.4898 ], [ -15.9966, 13.4809 ], [ -15.9992, 13.4807 ], [ -15.998, 13.4783 ], [ -16.0022, 13.4793 ], [ -16.0006, 13.4757 ], [ -16.0035, 13.4708 ], [ -15.9987, 13.4717 ], [ -15.9984, 13.4668 ], [ -16.0022, 13.4665 ], [ -16.0011, 13.4618 ], [ -15.9972, 13.4602 ], [ -15.9992, 13.4552 ], [ -15.9902, 13.4488 ], [ -15.9669, 13.4469 ], [ -15.9333, 13.4524 ], [ -15.9056, 13.4485 ], [ -15.8786, 13.461 ], [ -15.8533, 13.4676 ], [ -15.8172, 13.4598 ] ] ] } },
{ "type": "Feature", "properties": { "iso3": "GMB", "unit_id": "55004077B55501589180094", "unit_name": "Jokadu" }, "geometry": { "type": "Polygon", "coordinates": [ [ [ -16.0305, 13.5929 ], [ -16.1236, 13.5932 ], [ -16.1329, 13.6023 ], [ -16.1488, 13.602 ], [ -16.153, 13.5931 ], [ -16.3098, 13.5938 ], [ -16.2889, 13.5529 ], [ -16.2879, 13.5308 ], [ -16.267, 13.5316 ], [ -16.2542, 13.5301 ], [ -16.2511, 13.5267 ], [ -16.2457, 13.5305 ], [ -16.2376, 13.5184 ], [ -16.2319, 13.5182 ], [ -16.2331, 13.5137 ], [ -16.2301, 13.5168 ], [ -16.2257, 13.5141 ], [ -16.2242, 13.5061 ], [ -16.2297, 13.5089 ], [ -16.2311, 13.5057 ], [ -16.2267, 13.4993 ], [ -16.2251, 13.5034 ], [ -16.2209, 13.5024 ], [ -16.2188, 13.4949 ], [ -16.2204, 13.4871 ], [ -16.2308, 13.4743 ], [ -16.2301, 13.4611 ], [ -16.2361, 13.4539 ], [ -16.239, 13.4424 ], [ -16.2336, 13.4276 ], [ -16.2398, 13.4217 ], [ -16.2444, 13.422 ], [ -16.2443, 13.4186 ], [ -16.2276, 13.4215 ], [ -16.208, 13.4156 ], [ -16.1854, 13.4314 ], [ -16.1811, 13.4388 ], [ -16.1459, 13.454 ], [ -16.1283, 13.4545 ], [ -16.1166, 13.4485 ], [ -16.0833, 13.4412 ], [ -16.0627, 13.4427 ], [ -16.0715, 13.4674 ], [ -16.0742, 13.5168 ], [ -16.0558, 13.5258 ], [ -16.0305, 13.5929 ] ] ] } },
{ "type": "Feature", "properties": { "iso3": "GMB", "unit_id": "55004077B94212048866336", "unit_name": "Lower Baddibu" }, "geometry": { "type": "Polygon", "coordinates": [ [ [ -15.9902, 13.5931 ], [ -16.0305, 13.5929 ], [ -16.0558, 13.5258 ], [ -16.0742, 13.5168 ], [ -16.0715, 13.4674 ], [ -16.0627, 13.4427 ], [ -15.9948, 13.4458 ], [ -15.9902, 13.4488 ], [ -15.9992, 13.4552 ], [ -15.9972, 13.4602 ], [ -16.0011, 13.4618 ], [ -16.0022, 13.4665 ], [ -15.9984, 13.4668 ], [ -15.9987, 13.4717 ], [ -16.0035, 13.4708 ], [ -16.0006, 13.4757 ], [ -16.0022, 13.4793 ], [ -15.998, 13.4783 ], [ -15.9992, 13.4807 ], [ -15.9966, 13.4809 ], [ -16.0014, 13.4898 ], [ -15.9982, 13.4896 ], [ -15.9992, 13.4957 ], [ -15.9966, 13.4981 ], [ -16.0013, 13.5018 ], [ -15.9904, 13.5542 ], [ -15.9902, 13.5931 ] ] ] } },
{ "type": "Feature", "properties": { "iso3": "GMB", "unit_id": "55004077B23967848710176", "unit_name": "Lower Niumi" }, "geometry": { "type": "Polygon", "coordinates": [ [ [ -16.3098, 13.5938 ], [ -16.5457, 13.5934 ], [ -16.5485, 13.5872 ], [ -16.5286, 13.5544 ], [ -16.5271, 13.5312 ], [ -16.5331, 13.509 ], [ -16.5432, 13.4898 ], [ -16.5498, 13.4872 ], [ -16.5446, 13.4805 ], [ -16.53, 13.4778 ], [ -16.5288, 13.4715 ], [ -16.5097, 13.4689 ], [ -16.501, 13.4635 ], [ -16.4806, 13.4392 ], [ -16.4846, 13.4397 ], [ -16.4849, 13.437 ], [ -16.4774, 13.4237 ], [ -16.4687, 13.4267 ], [ -16.4627, 13.4251 ], [ -16.4628, 13.4274 ], [ -16.4577, 13.4249 ], [ -16.4572, 13.4189 ], [ -16.4436, 13.4221 ], [ -16.4406, 13.4248 ], [ -16.4441, 13.4389 ], [ -16.4358, 13.4532 ], [ -16.4276, 13.4584 ], [ -16.4093, 13.4601 ], [ -16.3966, 13.4657 ], [ -16.3827, 13.479 ], [ -16.3265, 13.5002 ], [ -16.3072, 13.519 ], [ -16.2919, 13.5236 ], [ -16.2879, 13.5308 ], [ -16.2889, 13.5529 ], [ -16.3098, 13.5938 ] ] ] } },
{ "type": "Feature", "properties": { "iso3": "GMB", "unit_id": "55004077B55369154139455", "unit_name": "Illiassa" }, "geometry": { "type": "Polygon", "coordinates": [ [ [ -15.8172, 13.4598 ], [ -15.7889, 13.4553 ], [ -15.7359, 13.4669 ], [ -15.7091, 13.4881 ], [ -15.6976, 13.4789 ], [ -15.6848, 13.4901 ], [ -15.6695, 13.4945 ], [ -15.6508, 13.4898 ], [ -15.6218, 13.4658 ], [ -15.6038, 13.4639 ], [ -15.5968, 13.4676 ], [ -15.5787, 13.5118 ], [ -15.5619, 13.5189 ], [ -15.5816, 13.5683 ], [ -15.581, 13.591 ], [ -15.8489, 13.593 ], [ -15.8498, 13.5808 ], [ -15.8604, 13.5672 ], [ -15.8518, 13.5319 ], [ -15.8438, 13.5289 ], [ -15.8428, 13.5175 ], [ -15.8376, 13.5179 ], [ -15.8351, 13.5111 ], [ -15.8322, 13.5109 ], [ -15.8343, 13.5039 ], [ -15.8414, 13.5001 ], [ -15.8304, 13.4926 ], [ -15.8218, 13.475 ], [ -15.8175, 13.4745 ], [ -15.8172, 13.4598 ] ] ] } },
{ "type": "Feature", "properties": { "iso3": "GMB", "unit_id": "55004077B7044737878420", "unit_name": "Upper Niumi" }, "geometry": { "type": "Polygon", "coordinates": [ [ [ -16.2879, 13.5308 ], [ -16.2919, 13.5236 ], [ -16.3072, 13.519 ], [ -16.3265, 13.5002 ], [ -16.3827, 13.479 ], [ -16.3966, 13.4657 ], [ -16.4093, 13.4601 ], [ -16.4276, 13.4584 ], [ -16.4358, 13.4532 ], [ -16.4441, 13.4389 ], [ -16.4406, 13.4248 ], [ -16.4436, 13.4221 ], [ -16.4572, 13.4189 ], [ -16.4577, 13.4249 ], [ -16.4628, 13.4274 ], [ -16.4627, 13.4251 ], [ -16.4687, 13.4267 ], [ -16.4774, 13.4237 ], [ -16.4826, 13.3911 ], [ -16.4965, 13.3788 ], [ -16.4985, 13.3719 ], [ -16.5075, 13.362 ], [ -16.4751, 13.3597 ], [ -16.455, 13.3547 ], [ -16.4411, 13.3492 ], [ -16.4113, 13.3282 ], [ -16.3548, 13.3398 ], [ -16.3354, 13.3472 ], [ -16.3206, 13.3444 ], [ -16.3156, 13.3382 ], [ -16.3101, 13.3375 ], [ -16.283, 13.3578 ], [ -16.2641, 13.3655 ], [ -16.2453, 13.3785 ], [ -16.2114, 13.4075 ], [ -16.208, 13.4156 ], [ -16.2276, 13.4215 ], [ -16.2443, 13.4186 ], [ -16.2444, 13.422 ], [ -16.2398, 13.4217 ], [ -16.2336, 13.4276 ], [ -16.239, 13.4424 ], [ -16.2361, 13.4539 ], [ -16.2301, 13.4611 ], [ -16.2308, 13.4743 ], [ -16.2204, 13.4871 ], [ -16.2209, 13.5024 ], [ -16.2251, 13.5034 ], [ -16.2267, 13.4993 ], [ -16.2311, 13.5057 ], [ -16.2297, 13.5089 ], [ -16.2242, 13.5061 ], [ -16.2257, 13.5141 ], [ -16.2301, 13.5168 ], [ -16.2331, 13.5137 ], [ -16.2319, 13.5182 ], [ -16.2376, 13.5184 ], [ -16.2457, 13.5305 ], [ -16.2511, 13.5267 ], [ -16.2542, 13.5301 ], [ -16.267, 13.5316 ], [ -16.2879, 13.5308 ] ] ] } },
{ "type": "Feature", "properties": { "iso3": "GMB", "unit_id": "55004077B21886762637161", "unit_name": "Sabach - Sanjal" }, "geometry": { "type": "Polygon", "coordinates": [ [ [ -15.3693, 13.6287 ], [ -15.3992, 13.631 ], [ -15.3992, 13.6437 ], [ -15.4052, 13.6465 ], [ -15.4056, 13.6427 ], [ -15.4128, 13.6387 ], [ -15.4174, 13.6426 ], [ -15.4218, 13.6402 ], [ -15.4627, 13.6401 ], [ -15.4703, 13.5903 ], [ -15.581, 13.591 ], [ -15.5816, 13.5683 ], [ -15.5619, 13.5189 ], [ -15.5333, 13.5156 ], [ -15.4983, 13.4907 ], [ -15.4886, 13.4901 ], [ -15.4646, 13.4991 ], [ -15.448, 13.4983 ], [ -15.4159, 13.462 ], [ -15.3876, 13.447 ], [ -15.3582, 13.4375 ], [ -15.3496, 13.4364 ], [ -15.3144, 13.4505 ], [ -15.3049, 13.4637 ], [ -15.3019, 13.493 ], [ -15.3045, 13.5039 ], [ -15.3103, 13.509 ], [ -15.3434, 13.5145 ], [ -15.3583, 13.5258 ], [ -15.3734, 13.5602 ], [ -15.3741, 13.586 ], [ -15.3693, 13.6287 ] ] ] } },
{ "type": "Feature", "properties": { "iso3": "GMB", "unit_id": "55004077B58099245536943", "unit_name": "Lower Saloum" }, "geometry": { "type": "Polygon", "coordinates": [ [ [ -15.2932, 13.6802 ], [ -15.2908, 13.6831 ], [ -15.2907, 13.7084 ], [ -15.2991, 13.7215 ], [ -15.3867, 13.7718 ], [ -15.4135, 13.7474 ], [ -15.4498, 13.6821 ], [ -15.4627, 13.6401 ], [ -15.4218, 13.6402 ], [ -15.4174, 13.6426 ], [ -15.4128, 13.6387 ], [ -15.4056, 13.6427 ], [ -15.4052, 13.6465 ], [ -15.3992, 13.6437 ], [ -15.3992, 13.631 ], [ -15.3693, 13.6287 ], [ -15.3564, 13.6656 ], [ -15.3367, 13.6849 ], [ -15.323, 13.691 ], [ -15.3088, 13.6922 ], [ -15.2932, 13.6802 ] ] ] } },
{ "type": "Feature", "properties": { "iso3": "GMB", "unit_id": "55004077B61753043102901", "unit_name": "Niani" }, "geometry": { "type": "Polygon", "coordinates": [ [ [ -14.8394, 13.565 ], [ -14.8402, 13.5784 ], [ -14.8438, 13.5806 ], [ -14.8392, 13.5825 ], [ -14.8406, 13.5847 ], [ -14.8357, 13.5843 ], [ -14.8364, 13.5918 ], [ -14.8266, 13.5943 ], [ -14.8279, 13.5977 ], [ -14.8236, 13.5962 ], [ -14.8223, 13.5995 ], [ -14.8133, 13.597 ], [ -14.8068, 13.6007 ], [ -14.8049, 13.5983 ], [ -14.8002, 13.6008 ], [ -14.7955, 13.599 ], [ -14.7841, 13.607 ], [ -14.7822, 13.6002 ], [ -14.7859, 13.5973 ], [ -14.7859, 13.591 ], [ -14.7744, 13.5963 ], [ -14.7546, 13.5924 ], [ -14.7482, 13.5976 ], [ -14.7413, 13.5932 ], [ -14.7393, 13.5856 ], [ -14.7238, 13.5817 ], [ -14.7385, 13.627 ], [ -14.7601, 13.6379 ], [ -14.7964, 13.6667 ], [ -14.8044, 13.7055 ], [ -14.8009, 13.7334 ], [ -14.8045, 13.7456 ], [ -14.8105, 13.7526 ], [ -14.8312, 13.7544 ], [ -14.8594, 13.7794 ], [ -14.8873, 13.7928 ], [ -14.9253, 13.7959 ], [ -14.9446, 13.7931 ], [ -14.962, 13.7867 ], [ -14.9926, 13.7993 ], [ -14.9968, 13.7894 ], [ -15.0067, 13.792 ], [ -15.0107, 13.7876 ], [ -15.0141, 13.7887 ], [ -15.0131, 13.7813 ], [ -15.0219, 13.7788 ], [ -15.0188, 13.7742 ], [ -15.0194, 13.7571 ], [ -15.01, 13.7575 ], [ -15.0002, 13.7415 ], [ -14.9965, 13.7224 ], [ -14.9995, 13.7181 ], [ -14.9936, 13.7126 ], [ -14.9924, 13.701 ], [ -14.9548, 13.7112 ], [ -14.9046, 13.7008 ], [ -14.896, 13.6962 ], [ -14.8904, 13.6877 ], [ -14.8935, 13.6664 ], [ -14.899, 13.6597 ], [ -14.9212, 13.645 ], [ -14.9562, 13.6355 ], [ -14.9703, 13.6228 ], [ -14.9777, 13.6049 ], [ -14.9691, 13.5823 ], [ -14.9569, 13.5762 ], [ -14.9076, 13.5783 ], [ -14.8624, 13.5527 ], [ -14.8394, 13.565 ] ] ] } },
{ "type": "Feature", "properties": { "iso3": "GMB", "unit_id": "55004077B57183122866471", "unit_name": "Nianija" }, "geometry": { "type": "Polygon", "coordinates": [ [ [ -14.9924, 13.701 ], [ -14.9936, 13.7126 ], [ -14.9995, 13.7181 ], [ -14.9965, 13.7224 ], [ -15.0002, 13.7415 ], [ -15.01, 13.7575 ], [ -15.0194, 13.7571 ], [ -15.0188, 13.7742 ], [ -15.0219, 13.7788 ], [ -15.0297, 13.7778 ], [ -15.0293, 13.7815 ], [ -15.0357, 13.7827 ], [ -15.0446, 13.7752 ], [ -15.0598, 13.7693 ], [ -15.0654, 13.7718 ], [ -15.0974, 13.7573 ], [ -15.1034, 13.7593 ], [ -15.1057, 13.7659 ], [ -15.1176, 13.7711 ], [ -15.124, 13.7696 ], [ -15.124, 13.7652 ], [ -15.1281, 13.7643 ], [ -15.1382, 13.773 ], [ -15.1401, 13.7639 ], [ -15.1462, 13.7588 ], [ -15.1572, 13.7621 ], [ -15.1594, 13.7577 ], [ -15.1548, 13.7486 ], [ -15.1615, 13.7401 ], [ -15.1719, 13.7364 ], [ -15.1736, 13.7315 ], [ -15.1699, 13.7264 ], [ -15.1727, 13.7228 ], [ -15.1773, 13.7247 ], [ -15.1814, 13.722 ], [ -15.1812, 13.7163 ], [ -15.175, 13.7163 ], [ -15.173, 13.7084 ], [ -15.1734, 13.6997 ], [ -15.1842, 13.7011 ], [ -15.188, 13.6941 ], [ -15.1877, 13.6909 ], [ -15.1816, 13.6893 ], [ -15.1808, 13.6805 ], [ -15.1943, 13.6711 ], [ -15.198, 13.6713 ], [ -15.1997, 13.6767 ], [ -15.2093, 13.6738 ], [ -15.2154, 13.6677 ], [ -15.2164, 13.6592 ], [ -15.2097, 13.6583 ], [ -15.1999, 13.6508 ], [ -15.1334, 13.691 ], [ -15.0714, 13.7216 ], [ -15.0503, 13.7249 ], [ -15.0037, 13.7 ], [ -14.9924, 13.701 ] ] ] } },
{ "type": "Feature", "properties": { "iso3": "GMB", "unit_id": "55004077B40403155992222", "unit_name": "Sami" }, "geometry": { "type": "Polygon", "coordinates": [ [ [ -14.4463, 13.5277 ], [ -14.4673, 13.5424 ], [ -14.4919, 13.6056 ], [ -14.5036, 13.6216 ], [ -14.5191, 13.6368 ], [ -14.5419, 13.6507 ], [ -14.5644, 13.6548 ], [ -14.5899, 13.6554 ], [ -14.6395, 13.6493 ], [ -14.6609, 13.6428 ], [ -14.7175, 13.6169 ], [ -14.7385, 13.627 ], [ -14.7238, 13.5817 ], [ -14.7393, 13.5856 ], [ -14.7413, 13.5932 ], [ -14.7482, 13.5976 ], [ -14.7546, 13.5924 ], [ -14.7744, 13.5963 ], [ -14.7859, 13.591 ], [ -14.7859, 13.5973 ], [ -14.7822, 13.6002 ], [ -14.7841, 13.607 ], [ -14.7955, 13.599 ], [ -14.8002, 13.6008 ], [ -14.8049, 13.5983 ], [ -14.8068, 13.6007 ], [ -14.8133, 13.597 ], [ -14.8223, 13.5995 ], [ -14.8236, 13.5962 ], [ -14.8279, 13.5977 ], [ -14.8266, 13.5943 ], [ -14.8364, 13.5918 ], [ -14.8357, 13.5843 ], [ -14.8406, 13.5847 ], [ -14.8392, 13.5825 ], [ -14.8438, 13.5806 ], [ -14.8402, 13.5784 ], [ -14.8394, 13.565 ], [ -14.8119, 13.5623 ], [ -14.7927, 13.5455 ], [ -14.7657, 13.546 ], [ -14.7439, 13.5356 ], [ -14.7159, 13.5367 ], [ -14.7114, 13.5344 ], [ -14.7035, 13.5098 ], [ -14.6826, 13.4888 ], [ -14.6581, 13.444 ], [ -14.6496, 13.4342 ], [ -14.6424, 13.4347 ], [ -14.6318, 13.4412 ], [ -14.6196, 13.4691 ], [ -14.6195, 13.4872 ], [ -14.6282, 13.5323 ], [ -14.627, 13.5428 ], [ -14.6115, 13.5608 ], [ -14.5876, 13.5653 ], [ -14.5714, 13.5567 ], [ -14.5674, 13.5323 ], [ -14.5803, 13.5025 ], [ -14.5791, 13.4908 ], [ -14.5734, 13.4868 ], [ -14.5526, 13.4834 ], [ -14.5373, 13.472 ], [ -14.5143, 13.4704 ], [ -14.5099, 13.46 ], [ -14.5066, 13.4587 ], [ -14.4994, 13.4677 ], [ -14.4886, 13.4682 ], [ -14.476, 13.4734 ], [ -14.4742, 13.48 ], [ -14.4821, 13.4964 ], [ -14.4615, 13.5098 ], [ -14.4463, 13.5277 ] ] ] } },
{ "type": "Feature", "properties": { "iso3": "GMB", "unit_id": "55004077B50371282105159", "unit_name": "Upper Saloum" }, "geometry": { "type": "Polygon", "coordinates": [ [ [ -15.2795, 13.6647 ], [ -15.2403, 13.6434 ], [ -15.2119, 13.6419 ], [ -15.1999, 13.6508 ], [ -15.2097, 13.6583 ], [ -15.2164, 13.6592 ], [ -15.2154, 13.6677 ], [ -15.2037, 13.6768 ], [ -15.1943, 13.6711 ], [ -15.1808, 13.6805 ], [ -15.1816, 13.6893 ], [ -15.1877, 13.6909 ], [ -15.188, 13.6941 ], [ -15.1842, 13.7011 ], [ -15.1734, 13.6997 ], [ -15.173, 13.7084 ], [ -15.175, 13.7163 ], [ -15.1812, 13.7163 ], [ -15.1814, 13.722 ], [ -15.1773, 13.7247 ], [ -15.1727, 13.7228 ], [ -15.1699, 13.7264 ], [ -15.1736, 13.7315 ], [ -15.1719, 13.7364 ], [ -15.1615, 13.7401 ], [ -15.1548, 13.7486 ], [ -15.1594, 13.7577 ], [ -15.1572, 13.7621 ], [ -15.1462, 13.7588 ], [ -15.1401, 13.7639 ], [ -15.1382, 13.773 ], [ -15.1281, 13.7643 ], [ -15.124, 13.7652 ], [ -15.124, 13.7696 ], [ -15.1176, 13.7711 ], [ -15.1057, 13.7659 ], [ -15.1034, 13.7593 ], [ -15.0931, 13.758 ], [ -15.0654, 13.7718 ], [ -15.0598, 13.7693 ], [ -15.0446, 13.7752 ], [ -15.0357, 13.7827 ], [ -15.0293, 13.7815 ], [ -15.0297, 13.7778 ], [ -15.0147, 13.7793 ], [ -15.0141, 13.7887 ], [ -15.0107, 13.7876 ], [ -15.0067, 13.792 ], [ -14.9968, 13.7894 ], [ -14.9926, 13.7993 ], [ -15.0088, 13.8072 ], [ -15.0714, 13.8227 ], [ -15.1332, 13.7971 ], [ -15.2005, 13.7623 ], [ -15.2175, 13.7497 ], [ -15.2263, 13.749 ], [ -15.2379, 13.75 ], [ -15.2486, 13.7656 ], [ -15.2646, 13.7778 ], [ -15.2945, 13.7905 ], [ -15.3477, 13.7879 ], [ -15.3728, 13.7801 ], [ -15.3867, 13.7718 ], [ -15.2991, 13.7215 ], [ -15.2907, 13.7084 ], [ -15.2908, 13.6831 ], [ -15.2932, 13.6802 ], [ -15.2795, 13.6647 ] ] ] } },
{ "type": "Feature", "properties": { "iso3": "GMB", "unit_id": "55004077B51333004535766", "unit_name": "Jarra Central" }, "geometry": { "type": "Polygon", "coordinates": [ [ [ -15.448, 13.4983 ], [ -15.4492, 13.4581 ], [ -15.4846, 13.4579 ], [ -15.4843, 13.391 ], [ -15.3998, 13.3523 ], [ -15.3665, 13.3452 ], [ -15.3458, 13.3456 ], [ -15.3462, 13.4375 ], [ -15.3582, 13.4375 ], [ -15.4014, 13.4529 ], [ -15.4216, 13.4671 ], [ -15.441, 13.4932 ], [ -15.448, 13.4983 ] ] ] } },
{ "type": "Feature", "properties": { "iso3": "GMB", "unit_id": "55004077B52085199197524", "unit_name": "Jarra East" }, "geometry": { "type": "Polygon", "coordinates": [ [ [ -15.1705, 13.5514 ], [ -15.1772, 13.5509 ], [ -15.1824, 13.5561 ], [ -15.1868, 13.5544 ], [ -15.1953, 13.5583 ], [ -15.2058, 13.5583 ], [ -15.2117, 13.5531 ], [ -15.2041, 13.5497 ], [ -15.2042, 13.544 ], [ -15.2153, 13.5352 ], [ -15.2212, 13.537 ], [ -15.2202, 13.5445 ], [ -15.2226, 13.5462 ], [ -15.2294, 13.5436 ], [ -15.2366, 13.5471 ], [ -15.2382, 13.5413 ], [ -15.2455, 13.5367 ], [ -15.2426, 13.5294 ], [ -15.2563, 13.5201 ], [ -15.256, 13.5171 ], [ -15.2622, 13.5193 ], [ -15.2567, 13.5244 ], [ -15.2571, 13.5281 ], [ -15.2648, 13.5328 ], [ -15.2704, 13.5307 ], [ -15.269, 13.5272 ], [ -15.2751, 13.5205 ], [ -15.2798, 13.5224 ], [ -15.2831, 13.5182 ], [ -15.2913, 13.5189 ], [ -15.2971, 13.5134 ], [ -15.296, 13.5091 ], [ -15.3045, 13.5039 ], [ -15.3023, 13.4839 ], [ -15.3068, 13.4583 ], [ -15.3144, 13.4505 ], [ -15.3462, 13.4375 ], [ -15.3458, 13.3456 ], [ -15.3162, 13.3514 ], [ -15.2809, 13.3644 ], [ -15.2478, 13.3853 ], [ -15.2297, 13.4055 ], [ -15.2184, 13.4259 ], [ -15.2109, 13.4479 ], [ -15.2078, 13.4723 ], [ -15.2106, 13.5269 ], [ -15.1694, 13.5436 ], [ -15.1705, 13.5514 ] ] ] } },
{ "type": "Feature", "properties": { "iso3": "GMB", "unit_id": "55004077B6312189182709", "unit_name": "Jarra West" }, "geometry": { "type": "Polygon", "coordinates": [ [ [ -15.6038, 13.4639 ], [ -15.5999, 13.4381 ], [ -15.6009, 13.3909 ], [ -15.5672, 13.3588 ], [ -15.5166, 13.3957 ], [ -15.4843, 13.391 ], [ -15.4846, 13.4579 ], [ -15.4492, 13.4581 ], [ -15.448, 13.4983 ], [ -15.4646, 13.4991 ], [ -15.4886, 13.4901 ], [ -15.4983, 13.4907 ], [ -15.5333, 13.5156 ], [ -15.5462, 13.5185 ], [ -15.5714, 13.517 ], [ -15.5787, 13.5118 ], [ -15.5968, 13.4676 ], [ -15.6038, 13.4639 ] ] ] } },
{ "type": "Feature", "properties": { "iso3": "GMB", "unit_id": "55004077B51665972905277", "unit_name": "Kiang Central" }, "geometry": { "type": "Polygon", "coordinates": [ [ [ -15.7937, 13.3474 ], [ -15.7443, 13.3492 ], [ -15.6873, 13.3649 ], [ -15.6871, 13.47 ], [ -15.6979, 13.4587 ], [ -15.7573, 13.4453 ], [ -15.814, 13.4378 ], [ -15.8243, 13.4407 ], [ -15.8243, 13.3513 ], [ -15.7937, 13.3474 ] ] ] } },
{ "type": "Feature", "properties": { "iso3": "GMB", "unit_id": "55004077B579602364456", "unit_name": "Kiang East" }, "geometry": { "type": "Polygon", "coordinates": [ [ [ -15.6976, 13.4789 ], [ -15.6871, 13.47 ], [ -15.6873, 13.3649 ], [ -15.6651, 13.3529 ], [ -15.6441, 13.3462 ], [ -15.6308, 13.3454 ], [ -15.5918, 13.3492 ], [ -15.5672, 13.3588 ], [ -15.6009, 13.3909 ], [ -15.5999, 13.4381 ], [ -15.6038, 13.4639 ], [ -15.6218, 13.4658 ], [ -15.6392, 13.4819 ], [ -15.6587, 13.493 ], [ -15.6771, 13.4932 ], [ -15.6976, 13.4789 ] ] ] } },
{ "type": "Feature", "properties": { "iso3": "GMB", "unit_id": "55004077B30605930426440", "unit_name": "Kiang West" }, "geometry": { "type": "Polygon", "coordinates": [ [ [ -16.1923, 13.26 ], [ -16.1697, 13.2694 ], [ -16.1431, 13.2944 ], [ -16.1208, 13.295 ], [ -16.1107, 13.2899 ], [ -16.1109, 13.2844 ], [ -16.1165, 13.2802 ], [ -16.1251, 13.2796 ], [ -16.1249, 13.275 ], [ -16.0959, 13.2495 ], [ -16.0832, 13.2495 ], [ -16.0765, 13.2554 ], [ -16.0891, 13.2612 ], [ -16.0913, 13.2698 ], [ -16.0839, 13.2796 ], [ -16.0706, 13.2785 ], [ -16.0678, 13.2651 ], [ -16.0597, 13.264 ], [ -16.0517, 13.2743 ], [ -16.0309, 13.2761 ], [ -16.0116, 13.2968 ], [ -16.0058, 13.2961 ], [ -16.0052, 13.2914 ], [ -15.9996, 13.2872 ], [ -15.9938, 13.2973 ], [ -15.9763, 13.2988 ], [ -15.9657, 13.2884 ], [ -15.9612, 13.2932 ], [ -15.9514, 13.2929 ], [ -15.9527, 13.286 ], [ -15.9427, 13.2712 ], [ -15.9274, 13.2705 ], [ -15.925, 13.2777 ], [ -15.9189, 13.2772 ], [ -15.9139, 13.2708 ], [ -15.9163, 13.2651 ], [ -15.914, 13.2567 ], [ -15.8995, 13.2581 ], [ -15.8953, 13.2676 ], [ -15.8885, 13.2656 ], [ -15.8793, 13.2699 ], [ -15.8795, 13.2766 ], [ -15.875, 13.2812 ], [ -15.866, 13.2746 ], [ -15.8681, 13.2683 ], [ -15.8612, 13.2668 ], [ -15.8593, 13.2712 ], [ -15.8527, 13.2709 ], [ -15.8504, 13.2548 ], [ -15.8441, 13.2592 ], [ -15.8384, 13.2541 ], [ -15.8315, 13.253 ], [ -15.8253, 13.2606 ], [ -15.8075, 13.2589 ], [ -15.8057, 13.2554 ], [ -15.81, 13.2517 ], [ -15.8101, 13.2425 ], [ -15.8022, 13.2412 ], [ -15.8034, 13.3427 ], [ -15.7937, 13.3474 ], [ -15.8243, 13.3513 ], [ -15.8243, 13.4407 ], [ -15.8452, 13.4488 ], [ -15.8629, 13.4496 ], [ -15.8677, 13.4415 ], [ -15.877, 13.4385 ], [ -15.8817, 13.4319 ], [ -15.8943, 13.433 ], [ -15.9097, 13.4258 ], [ -15.9251, 13.4279 ], [ -15.9376, 13.4253 ], [ -15.9402, 13.4284 ], [ -15.9629, 13.4229 ], [ -16.0267, 13.4217 ], [ -16.0385, 13.4189 ], [ -16.0465, 13.4122 ], [ -16.0723, 13.4083 ], [ -16.1261, 13.4224 ], [ -16.1469, 13.4342 ], [ -16.1508, 13.4254 ], [ -16.1717, 13.4006 ], [ -16.208, 13.3707 ], [ -16.2232, 13.3387 ], [ -16.2213, 13.3261 ], [ -16.2021, 13.3021 ], [ -16.2096, 13.2689 ], [ -16.2076, 13.2531 ], [ -16.2037, 13.2495 ], [ -16.1923, 13.26 ] ] ] } }
]
}
