{
"type": "FeatureCollection",
"name": "GNB",
"crs": { "type": "name", "properties": { "name": "urn:ogc:def:crs:OGC:1.3:CRS84" } },
"xy_coordinate_resolution": 0.0001,
"features": [
{ "type": "Feature", "properties": { "iso3": "GNB", "unit_id": "89520995B58243846926779", "unit_name": "Bafata" }, "geometry": { "type": "Polygon", "coordinates": [ [ [ -14.7315, 12.0254 ], [ -14.7133, 12.0369 ], [ -14.7024, 12.04 ], [ -14.6315, 12.0321 ], [ -14.5667, 12.1054 ], [ -14.5461, 12.1175 ], [ -14.5361, 12.1138 ], [ -14.5241, 12.1213 ], [ -14.5085, 12.1242 ], [ -14.5129, 12.111 ], [ -14.5094, 12.1102 ], [ -14.49, 12.1174 ], [ -14.4844, 12.1274 ], [ -14.4786, 12.1255 ], [ -14.4731, 12.1298 ], [ -14.4653, 12.122 ], [ -14.4616, 12.1358 ], [ -14.4516, 12.1475 ], [ -14.4469, 12.1614 ], [ -14.4836, 12.2116 ], [ -14.4915, 12.2314 ], [ -14.4926, 12.2464 ], [ -14.4841, 12.2705 ], [ -14.4826, 12.2901 ], [ -14.5027, 12.322 ], [ -14.5306, 12.3491 ], [ -14.5522, 12.3507 ], [ -14.558, 12.3415 ], [ -14.5715, 12.343 ], [ -14.5812, 12.351 ], [ -14.5878, 12.3417 ], [ -14.5978, 12.3353 ], [ -14.6045, 12.3192 ], [ -14.6224, 12.3113 ], [ -14.6202, 12.3202 ], [ -14.6275, 12.322 ], [ -14.6354, 12.3116 ], [ -14.6611, 12.2933 ], [ -14.6826, 12.2854 ], [ -14.6698, 12.2598 ], [ -14.6621, 12.2561 ], [ -14.6599, 12.2514 ], [ -14.6665, 12.2454 ], [ -14.6821, 12.2475 ], [ -14.696, 12.2415 ], [ -14.6983, 12.2361 ], [ -14.6921, 12.2234 ], [ -14.6806, 12.2149 ], [ -14.6806, 12.2094 ], [ -14.6927, 12.1936 ], [ -14.7085, 12.1875 ], [ -14.7087, 12.1798 ], [ -14.701, 12.1687 ], [ -14.6957, 12.1663 ], [ -14.6813, 12.1673 ], [ -14.6763, 12.1636 ], [ -14.6891, 12.1552 ], [ -14.6883, 12.1488 ], [ -14.7076, 12.1487 ], [ -14.7087, 12.153 ], [ -14.7143, 12.1536 ], [ -14.7306, 12.1523 ], [ -14.7521, 12.1418 ], [ -14.7608, 12.1429 ], [ -14.7625, 12.1515 ], [ -14.7692, 12.1524 ], [ -14.7924, 12.1444 ], [ -14.8002, 12.1309 ], [ -14.8073, 12.127 ], [ -14.8132, 12.1314 ], [ -14.8147, 12.1406 ], [ -14.8113, 12.1575 ], [ -14.8146, 12.1607 ], [ -14.8274, 12.1564 ], [ -14.832, 12.1596 ], [ -14.8413, 12.156 ], [ -14.8383, 12.1369 ], [ -14.8462, 12.1323 ], [ -14.8425, 12.1156 ], [ -14.8135, 12.1055 ], [ -14.803, 12.0945 ], [ -14.8008, 12.0868 ], [ -14.8018, 12.0487 ], [ -14.7909, 12.0389 ], [ -14.7697, 12.036 ], [ -14.7551, 12.0375 ], [ -14.7563, 12.0515 ], [ -14.7531, 12.0636 ], [ -14.7394, 12.0678 ], [ -14.7321, 12.06 ], [ -14.7315, 12.0254 ] ] ] } },
{ "type": "Feature", "properties": { "iso3": "GNB", "unit_id": "89520995B11265095984380", "unit_name": "Bambadinca" }, "geometry": { "type": "Polygon", "coordinates": [ [ [ -14.8425, 12.1156 ], [ -14.8419, 12.1108 ], [ -14.8468, 12.1066 ], [ -14.8553, 12.1046 ], [ -14.8609, 12.1076 ], [ -14.8676, 12.0991 ], [ -14.8741, 12.1008 ], [ -14.8669, 12.1107 ], [ -14.8697, 12.1219 ], [ -14.8998, 12.1513 ], [ -14.9131, 12.15 ], [ -14.9168, 12.1529 ], [ -14.9357, 12.1994 ], [ -14.96, 12.1907 ], [ -14.9714, 12.1917 ], [ -14.9971, 12.2049 ], [ -15.011, 12.199 ], [ -15.0289, 12.2042 ], [ -15.0726, 12.1849 ], [ -15.021, 12.0861 ], [ -15.0069, 12.0674 ], [ -15.0071, 12.0567 ], [ -14.9885, 12.0337 ], [ -14.9684, 12.0196 ], [ -14.9622, 12.0042 ], [ -14.9532, 11.9951 ], [ -14.9484, 11.9768 ], [ -14.9585, 11.9659 ], [ -14.9654, 11.9644 ], [ -14.9853, 11.9641 ], [ -15.0167, 11.9733 ], [ -15.0292, 11.9713 ], [ -15.0183, 11.949 ], [ -15.027, 11.9475 ], [ -15.031, 11.9393 ], [ -15.0105, 11.9279 ], [ -14.9811, 11.8705 ], [ -14.9594, 11.8504 ], [ -14.9248, 11.8344 ], [ -14.9212, 11.8478 ], [ -14.8719, 11.8823 ], [ -14.8528, 11.9023 ], [ -14.8342, 11.9117 ], [ -14.7807, 11.931 ], [ -14.769, 11.9322 ], [ -14.7476, 11.9276 ], [ -14.7369, 11.9297 ], [ -14.7182, 11.926 ], [ -14.717, 11.9334 ], [ -14.7263, 11.9607 ], [ -14.7251, 11.9687 ], [ -14.7175, 11.9786 ], [ -14.7205, 11.9969 ], [ -14.7391, 12.0183 ], [ -14.7315, 12.0254 ], [ -14.7321, 12.06 ], [ -14.7394, 12.0678 ], [ -14.7531, 12.0636 ], [ -14.7563, 12.0515 ], [ -14.7551, 12.0375 ], [ -14.7697, 12.036 ], [ -14.7953, 12.041 ], [ -14.8018, 12.0487 ], [ -14.8032, 12.0576 ], [ -14.8007, 12.081 ], [ -14.803, 12.0945 ], [ -14.8135, 12.1055 ], [ -14.8425, 12.1156 ] ] ] } },
{ "type": "Feature", "properties": { "iso3": "GNB", "unit_id": "89520995B37011615988592", "unit_name": "Contuboel" }, "geometry": { "type": "Polygon", "coordinates": [ [ [ -14.5522, 12.3507 ], [ -14.5544, 12.3508 ], [ -14.5555, 12.3624 ], [ -14.5441, 12.3678 ], [ -14.5614, 12.3767 ], [ -14.5555, 12.3847 ], [ -14.5383, 12.3983 ], [ -14.5198, 12.3881 ], [ -14.5002, 12.401 ], [ -14.4992, 12.4053 ], [ -14.5086, 12.4178 ], [ -14.5125, 12.4306 ], [ -14.5094, 12.437 ], [ -14.489, 12.4265 ], [ -14.4905, 12.4393 ], [ -14.4881, 12.4421 ], [ -14.481, 12.441 ], [ -14.4734, 12.4348 ], [ -14.4667, 12.4371 ], [ -14.4614, 12.4467 ], [ -14.4674, 12.4632 ], [ -14.482, 12.4827 ], [ -14.488, 12.485 ], [ -14.4916, 12.4785 ], [ -14.5026, 12.4726 ], [ -14.513, 12.4735 ], [ -14.5189, 12.4783 ], [ -14.5325, 12.4979 ], [ -14.5342, 12.5116 ], [ -14.5311, 12.5166 ], [ -14.5199, 12.5217 ], [ -14.5053, 12.5209 ], [ -14.5032, 12.5193 ], [ -14.5096, 12.5153 ], [ -14.5099, 12.5103 ], [ -14.502, 12.5161 ], [ -14.4972, 12.5138 ], [ -14.4948, 12.5081 ], [ -14.4881, 12.5057 ], [ -14.464, 12.5067 ], [ -14.4627, 12.4904 ], [ -14.4488, 12.492 ], [ -14.4377, 12.4979 ], [ -14.4193, 12.518 ], [ -14.3902, 12.4981 ], [ -14.3777, 12.5037 ], [ -14.3738, 12.5232 ], [ -14.3974, 12.5308 ], [ -14.4032, 12.5387 ], [ -14.4091, 12.5406 ], [ -14.4132, 12.5521 ], [ -14.4177, 12.5668 ], [ -14.4087, 12.5729 ], [ -14.4117, 12.5815 ], [ -14.4083, 12.5932 ], [ -14.4176, 12.6028 ], [ -14.4189, 12.6281 ], [ -14.4176, 12.6337 ], [ -14.4008, 12.6403 ], [ -14.3772, 12.6073 ], [ -14.3597, 12.6111 ], [ -14.3455, 12.6326 ], [ -14.3508, 12.6431 ], [ -14.3397, 12.6765 ], [ -14.9129, 12.6783 ], [ -14.8687, 12.6622 ], [ -14.8614, 12.6415 ], [ -14.8507, 12.631 ], [ -14.8462, 12.6187 ], [ -14.8476, 12.5992 ], [ -14.8518, 12.5914 ], [ -14.8783, 12.5671 ], [ -14.8833, 12.5497 ], [ -14.9042, 12.5283 ], [ -14.9077, 12.5186 ], [ -14.8863, 12.5074 ], [ -14.8771, 12.4974 ], [ -14.8493, 12.4528 ], [ -14.7448, 12.4381 ], [ -14.7283, 12.4259 ], [ -14.7087, 12.3996 ], [ -14.7011, 12.3796 ], [ -14.6994, 12.3185 ], [ -14.6956, 12.2969 ], [ -14.6917, 12.2918 ], [ -14.6826, 12.2854 ], [ -14.6611, 12.2933 ], [ -14.6354, 12.3116 ], [ -14.6275, 12.322 ], [ -14.6202, 12.3202 ], [ -14.6224, 12.3113 ], [ -14.6045, 12.3192 ], [ -14.5978, 12.3353 ], [ -14.5878, 12.3417 ], [ -14.5812, 12.351 ], [ -14.5715, 12.343 ], [ -14.558, 12.3415 ], [ -14.5522, 12.3507 ] ] ] } },
{ "type": "Feature", "properties": { "iso3": "GNB", "unit_id": "89520995B87345411058097", "unit_name": "Galomaro/Cosse" }, "geometry": { "type": "Polygon", "coordinates": [ [ [ -14.7133, 12.0369 ], [ -14.7391, 12.0183 ], [ -14.7205, 11.9969 ], [ -14.7175, 11.9786 ], [ -14.7251, 11.9687 ], [ -14.7263, 11.9607 ], [ -14.717, 11.9334 ], [ -14.7182, 11.926 ], [ -14.6439, 11.8987 ], [ -14.5862, 11.8417 ], [ -14.5642, 11.8388 ], [ -14.5275, 11.8128 ], [ -14.5128, 11.8142 ], [ -14.4762, 11.831 ], [ -14.4839, 11.8539 ], [ -14.4758, 11.8978 ], [ -14.4699, 11.9133 ], [ -14.4721, 11.9223 ], [ -14.4783, 11.9298 ], [ -14.4812, 11.9476 ], [ -14.4958, 11.9622 ], [ -14.5086, 11.9898 ], [ -14.5071, 11.9963 ], [ -14.4944, 12.0113 ], [ -14.4941, 12.0357 ], [ -14.5065, 12.0514 ], [ -14.5079, 12.0653 ], [ -14.5434, 12.0953 ], [ -14.5458, 12.1026 ], [ -14.5361, 12.1138 ], [ -14.5461, 12.1175 ], [ -14.5667, 12.1054 ], [ -14.6315, 12.0321 ], [ -14.7024, 12.04 ], [ -14.7133, 12.0369 ] ] ] } },
{ "type": "Feature", "properties": { "iso3": "GNB", "unit_id": "89520995B42248220444065", "unit_name": "Gamamudo/Ganadu" }, "geometry": { "type": "Polygon", "coordinates": [ [ [ -14.6826, 12.2854 ], [ -14.6956, 12.2969 ], [ -14.6994, 12.3185 ], [ -14.7011, 12.3796 ], [ -14.7087, 12.3996 ], [ -14.7283, 12.4259 ], [ -14.7448, 12.4381 ], [ -14.8493, 12.4528 ], [ -14.8582, 12.4496 ], [ -14.8654, 12.4408 ], [ -14.8889, 12.4346 ], [ -14.9033, 12.4341 ], [ -14.9119, 12.4285 ], [ -14.9262, 12.4301 ], [ -14.943, 12.4249 ], [ -14.9552, 12.431 ], [ -14.9716, 12.4257 ], [ -14.9764, 12.3919 ], [ -14.9707, 12.351 ], [ -14.9616, 12.3167 ], [ -14.9362, 12.2854 ], [ -14.9451, 12.2737 ], [ -14.9372, 12.2415 ], [ -14.9391, 12.2209 ], [ -14.9357, 12.1994 ], [ -14.9168, 12.1529 ], [ -14.9131, 12.15 ], [ -14.8998, 12.1513 ], [ -14.8697, 12.1219 ], [ -14.8669, 12.1107 ], [ -14.8741, 12.1008 ], [ -14.8676, 12.0991 ], [ -14.8609, 12.1076 ], [ -14.8553, 12.1046 ], [ -14.8419, 12.1108 ], [ -14.8462, 12.1323 ], [ -14.8383, 12.1369 ], [ -14.8413, 12.156 ], [ -14.832, 12.1596 ], [ -14.8274, 12.1564 ], [ -14.8146, 12.1607 ], [ -14.8113, 12.1575 ], [ -14.8147, 12.1406 ], [ -14.8132, 12.1314 ], [ -14.8073, 12.127 ], [ -14.8002, 12.1309 ], [ -14.7924, 12.1444 ], [ -14.7692, 12.1524 ], [ -14.7625, 12.1515 ], [ -14.7608, 12.1429 ], [ -14.7521, 12.1418 ], [ -14.7306, 12.1523 ], [ -14.7143, 12.1536 ], [ -14.7087, 12.153 ], [ -14.7076, 12.1487 ], [ -14.6883, 12.1488 ], [ -14.6891, 12.1552 ], [ -14.6763, 12.1636 ], [ -14.6813, 12.1673 ], [ -14.6957, 12.1663 ], [ -14.701, 12.1687 ], [ -14.7087, 12.1798 ], [ -14.7085, 12.1875 ], [ -14.6927, 12.1936 ], [ -14.6806, 12.2094 ], [ -14.6806, 12.2149 ], [ -14.6921, 12.2234 ], [ -14.6983, 12.2361 ], [ -14.696, 12.2415 ], [ -14.6821, 12.2475 ], [ -14.6665, 12.2454 ], [ -14.6599, 12.2514 ], [ -14.6621, 12.2561 ], [ -14.6698, 12.2598 ], [ -14.6826, 12.2854 ] ] ] } },
{ "type": "Feature", "properties": { "iso3": "GNB", "unit_id": "89520995B34903524599021", "unit_name": "Xitole" }, "geometry": { "type": "Polygon", "coordinates": [ [ [ -14.9248, 11.8344 ], [ -14.8956, 11.8001 ], [ -14.89, 11.7723 ], [ -14.8905, 11.7428 ], [ -14.8797, 11.7452 ], [ -14.8681, 11.7555 ], [ -14.863, 11.7528 ], [ -14.859, 11.7437 ], [ -14.8347, 11.7379 ], [ -14.8467, 11.7194 ], [ -14.8629, 11.719 ], [ -14.8729, 11.7028 ], [ -14.8705, 11.6891 ], [ -14.8626, 11.6867 ], [ -14.8517, 11.701 ], [ -14.8412, 11.6958 ], [ -14.831, 11.6991 ], [ -14.8169, 11.6977 ], [ -14.8079, 11.689 ], [ -14.8117, 11.6839 ], [ -14.8087, 11.6691 ], [ -14.8123, 11.6492 ], [ -14.8095, 11.644 ], [ -14.7669, 11.6189 ], [ -14.7505, 11.5952 ], [ -14.7426, 11.593 ], [ -14.7256, 11.5977 ], [ -14.7103, 11.5948 ], [ -14.7008, 11.5983 ], [ -14.6919, 11.6106 ], [ -14.6921, 11.6176 ], [ -14.675, 11.6187 ], [ -14.6728, 11.6428 ], [ -14.6691, 11.6467 ], [ -14.6601, 11.6447 ], [ -14.6485, 11.6325 ], [ -14.643, 11.6109 ], [ -14.6372, 11.6075 ], [ -14.6297, 11.6111 ], [ -14.6106, 11.633 ], [ -14.5333, 11.6384 ], [ -14.5138, 11.6483 ], [ -14.5154, 11.6563 ], [ -14.4959, 11.667 ], [ -14.4985, 11.6806 ], [ -14.4856, 11.6951 ], [ -14.4508, 11.7165 ], [ -14.4486, 11.7245 ], [ -14.4436, 11.729 ], [ -14.4519, 11.7423 ], [ -14.4691, 11.7591 ], [ -14.4682, 11.7831 ], [ -14.4769, 11.8122 ], [ -14.4762, 11.831 ], [ -14.5128, 11.8142 ], [ -14.5275, 11.8128 ], [ -14.5642, 11.8388 ], [ -14.5862, 11.8417 ], [ -14.6439, 11.8987 ], [ -14.7182, 11.926 ], [ -14.7369, 11.9297 ], [ -14.7476, 11.9276 ], [ -14.769, 11.9322 ], [ -14.7807, 11.931 ], [ -14.8342, 11.9117 ], [ -14.8528, 11.9023 ], [ -14.8719, 11.8823 ], [ -14.9212, 11.8478 ], [ -14.9248, 11.8344 ] ] ] } },
{ "type": "Feature", "properties": { "iso3": "GNB", "unit_id": "89520995B72241065236824", "unit_name": "Quinhamel" }, "geometry": { "type": "MultiPolygon", "coordinates": [ [ [ [ -15.7164, 11.8564 ], [ -15.7232, 11.8911 ], [ -15.7195, 11.9253 ], [ -15.7299, 11.9365 ], [ -15.7284, 11.9444 ], [ -15.7212, 11.9532 ], [ -15.7141, 11.9783 ], [ -15.7084, 11.9789 ], [ -15.7047, 11.9848 ], [ -15.703, 12.0105 ], [ -15.7823, 11.9829 ], [ -15.8227, 12.0039 ], [ -15.8646, 12.0104 ], [ -15.8964, 11.9505 ], [ -15.8812, 11.9454 ], [ -15.885, 11.9293 ], [ -15.8987, 11.9077 ], [ -15.9289, 11.8845 ], [ -15.933, 11.8777 ], [ -15.9416, 11.8474 ], [ -15.9496, 11.834 ], [ -15.9461, 11.8189 ], [ -15.9715, 11.7752 ], [ -15.9721, 11.7685 ], [ -15.9629, 11.7503 ], [ -15.9612, 11.7346 ], [ -15.9575, 11.7345 ], [ -15.9366, 11.7532 ], [ -15.9224, 11.758 ], [ -15.897, 11.758 ], [ -15.8903, 11.7654 ], [ -15.8737, 11.7675 ], [ -15.8536, 11.7651 ], [ -15.8502, 11.7695 ], [ -15.8441, 11.7974 ], [ -15.8267, 11.8171 ], [ -15.8198, 11.8167 ], [ -15.8112, 11.8295 ], [ -15.8067, 11.8447 ], [ -15.808, 11.8621 ], [ -15.8036, 11.8733 ], [ -15.7932, 11.8794 ], [ -15.7673, 11.8742 ], [ -15.7413, 11.8552 ], [ -15.7277, 11.8526 ], [ -15.7164, 11.8564 ] ] ], [ [ [ -15.9386, 11.8843 ], [ -15.9479, 11.874 ], [ -15.9373, 11.8833 ], [ -15.9386, 11.8843 ] ] ], [ [ [ -15.8801, 11.7529 ], [ -15.873, 11.751 ], [ -15.8671, 11.7591 ], [ -15.8683, 11.7616 ], [ -15.8839, 11.7602 ], [ -15.8801, 11.7529 ] ] ] ] } },
{ "type": "Feature", "properties": { "iso3": "GNB", "unit_id": "89520995B60566530239963", "unit_name": "Prabis" }, "geometry": { "type": "Polygon", "coordinates": [ [ [ -15.8198, 11.8167 ], [ -15.8133, 11.8164 ], [ -15.818, 11.8107 ], [ -15.8355, 11.7541 ], [ -15.8321, 11.7475 ], [ -15.8194, 11.7433 ], [ -15.8062, 11.7485 ], [ -15.7739, 11.7725 ], [ -15.7261, 11.7923 ], [ -15.705, 11.797 ], [ -15.6639, 11.7976 ], [ -15.6584, 11.8454 ], [ -15.6533, 11.8567 ], [ -15.6674, 11.8548 ], [ -15.7006, 11.8603 ], [ -15.7277, 11.8526 ], [ -15.7413, 11.8552 ], [ -15.7673, 11.8742 ], [ -15.7932, 11.8794 ], [ -15.8036, 11.8733 ], [ -15.808, 11.8621 ], [ -15.8082, 11.8373 ], [ -15.8198, 11.8167 ] ] ] } },
{ "type": "Feature", "properties": { "iso3": "GNB", "unit_id": "89520995B64275194515342", "unit_name": "Safim" }, "geometry": { "type": "Polygon", "coordinates": [ [ [ -15.7164, 11.8564 ], [ -15.7006, 11.8603 ], [ -15.6674, 11.8548 ], [ -15.6533, 11.8567 ], [ -15.6108, 11.9333 ], [ -15.6175, 11.9386 ], [ -15.6284, 11.9607 ], [ -15.6289, 11.9683 ], [ -15.6236, 11.9758 ], [ -15.6381, 11.9954 ], [ -15.6422, 12.0136 ], [ -15.6571, 12.0253 ], [ -15.6748, 12.0257 ], [ -15.703, 12.0105 ], [ -15.7047, 11.9848 ], [ -15.7084, 11.9789 ], [ -15.7141, 11.9783 ], [ -15.7212, 11.9532 ], [ -15.7284, 11.9444 ], [ -15.7299, 11.9365 ], [ -15.7195, 11.9253 ], [ -15.7232, 11.8911 ], [ -15.7164, 11.8564 ] ] ] } },
{ "type": "Feature", "properties": { "iso3": "GNB", "unit_id": "89520995B40094047689800", "unit_name": "Bolama" }, "geometry": { "type": "MultiPolygon", "coordinates": [ [ [ [ -15.3431, 11.6841 ], [ -15.4212, 11.6828 ], [ -15.4313, 11.6719 ], [ -15.4273, 11.6641 ], [ -15.4174, 11.6629 ], [ -15.4153, 11.6599 ], [ -15.4384, 11.6596 ], [ -15.4423, 11.6556 ], [ -15.4406, 11.6501 ], [ -15.4279, 11.6411 ], [ -15.4273, 11.6335 ], [ -15.4438, 11.6457 ], [ -15.451, 11.6449 ], [ -15.4542, 11.6405 ], [ -15.452, 11.6338 ], [ -15.4573, 11.6237 ], [ -15.4493, 11.6256 ], [ -15.4477, 11.6236 ], [ -15.4516, 11.6194 ], [ -15.4623, 11.6167 ], [ -15.4677, 11.6023 ], [ -15.4648, 11.5844 ], [ -15.4565, 11.5694 ], [ -15.4503, 11.566 ], [ -15.4497, 11.5538 ], [ -15.4387, 11.5501 ], [ -15.4318, 11.5439 ], [ -15.4291, 11.547 ], [ -15.4431, 11.5663 ], [ -15.4429, 11.5962 ], [ -15.4379, 11.5922 ], [ -15.4313, 11.5688 ], [ -15.4249, 11.5618 ], [ -15.4219, 11.565 ], [ -15.4282, 11.5806 ], [ -15.4265, 11.5928 ], [ -15.43, 11.5964 ], [ -15.4166, 11.6014 ], [ -15.412, 11.6116 ], [ -15.4083, 11.6112 ], [ -15.4075, 11.6023 ], [ -15.4112, 11.5843 ], [ -15.4065, 11.58 ], [ -15.4068, 11.5717 ], [ -15.4042, 11.5699 ], [ -15.3793, 11.5718 ], [ -15.3752, 11.5774 ], [ -15.3757, 11.585 ], [ -15.3877, 11.5919 ], [ -15.39, 11.6013 ], [ -15.3792, 11.6017 ], [ -15.3599, 11.5886 ], [ -15.3553, 11.5917 ], [ -15.369, 11.6051 ], [ -15.3687, 11.6138 ], [ -15.3738, 11.6165 ], [ -15.3716, 11.6212 ], [ -15.3791, 11.6252 ], [ -15.3806, 11.6321 ], [ -15.3897, 11.6315 ], [ -15.3847, 11.6415 ], [ -15.3923, 11.6483 ], [ -15.3868, 11.6557 ], [ -15.3755, 11.6501 ], [ -15.3727, 11.634 ], [ -15.3573, 11.6209 ], [ -15.3523, 11.6097 ], [ -15.3401, 11.6048 ], [ -15.3392, 11.6122 ], [ -15.3295, 11.6153 ], [ -15.3338, 11.6217 ], [ -15.3327, 11.6254 ], [ -15.3434, 11.6229 ], [ -15.3471, 11.6259 ], [ -15.3419, 11.6331 ], [ -15.3464, 11.6385 ], [ -15.3448, 11.6413 ], [ -15.3354, 11.6391 ], [ -15.3341, 11.6415 ], [ -15.3352, 11.6532 ], [ -15.3471, 11.6583 ], [ -15.3355, 11.6615 ], [ -15.3335, 11.6652 ], [ -15.3432, 11.6775 ], [ -15.3431, 11.6841 ] ] ], [ [ [ -15.609, 11.5223 ], [ -15.5665, 11.5034 ], [ -15.5501, 11.5119 ], [ -15.5467, 11.5177 ], [ -15.5489, 11.5234 ], [ -15.5588, 11.5318 ], [ -15.5625, 11.5439 ], [ -15.5595, 11.5493 ], [ -15.541, 11.5438 ], [ -15.5159, 11.5644 ], [ -15.4961, 11.5525 ], [ -15.4861, 11.5563 ], [ -15.4742, 11.5696 ], [ -15.4823, 11.5789 ], [ -15.482, 11.5895 ], [ -15.4866, 11.588 ], [ -15.4906, 11.5914 ], [ -15.4952, 11.6022 ], [ -15.4902, 11.608 ], [ -15.4742, 11.6154 ], [ -15.4715, 11.6223 ], [ -15.4779, 11.6316 ], [ -15.4844, 11.632 ], [ -15.4897, 11.6273 ], [ -15.5406, 11.6101 ], [ -15.5639, 11.575 ], [ -15.587, 11.5767 ], [ -15.5923, 11.5739 ], [ -15.5978, 11.5637 ], [ -15.6045, 11.5601 ], [ -15.6117, 11.5441 ], [ -15.6196, 11.5397 ], [ -15.6331, 11.5383 ], [ -15.6337, 11.5319 ], [ -15.6245, 11.5256 ], [ -15.609, 11.5223 ] ] ], [ [ [ -15.7185, 11.4331 ], [ -15.7052, 11.434 ], [ -15.6778, 11.4461 ], [ -15.6698, 11.4515 ], [ -15.6629, 11.4629 ], [ -15.6539, 11.4635 ], [ -15.6544, 11.4708 ], [ -15.6643, 11.4773 ], [ -15.663, 11.4843 ], [ -15.6739, 11.4945 ], [ -15.6652, 11.5045 ], [ -15.6667, 11.5063 ], [ -15.6755, 11.5069 ], [ -15.6911, 11.5011 ], [ -15.7149, 11.4722 ], [ -15.7412, 11.4587 ], [ -15.7426, 11.455 ], [ -15.739, 11.4509 ], [ -15.7228, 11.445 ], [ -15.7185, 11.4331 ] ] ] ] } },
{ "type": "Feature", "properties": { "iso3": "GNB", "unit_id": "89520995B34568753734581", "unit_name": "Bubaque" }, "geometry": { "type": "MultiPolygon", "coordinates": [ [ [ [ -15.9016, 11.3348 ], [ -15.8944, 11.3273 ], [ -15.8743, 11.3368 ], [ -15.8657, 11.3519 ], [ -15.8506, 11.3676 ], [ -15.8481, 11.3759 ], [ -15.8503, 11.3793 ], [ -15.8545, 11.3822 ], [ -15.8684, 11.3746 ], [ -15.8895, 11.3557 ], [ -15.9016, 11.3348 ] ] ], [ [ [ -15.8192, 11.3006 ], [ -15.8085, 11.3008 ], [ -15.8043, 11.305 ], [ -15.7986, 11.3253 ], [ -15.802, 11.3349 ], [ -15.7952, 11.3585 ], [ -15.7826, 11.3615 ], [ -15.7835, 11.373 ], [ -15.7906, 11.3772 ], [ -15.814, 11.372 ], [ -15.826, 11.362 ], [ -15.8262, 11.3426 ], [ -15.8326, 11.3349 ], [ -15.8365, 11.3188 ], [ -15.8345, 11.3124 ], [ -15.8192, 11.3006 ] ] ], [ [ [ -15.7854, 11.3451 ], [ -15.7816, 11.3408 ], [ -15.7774, 11.3422 ], [ -15.7735, 11.3467 ], [ -15.7709, 11.3596 ], [ -15.7854, 11.3451 ] ] ], [ [ [ -15.7207, 11.3251 ], [ -15.7073, 11.3279 ], [ -15.7107, 11.3395 ], [ -15.717, 11.3401 ], [ -15.7227, 11.3279 ], [ -15.7207, 11.3251 ] ] ], [ [ [ -15.9264, 11.3116 ], [ -15.9166, 11.3122 ], [ -15.9152, 11.3153 ], [ -15.9199, 11.3191 ], [ -15.9266, 11.3146 ], [ -15.9264, 11.3116 ] ] ], [ [ [ -15.8695, 11.1966 ], [ -15.8511, 11.1998 ], [ -15.8387, 11.2115 ], [ -15.8389, 11.2226 ], [ -15.85, 11.2275 ], [ -15.8427, 11.2405 ], [ -15.8361, 11.2783 ], [ -15.8315, 11.2802 ], [ -15.8265, 11.2895 ], [ -15.8351, 11.3013 ], [ -15.8536, 11.3091 ], [ -15.8635, 11.3043 ], [ -15.8734, 11.2927 ], [ -15.9098, 11.2367 ], [ -15.9039, 11.208 ], [ -15.8882, 11.199 ], [ -15.8798, 11.2005 ], [ -15.8695, 11.1966 ] ] ], [ [ [ -15.741, 11.2961 ], [ -15.7349, 11.2897 ], [ -15.7279, 11.3059 ], [ -15.7301, 11.3089 ], [ -15.7361, 11.3056 ], [ -15.741, 11.2961 ] ] ], [ [ [ -15.7798, 11.1646 ], [ -15.7711, 11.1615 ], [ -15.7573, 11.176 ], [ -15.7503, 11.1708 ], [ -15.7441, 11.1755 ], [ -15.7345, 11.1749 ], [ -15.7257, 11.1967 ], [ -15.7278, 11.2116 ], [ -15.7329, 11.2085 ], [ -15.7375, 11.2165 ], [ -15.7366, 11.2227 ], [ -15.7317, 11.2219 ], [ -15.7285, 11.227 ], [ -15.7241, 11.2266 ], [ -15.7139, 11.2132 ], [ -15.7037, 11.2179 ], [ -15.6938, 11.2425 ], [ -15.6997, 11.2631 ], [ -15.6984, 11.2677 ], [ -15.6935, 11.2646 ], [ -15.6905, 11.2552 ], [ -15.6792, 11.2464 ], [ -15.6771, 11.2333 ], [ -15.6717, 11.2279 ], [ -15.6639, 11.2498 ], [ -15.6678, 11.2652 ], [ -15.66, 11.2874 ], [ -15.6613, 11.3081 ], [ -15.6768, 11.3012 ], [ -15.6974, 11.3073 ], [ -15.7088, 11.3074 ], [ -15.7215, 11.2977 ], [ -15.7338, 11.2801 ], [ -15.7496, 11.2775 ], [ -15.7616, 11.2702 ], [ -15.7568, 11.2599 ], [ -15.7837, 11.2351 ], [ -15.7819, 11.2269 ], [ -15.7665, 11.226 ], [ -15.7713, 11.219 ], [ -15.77, 11.21 ], [ -15.7725, 11.207 ], [ -15.783, 11.2092 ], [ -15.7869, 11.204 ], [ -15.7798, 11.1646 ] ] ], [ [ [ -15.9414, 11.2074 ], [ -15.9365, 11.2054 ], [ -15.9305, 11.209 ], [ -15.9327, 11.2121 ], [ -15.9434, 11.2138 ], [ -15.9414, 11.2074 ] ] ], [ [ [ -16.0251, 11.0708 ], [ -16.0093, 11.0715 ], [ -15.9876, 11.0937 ], [ -15.9767, 11.1157 ], [ -15.9761, 11.1353 ], [ -15.9886, 11.1738 ], [ -15.9895, 11.1829 ], [ -15.9831, 11.2054 ], [ -15.9857, 11.209 ], [ -16.0113, 11.2028 ], [ -16.0223, 11.2073 ], [ -16.0347, 11.1946 ], [ -16.0424, 11.1975 ], [ -16.0549, 11.1819 ], [ -16.0566, 11.172 ], [ -16.0629, 11.1673 ], [ -16.0653, 11.1608 ], [ -16.0566, 11.1423 ], [ -16.0438, 11.1278 ], [ -16.0349, 11.1268 ], [ -16.0259, 11.1433 ], [ -16.0203, 11.1468 ], [ -16.0172, 11.1416 ], [ -16.0366, 11.1007 ], [ -16.0351, 11.0828 ], [ -16.0251, 11.0708 ] ] ], [ [ [ -15.9783, 11.0548 ], [ -15.9365, 11.0469 ], [ -15.9294, 11.0516 ], [ -15.9115, 11.0556 ], [ -15.8944, 11.0499 ], [ -15.8888, 11.0621 ], [ -15.9028, 11.0847 ], [ -15.9054, 11.0971 ], [ -15.9002, 11.1363 ], [ -15.9024, 11.1413 ], [ -15.9111, 11.149 ], [ -15.9158, 11.1646 ], [ -15.9335, 11.1905 ], [ -15.9539, 11.201 ], [ -15.9649, 11.2027 ], [ -15.9734, 11.1988 ], [ -15.9797, 11.1847 ], [ -15.9789, 11.1737 ], [ -15.9653, 11.1433 ], [ -15.952, 11.1269 ], [ -15.9694, 11.1069 ], [ -15.9702, 11.0882 ], [ -15.9591, 11.0919 ], [ -15.9506, 11.0989 ], [ -15.9329, 11.0992 ], [ -15.9289, 11.0956 ], [ -15.9309, 11.0879 ], [ -15.9458, 11.0889 ], [ -15.9522, 11.0819 ], [ -15.9583, 11.0827 ], [ -15.9795, 11.0729 ], [ -15.9861, 11.0606 ], [ -15.9783, 11.0548 ] ] ], [ [ [ -15.6514, 11.0282 ], [ -15.6387, 11.0201 ], [ -15.635, 11.0211 ], [ -15.63, 11.0304 ], [ -15.6142, 11.043 ], [ -15.6127, 11.0513 ], [ -15.6283, 11.0548 ], [ -15.6496, 11.0485 ], [ -15.6534, 11.0353 ], [ -15.6514, 11.0282 ] ] ], [ [ [ -16.0022, 11.0369 ], [ -15.9879, 11.0419 ], [ -15.9948, 11.051 ], [ -16.0068, 11.0453 ], [ -16.0022, 11.0369 ] ] ], [ [ [ -15.7122, 11.0006 ], [ -15.7076, 10.9996 ], [ -15.704, 11.0084 ], [ -15.7098, 11.0209 ], [ -15.7165, 11.0213 ], [ -15.7185, 11.0121 ], [ -15.7122, 11.0006 ] ] ], [ [ [ -15.6661, 10.9705 ], [ -15.6569, 10.9628 ], [ -15.6468, 10.969 ], [ -15.6579, 10.9775 ], [ -15.6566, 10.9877 ], [ -15.6597, 10.9934 ], [ -15.6575, 10.9999 ], [ -15.6632, 11.0037 ], [ -15.669, 11.0024 ], [ -15.6735, 10.9962 ], [ -15.6693, 10.9919 ], [ -15.669, 10.9762 ], [ -15.6661, 10.9705 ] ] ] ] } },
{ "type": "Feature", "properties": { "iso3": "GNB", "unit_id": "89520995B84502388910287", "unit_name": "Caravela" }, "geometry": { "type": "MultiPolygon", "coordinates": [ [ [ [ -15.9247, 11.5286 ], [ -15.9108, 11.5318 ], [ -15.9062, 11.5356 ], [ -15.904, 11.5432 ], [ -15.9134, 11.5635 ], [ -15.9089, 11.5749 ], [ -15.9112, 11.5836 ], [ -15.9167, 11.5959 ], [ -15.9219, 11.5963 ], [ -15.9227, 11.5898 ], [ -15.9269, 11.5884 ], [ -15.9402, 11.5903 ], [ -15.9555, 11.6123 ], [ -15.9779, 11.5945 ], [ -15.9803, 11.5857 ], [ -15.9434, 11.5405 ], [ -15.9247, 11.5286 ] ] ], [ [ [ -15.8934, 11.5926 ], [ -15.8854, 11.5936 ], [ -15.8856, 11.6015 ], [ -15.89, 11.6007 ], [ -15.8934, 11.5926 ] ] ], [ [ [ -16.3326, 11.4922 ], [ -16.3213, 11.4888 ], [ -16.3129, 11.4898 ], [ -16.3044, 11.4978 ], [ -16.2824, 11.4931 ], [ -16.2783, 11.498 ], [ -16.2794, 11.5088 ], [ -16.2705, 11.5301 ], [ -16.2567, 11.5441 ], [ -16.2484, 11.548 ], [ -16.2487, 11.5526 ], [ -16.2558, 11.5593 ], [ -16.2529, 11.578 ], [ -16.2577, 11.5885 ], [ -16.2676, 11.592 ], [ -16.2745, 11.5873 ], [ -16.2857, 11.5973 ], [ -16.2948, 11.5962 ], [ -16.3231, 11.5623 ], [ -16.3394, 11.5496 ], [ -16.3553, 11.5487 ], [ -16.3723, 11.561 ], [ -16.3947, 11.5627 ], [ -16.4088, 11.556 ], [ -16.4293, 11.5391 ], [ -16.4279, 11.5279 ], [ -16.4196, 11.5183 ], [ -16.4096, 11.4973 ], [ -16.3961, 11.4987 ], [ -16.39, 11.508 ], [ -16.386, 11.5054 ], [ -16.3822, 11.5126 ], [ -16.3736, 11.5033 ], [ -16.3538, 11.5041 ], [ -16.3428, 11.5013 ], [ -16.3326, 11.4922 ] ] ], [ [ [ -16.0096, 11.522 ], [ -15.9909, 11.525 ], [ -15.9871, 11.5322 ], [ -15.9751, 11.5395 ], [ -15.9708, 11.55 ], [ -15.9756, 11.5554 ], [ -15.9752, 11.5635 ], [ -15.9882, 11.5741 ], [ -15.9928, 11.5839 ], [ -15.9993, 11.5797 ], [ -16.0024, 11.5663 ], [ -16.0208, 11.5377 ], [ -16.0152, 11.5253 ], [ -16.0096, 11.522 ] ] ], [ [ [ -15.8796, 11.5509 ], [ -15.8777, 11.5477 ], [ -15.8707, 11.5492 ], [ -15.8673, 11.5546 ], [ -15.8716, 11.5575 ], [ -15.8796, 11.5509 ] ] ], [ [ [ -15.9643, 11.5252 ], [ -15.9465, 11.5202 ], [ -15.9417, 11.5253 ], [ -15.9621, 11.5437 ], [ -15.966, 11.5284 ], [ -15.9643, 11.5252 ] ] ], [ [ [ -16.306, 11.4421 ], [ -16.299, 11.4392 ], [ -16.2804, 11.4411 ], [ -16.2634, 11.4474 ], [ -16.2501, 11.4423 ], [ -16.231, 11.4468 ], [ -16.2203, 11.4449 ], [ -16.2149, 11.4565 ], [ -16.204, 11.462 ], [ -16.1754, 11.4953 ], [ -16.1734, 11.5 ], [ -16.1767, 11.5179 ], [ -16.1701, 11.5276 ], [ -16.1696, 11.5389 ], [ -16.1764, 11.5397 ], [ -16.1816, 11.5307 ], [ -16.199, 11.5219 ], [ -16.2212, 11.5233 ], [ -16.2429, 11.5135 ], [ -16.2699, 11.4846 ], [ -16.2866, 11.4762 ], [ -16.3075, 11.4582 ], [ -16.3093, 11.4538 ], [ -16.306, 11.4421 ] ] ], [ [ [ -15.967, 11.4306 ], [ -15.9635, 11.4281 ], [ -15.9525, 11.4306 ], [ -15.9132, 11.4522 ], [ -15.9114, 11.4828 ], [ -15.9141, 11.5076 ], [ -15.9262, 11.518 ], [ -15.9374, 11.5148 ], [ -15.9439, 11.5175 ], [ -15.9457, 11.5133 ], [ -15.9588, 11.511 ], [ -15.9708, 11.5191 ], [ -15.9779, 11.5149 ], [ -15.976, 11.5216 ], [ -15.9784, 11.5257 ], [ -15.9943, 11.5142 ], [ -16.0267, 11.5166 ], [ -16.0306, 11.5143 ], [ -16.0385, 11.4948 ], [ -16.0458, 11.4855 ], [ -16.0682, 11.4718 ], [ -16.0795, 11.4622 ], [ -16.0812, 11.4562 ], [ -16.0714, 11.4428 ], [ -16.0337, 11.4314 ], [ -16.0137, 11.434 ], [ -16.0172, 11.4462 ], [ -16.0065, 11.4502 ], [ -15.9953, 11.4348 ], [ -15.9851, 11.4414 ], [ -15.9751, 11.4406 ], [ -15.9678, 11.437 ], [ -15.967, 11.4306 ] ] ], [ [ [ -16.3207, 11.4287 ], [ -16.3122, 11.4088 ], [ -16.309, 11.4105 ], [ -16.3066, 11.4243 ], [ -16.3093, 11.4291 ], [ -16.3152, 11.4313 ], [ -16.3207, 11.4287 ] ] ] ] } },
{ "type": "Feature", "properties": { "iso3": "GNB", "unit_id": "89520995B84402860375658", "unit_name": "Uno" }, "geometry": { "type": "MultiPolygon", "coordinates": [ [ [ [ -16.1553, 11.3701 ], [ -16.1478, 11.3663 ], [ -16.1441, 11.3804 ], [ -16.1384, 11.3883 ], [ -16.1342, 11.3879 ], [ -16.1214, 11.3768 ], [ -16.1173, 11.3847 ], [ -16.0997, 11.3914 ], [ -16.0959, 11.3982 ], [ -16.0852, 11.3986 ], [ -16.0781, 11.3923 ], [ -16.072, 11.3919 ], [ -16.0706, 11.4094 ], [ -16.0762, 11.4222 ], [ -16.0847, 11.4251 ], [ -16.1009, 11.4223 ], [ -16.131, 11.4096 ], [ -16.1648, 11.4058 ], [ -16.1691, 11.4016 ], [ -16.1689, 11.3901 ], [ -16.1553, 11.3701 ] ] ], [ [ [ -16.0206, 11.3746 ], [ -16.0145, 11.3728 ], [ -16.0078, 11.3759 ], [ -15.9955, 11.3911 ], [ -16.0048, 11.3916 ], [ -16.0219, 11.3821 ], [ -16.0206, 11.3746 ] ] ], [ [ [ -16.1205, 11.2993 ], [ -16.1054, 11.2984 ], [ -16.0793, 11.3133 ], [ -16.0697, 11.3266 ], [ -16.0641, 11.3278 ], [ -16.0603, 11.321 ], [ -16.0536, 11.3225 ], [ -16.042, 11.3165 ], [ -16.0369, 11.317 ], [ -16.0248, 11.343 ], [ -16.0254, 11.3522 ], [ -16.0328, 11.3626 ], [ -16.0655, 11.355 ], [ -16.0853, 11.3412 ], [ -16.1356, 11.3462 ], [ -16.133, 11.3318 ], [ -16.1371, 11.325 ], [ -16.1298, 11.3093 ], [ -16.1205, 11.2993 ] ] ], [ [ [ -16.1726, 11.34 ], [ -16.1601, 11.3357 ], [ -16.16, 11.3447 ], [ -16.1692, 11.3519 ], [ -16.1812, 11.3556 ], [ -16.1859, 11.3452 ], [ -16.1842, 11.3401 ], [ -16.1726, 11.34 ] ] ], [ [ [ -16.4877, 11.2786 ], [ -16.4816, 11.2766 ], [ -16.4692, 11.2856 ], [ -16.4299, 11.2906 ], [ -16.4258, 11.2939 ], [ -16.4252, 11.2994 ], [ -16.4457, 11.2972 ], [ -16.4556, 11.3047 ], [ -16.4583, 11.3138 ], [ -16.4618, 11.3149 ], [ -16.4658, 11.3148 ], [ -16.4715, 11.3088 ], [ -16.4846, 11.309 ], [ -16.4898, 11.3024 ], [ -16.4877, 11.2786 ] ] ], [ [ [ -16.2828, 11.2363 ], [ -16.2545, 11.2163 ], [ -16.183, 11.2288 ], [ -16.1778, 11.2408 ], [ -16.1533, 11.2656 ], [ -16.1543, 11.2711 ], [ -16.1617, 11.2786 ], [ -16.1668, 11.2944 ], [ -16.1837, 11.3008 ], [ -16.2049, 11.2986 ], [ -16.2091, 11.3096 ], [ -16.2189, 11.3129 ], [ -16.237, 11.3098 ], [ -16.2454, 11.2963 ], [ -16.2687, 11.292 ], [ -16.273, 11.2878 ], [ -16.2827, 11.2554 ], [ -16.2937, 11.2424 ], [ -16.2919, 11.238 ], [ -16.2828, 11.2363 ] ] ], [ [ [ -16.4071, 11.2774 ], [ -16.3998, 11.2741 ], [ -16.3838, 11.2944 ], [ -16.3895, 11.2985 ], [ -16.3958, 11.2977 ], [ -16.4057, 11.3046 ], [ -16.4116, 11.2932 ], [ -16.4071, 11.2774 ] ] ], [ [ [ -16.0993, 11.019 ], [ -16.088, 11.0164 ], [ -16.0635, 11.0371 ], [ -16.0646, 11.0469 ], [ -16.0734, 11.0472 ], [ -16.0763, 11.0529 ], [ -16.0854, 11.0585 ], [ -16.0761, 11.0633 ], [ -16.0616, 11.0647 ], [ -16.0526, 11.0722 ], [ -16.0483, 11.092 ], [ -16.0644, 11.1063 ], [ -16.0621, 11.11 ], [ -16.0554, 11.1087 ], [ -16.0489, 11.1137 ], [ -16.0547, 11.1242 ], [ -16.0827, 11.1258 ], [ -16.0886, 11.1317 ], [ -16.0858, 11.1352 ], [ -16.0737, 11.1351 ], [ -16.0717, 11.1409 ], [ -16.0765, 11.1592 ], [ -16.0655, 11.1847 ], [ -16.0687, 11.1946 ], [ -16.0868, 11.2044 ], [ -16.1035, 11.2027 ], [ -16.1188, 11.2085 ], [ -16.1273, 11.2019 ], [ -16.1354, 11.1868 ], [ -16.1491, 11.1833 ], [ -16.1819, 11.1653 ], [ -16.1816, 11.134 ], [ -16.1979, 11.1101 ], [ -16.2079, 11.1083 ], [ -16.193, 11.1336 ], [ -16.2155, 11.127 ], [ -16.2399, 11.1121 ], [ -16.247, 11.1046 ], [ -16.2511, 11.0887 ], [ -16.2479, 11.0789 ], [ -16.2249, 11.0516 ], [ -16.1907, 11.0258 ], [ -16.1807, 11.0268 ], [ -16.1574, 11.0171 ], [ -16.152, 11.0236 ], [ -16.1489, 11.0472 ], [ -16.1446, 11.055 ], [ -16.1367, 11.0326 ], [ -16.108, 11.0262 ], [ -16.0993, 11.019 ] ] ] ] } },
{ "type": "Feature", "properties": { "iso3": "GNB", "unit_id": "89520995B93816093671370", "unit_name": "Bigene" }, "geometry": { "type": "Polygon", "coordinates": [ [ [ -16.0812, 12.3161 ], [ -16.0574, 12.328 ], [ -16.0071, 12.3375 ], [ -15.9744, 12.3243 ], [ -15.9395, 12.316 ], [ -15.9213, 12.3051 ], [ -15.9285, 12.3042 ], [ -15.9115, 12.2951 ], [ -15.8853, 12.267 ], [ -15.8517, 12.2555 ], [ -15.8323, 12.2301 ], [ -15.8058, 12.2132 ], [ -15.7983, 12.2134 ], [ -15.7739, 12.2303 ], [ -15.7539, 12.2365 ], [ -15.7572, 12.2439 ], [ -15.7363, 12.2494 ], [ -15.7305, 12.2553 ], [ -15.727, 12.2691 ], [ -15.7411, 12.266 ], [ -15.7474, 12.2693 ], [ -15.7474, 12.2782 ], [ -15.7338, 12.3007 ], [ -15.7283, 12.305 ], [ -15.7137, 12.3061 ], [ -15.7074, 12.2893 ], [ -15.6909, 12.2933 ], [ -15.6887, 12.2976 ], [ -15.6967, 12.306 ], [ -15.6963, 12.312 ], [ -15.6838, 12.3218 ], [ -15.6709, 12.3236 ], [ -15.6618, 12.3143 ], [ -15.6548, 12.3136 ], [ -15.6496, 12.3142 ], [ -15.6381, 12.3236 ], [ -15.6272, 12.3214 ], [ -15.6237, 12.3286 ], [ -15.6244, 12.3357 ], [ -15.6167, 12.352 ], [ -15.5975, 12.3567 ], [ -15.5843, 12.3731 ], [ -15.5745, 12.3792 ], [ -15.5583, 12.3766 ], [ -15.5508, 12.3794 ], [ -15.5391, 12.3956 ], [ -15.5235, 12.4074 ], [ -15.5039, 12.3949 ], [ -15.4873, 12.4078 ], [ -15.4874, 12.4395 ], [ -15.4805, 12.4711 ], [ -15.4808, 12.5112 ], [ -15.5306, 12.4929 ], [ -15.6309, 12.4394 ], [ -15.6904, 12.4238 ], [ -15.8008, 12.4342 ], [ -15.8614, 12.4439 ], [ -15.8972, 12.4448 ], [ -15.958, 12.4405 ], [ -16.0237, 12.4615 ], [ -16.0375, 12.425 ], [ -16.0645, 12.396 ], [ -16.0825, 12.3825 ], [ -16.0782, 12.3595 ], [ -16.0812, 12.3161 ] ] ] } },
{ "type": "Feature", "properties": { "iso3": "GNB", "unit_id": "89520995B23990425223125", "unit_name": "Bula" }, "geometry": { "type": "Polygon", "coordinates": [ [ [ -15.703, 12.0105 ], [ -15.6748, 12.0257 ], [ -15.6668, 12.0263 ], [ -15.6706, 12.0573 ], [ -15.6578, 12.0649 ], [ -15.6554, 12.0745 ], [ -15.6629, 12.0829 ], [ -15.6616, 12.1057 ], [ -15.6545, 12.115 ], [ -15.6401, 12.1178 ], [ -15.6224, 12.1264 ], [ -15.6239, 12.1439 ], [ -15.6174, 12.1499 ], [ -15.6536, 12.1684 ], [ -15.6699, 12.1678 ], [ -15.6852, 12.191 ], [ -15.7069, 12.1912 ], [ -15.713, 12.1954 ], [ -15.7265, 12.2172 ], [ -15.7351, 12.2234 ], [ -15.7423, 12.2226 ], [ -15.7539, 12.2365 ], [ -15.7739, 12.2303 ], [ -15.7983, 12.2134 ], [ -15.8058, 12.2132 ], [ -15.8323, 12.2301 ], [ -15.8517, 12.2555 ], [ -15.8853, 12.267 ], [ -15.9193, 12.301 ], [ -15.9285, 12.3042 ], [ -15.935, 12.2991 ], [ -15.9414, 12.3024 ], [ -15.9429, 12.2917 ], [ -15.9379, 12.2877 ], [ -15.9287, 12.2892 ], [ -15.9235, 12.2841 ], [ -15.9227, 12.2749 ], [ -15.9288, 12.2617 ], [ -15.9191, 12.2596 ], [ -15.9243, 12.2551 ], [ -15.9244, 12.231 ], [ -15.9414, 12.2152 ], [ -15.9365, 12.1972 ], [ -15.9117, 12.1622 ], [ -15.8912, 12.1455 ], [ -15.8883, 12.1328 ], [ -15.8895, 12.1147 ], [ -15.8712, 12.0643 ], [ -15.8744, 12.051 ], [ -15.87, 12.0426 ], [ -15.8612, 12.0378 ], [ -15.8646, 12.0104 ], [ -15.8227, 12.0039 ], [ -15.7823, 11.9829 ], [ -15.703, 12.0105 ] ] ] } },
{ "type": "Feature", "properties": { "iso3": "GNB", "unit_id": "89520995B84526814284785", "unit_name": "Cacheu/Calequisse" }, "geometry": { "type": "Polygon", "coordinates": [ [ [ -16.0574, 12.328 ], [ -16.1384, 12.2918 ], [ -16.1345, 12.2842 ], [ -16.1417, 12.2799 ], [ -16.1727, 12.2772 ], [ -16.2512, 12.2299 ], [ -16.2662, 12.205 ], [ -16.2695, 12.1925 ], [ -16.2658, 12.1818 ], [ -16.2665, 12.1682 ], [ -16.2526, 12.1631 ], [ -16.2548, 12.1571 ], [ -16.2767, 12.1632 ], [ -16.2754, 12.1798 ], [ -16.2813, 12.1868 ], [ -16.3194, 12.1691 ], [ -16.3512, 12.1456 ], [ -16.3539, 12.1248 ], [ -16.3599, 12.1102 ], [ -16.3828, 12.0824 ], [ -16.3861, 12.0713 ], [ -16.3832, 12.0675 ], [ -16.3659, 12.0639 ], [ -16.3588, 12.058 ], [ -16.3491, 12.0131 ], [ -16.3459, 12.0044 ], [ -16.3373, 11.9949 ], [ -16.3208, 11.9889 ], [ -16.2949, 11.9902 ], [ -16.276, 12.0126 ], [ -16.2646, 12.0149 ], [ -16.2553, 12.0124 ], [ -16.2451, 12.0253 ], [ -16.2311, 12.0326 ], [ -16.2235, 12.0298 ], [ -16.2335, 12.0131 ], [ -16.224, 12.0044 ], [ -16.2136, 12.0078 ], [ -16.2152, 12.0204 ], [ -16.2113, 12.0333 ], [ -16.1964, 12.0356 ], [ -16.1552, 12.0671 ], [ -16.1325, 12.0908 ], [ -16.1171, 12.1185 ], [ -16.1005, 12.1289 ], [ -16.1023, 12.1351 ], [ -16.0974, 12.1447 ], [ -16.0887, 12.1478 ], [ -16.0836, 12.1431 ], [ -16.0754, 12.143 ], [ -16.0704, 12.1309 ], [ -16.0623, 12.1332 ], [ -16.0596, 12.1207 ], [ -16.0515, 12.1164 ], [ -16.0233, 12.1113 ], [ -16.0052, 12.113 ], [ -16.0035, 12.1178 ], [ -15.9788, 12.1297 ], [ -15.9582, 12.1719 ], [ -15.9687, 12.1871 ], [ -15.971, 12.1969 ], [ -15.9496, 12.2112 ], [ -15.9461, 12.2231 ], [ -15.9384, 12.2205 ], [ -15.9307, 12.2228 ], [ -15.9244, 12.231 ], [ -15.9243, 12.2551 ], [ -15.9191, 12.2596 ], [ -15.9288, 12.2617 ], [ -15.9227, 12.2749 ], [ -15.9235, 12.2841 ], [ -15.9287, 12.2892 ], [ -15.9379, 12.2877 ], [ -15.9429, 12.2917 ], [ -15.9435, 12.2996 ], [ -15.9414, 12.3024 ], [ -15.935, 12.2991 ], [ -15.9285, 12.3042 ], [ -15.9213, 12.3051 ], [ -15.9395, 12.316 ], [ -15.9744, 12.3243 ], [ -16.0071, 12.3375 ], [ -16.0574, 12.328 ] ] ] } },
{ "type": "Feature", "properties": { "iso3": "GNB", "unit_id": "89520995B96487513773137", "unit_name": "Caio" }, "geometry": { "type": "MultiPolygon", "coordinates": [ [ [ [ -16.2949, 11.9902 ], [ -16.2799, 11.9846 ], [ -16.2653, 11.9692 ], [ -16.2518, 11.9389 ], [ -16.2316, 11.9219 ], [ -16.1981, 11.91 ], [ -16.1577, 11.9052 ], [ -16.1354, 11.8961 ], [ -16.1126, 11.8776 ], [ -16.1045, 11.8789 ], [ -16.0945, 11.8975 ], [ -16.0724, 11.9136 ], [ -16.1008, 11.9447 ], [ -16.108, 11.9601 ], [ -16.1174, 12.0088 ], [ -16.1232, 12.0119 ], [ -16.1201, 12.0214 ], [ -16.1255, 12.0244 ], [ -16.136, 12.0235 ], [ -16.142, 12.0275 ], [ -16.145, 12.0247 ], [ -16.1727, 12.0233 ], [ -16.1871, 12.0192 ], [ -16.193, 12.0221 ], [ -16.1964, 12.0356 ], [ -16.2063, 12.0352 ], [ -16.2113, 12.0333 ], [ -16.2152, 12.0204 ], [ -16.2136, 12.0078 ], [ -16.224, 12.0044 ], [ -16.2335, 12.0131 ], [ -16.2235, 12.0298 ], [ -16.2311, 12.0326 ], [ -16.2451, 12.0253 ], [ -16.2553, 12.0124 ], [ -16.2646, 12.0149 ], [ -16.276, 12.0126 ], [ -16.2949, 11.9902 ] ] ], [ [ [ -16.2806, 11.852 ], [ -16.2643, 11.8406 ], [ -16.2536, 11.8444 ], [ -16.2353, 11.8411 ], [ -16.2175, 11.8487 ], [ -16.2077, 11.8671 ], [ -16.188, 11.8727 ], [ -16.185, 11.8785 ], [ -16.1867, 11.8819 ], [ -16.2169, 11.8856 ], [ -16.2374, 11.905 ], [ -16.2592, 11.8991 ], [ -16.2568, 11.9067 ], [ -16.2496, 11.9128 ], [ -16.2495, 11.92 ], [ -16.2658, 11.9305 ], [ -16.2898, 11.9651 ], [ -16.2953, 11.9717 ], [ -16.3021, 11.9741 ], [ -16.3051, 11.9708 ], [ -16.3058, 11.9418 ], [ -16.3154, 11.8954 ], [ -16.3255, 11.8718 ], [ -16.3349, 11.8622 ], [ -16.3431, 11.8595 ], [ -16.3442, 11.8558 ], [ -16.3285, 11.854 ], [ -16.3156, 11.8487 ], [ -16.3045, 11.8555 ], [ -16.2806, 11.852 ] ] ], [ [ [ -16.1011, 11.7752 ], [ -16.097, 11.7573 ], [ -16.078, 11.7634 ], [ -16.0548, 11.7603 ], [ -16.0403, 11.7739 ], [ -16.0319, 11.7972 ], [ -16.0289, 11.8159 ], [ -16.0228, 11.8291 ], [ -16.0111, 11.8411 ], [ -16.007, 11.8602 ], [ -15.995, 11.8811 ], [ -15.9969, 11.8871 ], [ -16.0232, 11.8915 ], [ -16.0254, 11.8857 ], [ -16.0179, 11.8727 ], [ -16.0207, 11.8713 ], [ -16.0355, 11.8876 ], [ -16.0597, 11.8826 ], [ -16.0793, 11.8708 ], [ -16.0921, 11.869 ], [ -16.1042, 11.8626 ], [ -16.1152, 11.8635 ], [ -16.1275, 11.8741 ], [ -16.1459, 11.872 ], [ -16.1609, 11.8745 ], [ -16.1669, 11.8671 ], [ -16.1692, 11.853 ], [ -16.1633, 11.8105 ], [ -16.1566, 11.7989 ], [ -16.1481, 11.7958 ], [ -16.1461, 11.7981 ], [ -16.1524, 11.8074 ], [ -16.1479, 11.8101 ], [ -16.1011, 11.7752 ] ] ], [ [ [ -16.0155, 11.8104 ], [ -16.0119, 11.8056 ], [ -16.0073, 11.8068 ], [ -15.9905, 11.8241 ], [ -15.9851, 11.835 ], [ -15.992, 11.8434 ], [ -15.9973, 11.8408 ], [ -16.0135, 11.8178 ], [ -16.0155, 11.8104 ] ] ] ] } },
{ "type": "Feature", "properties": { "iso3": "GNB", "unit_id": "89520995B63781282567650", "unit_name": "Canchungo" }, "geometry": { "type": "MultiPolygon", "coordinates": [ [ [ [ -15.8646, 12.0104 ], [ -15.8612, 12.0378 ], [ -15.87, 12.0426 ], [ -15.8744, 12.051 ], [ -15.8712, 12.0643 ], [ -15.8895, 12.1147 ], [ -15.8883, 12.1328 ], [ -15.8912, 12.1455 ], [ -15.9117, 12.1622 ], [ -15.9365, 12.1972 ], [ -15.9414, 12.2152 ], [ -15.9384, 12.2205 ], [ -15.9461, 12.2231 ], [ -15.9496, 12.2112 ], [ -15.971, 12.1969 ], [ -15.9687, 12.1871 ], [ -15.9582, 12.1719 ], [ -15.9788, 12.1297 ], [ -16.0035, 12.1178 ], [ -16.0052, 12.113 ], [ -16.0233, 12.1113 ], [ -16.0515, 12.1164 ], [ -16.0596, 12.1207 ], [ -16.0623, 12.1332 ], [ -16.0704, 12.1309 ], [ -16.0754, 12.143 ], [ -16.0836, 12.1431 ], [ -16.0887, 12.1478 ], [ -16.0974, 12.1447 ], [ -16.1023, 12.1351 ], [ -16.1005, 12.1289 ], [ -16.1171, 12.1185 ], [ -16.1325, 12.0908 ], [ -16.1552, 12.0671 ], [ -16.1964, 12.0356 ], [ -16.193, 12.0221 ], [ -16.1871, 12.0192 ], [ -16.1727, 12.0233 ], [ -16.145, 12.0247 ], [ -16.142, 12.0275 ], [ -16.136, 12.0235 ], [ -16.1255, 12.0244 ], [ -16.1201, 12.0214 ], [ -16.1232, 12.0119 ], [ -16.1174, 12.0088 ], [ -16.108, 11.9601 ], [ -16.0935, 11.9341 ], [ -16.0724, 11.9136 ], [ -16.0549, 11.92 ], [ -16.0242, 11.9152 ], [ -15.9796, 11.9147 ], [ -15.9391, 11.9492 ], [ -15.9362, 11.9605 ], [ -15.8964, 11.9505 ], [ -15.8646, 12.0104 ] ] ], [ [ [ -16.0349, 11.898 ], [ -16.0056, 11.895 ], [ -15.9842, 11.8976 ], [ -15.9795, 11.9044 ], [ -15.9849, 11.9066 ], [ -15.9988, 11.9018 ], [ -16.0119, 11.9013 ], [ -16.0378, 11.9037 ], [ -16.0392, 11.9009 ], [ -16.0349, 11.898 ] ] ] ] } },
{ "type": "Feature", "properties": { "iso3": "GNB", "unit_id": "89520995B84004927980285", "unit_name": "Sao Domingos" }, "geometry": { "type": "Polygon", "coordinates": [ [ [ -16.0237, 12.4615 ], [ -16.0433, 12.4678 ], [ -16.0627, 12.4693 ], [ -16.1532, 12.451 ], [ -16.2149, 12.4564 ], [ -16.3899, 12.3606 ], [ -16.4678, 12.3566 ], [ -16.5072, 12.3495 ], [ -16.5459, 12.3559 ], [ -16.5921, 12.3463 ], [ -16.6728, 12.3561 ], [ -16.6977, 12.3464 ], [ -16.7175, 12.3282 ], [ -16.6984, 12.3407 ], [ -16.6744, 12.3345 ], [ -16.6687, 12.3377 ], [ -16.6541, 12.324 ], [ -16.6407, 12.3178 ], [ -16.5959, 12.2742 ], [ -16.567, 12.2715 ], [ -16.5503, 12.264 ], [ -16.5052, 12.2151 ], [ -16.4982, 12.1934 ], [ -16.4858, 12.1807 ], [ -16.4727, 12.1766 ], [ -16.449, 12.1752 ], [ -16.4388, 12.1776 ], [ -16.413, 12.1767 ], [ -16.4046, 12.1881 ], [ -16.3952, 12.1904 ], [ -16.3868, 12.1871 ], [ -16.3508, 12.187 ], [ -16.3391, 12.201 ], [ -16.3219, 12.2086 ], [ -16.3086, 12.2086 ], [ -16.2801, 12.2381 ], [ -16.2522, 12.2618 ], [ -16.2226, 12.2793 ], [ -16.2185, 12.2861 ], [ -16.1963, 12.2867 ], [ -16.1601, 12.293 ], [ -16.143, 12.2905 ], [ -16.0812, 12.3161 ], [ -16.0782, 12.3595 ], [ -16.0825, 12.3825 ], [ -16.0645, 12.396 ], [ -16.0375, 12.425 ], [ -16.0237, 12.4615 ] ] ] } },
{ "type": "Feature", "properties": { "iso3": "GNB", "unit_id": "89520995B79212439312639", "unit_name": "Boe" }, "geometry": { "type": "Polygon", "coordinates": [ [ [ -14.4762, 11.831 ], [ -14.4769, 11.8122 ], [ -14.4682, 11.7831 ], [ -14.4691, 11.7591 ], [ -14.4519, 11.7423 ], [ -14.4436, 11.729 ], [ -14.4486, 11.7245 ], [ -14.4508, 11.7165 ], [ -14.4856, 11.6951 ], [ -14.4985, 11.6806 ], [ -14.4959, 11.667 ], [ -14.5154, 11.6563 ], [ -14.5138, 11.6483 ], [ -14.5065, 11.6492 ], [ -14.4984, 11.6451 ], [ -14.4713, 11.6206 ], [ -14.4559, 11.6203 ], [ -14.437, 11.6119 ], [ -14.423, 11.576 ], [ -14.4058, 11.5582 ], [ -14.3195, 11.6031 ], [ -14.2681, 11.6784 ], [ -14.2483, 11.6666 ], [ -14.2279, 11.6737 ], [ -14.2167, 11.6739 ], [ -14.1768, 11.6602 ], [ -14.1542, 11.6648 ], [ -14.1377, 11.6643 ], [ -14.1089, 11.6363 ], [ -14.0951, 11.6309 ], [ -14.089, 11.6305 ], [ -14.0621, 11.648 ], [ -14.0374, 11.6561 ], [ -14.0283, 11.6569 ], [ -14.0, 11.6449 ], [ -13.9916, 11.645 ], [ -13.9423, 11.6634 ], [ -13.9359, 11.6819 ], [ -13.932, 11.6849 ], [ -13.9205, 11.6825 ], [ -13.8972, 11.668 ], [ -13.8798, 11.6686 ], [ -13.8723, 11.6922 ], [ -13.8669, 11.6904 ], [ -13.8601, 11.7155 ], [ -13.8541, 11.7248 ], [ -13.8575, 11.7337 ], [ -13.8653, 11.7254 ], [ -13.8684, 11.7279 ], [ -13.8708, 11.7373 ], [ -13.8632, 11.7518 ], [ -13.8592, 11.7461 ], [ -13.8455, 11.7497 ], [ -13.84, 11.7421 ], [ -13.834, 11.7399 ], [ -13.8424, 11.723 ], [ -13.8366, 11.7205 ], [ -13.8297, 11.7086 ], [ -13.8013, 11.7192 ], [ -13.8006, 11.7162 ], [ -13.8068, 11.709 ], [ -13.8038, 11.7061 ], [ -13.8044, 11.6964 ], [ -13.7915, 11.6896 ], [ -13.7848, 11.6936 ], [ -13.7824, 11.6865 ], [ -13.7483, 11.695 ], [ -13.7295, 11.7092 ], [ -13.7197, 11.7072 ], [ -13.7134, 11.7098 ], [ -13.7152, 11.7524 ], [ -13.72, 11.7664 ], [ -13.7116, 11.8134 ], [ -13.7203, 11.8814 ], [ -13.7129, 11.9636 ], [ -13.7056, 12.0043 ], [ -13.7138, 12.0089 ], [ -13.7761, 12.0247 ], [ -13.7911, 12.0324 ], [ -13.8077, 12.0506 ], [ -13.8142, 12.0715 ], [ -13.822, 12.0827 ], [ -13.8713, 12.1002 ], [ -13.8783, 12.1064 ], [ -13.8872, 12.1245 ], [ -13.8928, 12.1285 ], [ -13.9418, 12.1359 ], [ -13.9573, 12.1591 ], [ -13.9686, 12.1581 ], [ -13.9721, 12.1344 ], [ -13.9838, 12.1273 ], [ -13.9908, 12.1165 ], [ -14.0017, 12.1077 ], [ -13.9988, 12.0872 ], [ -14.0016, 12.0746 ], [ -14.0115, 12.0613 ], [ -14.0106, 12.0407 ], [ -14.0205, 12.0379 ], [ -14.0507, 12.0374 ], [ -14.0444, 12.0161 ], [ -14.058, 12.0038 ], [ -14.0595, 11.9983 ], [ -14.0473, 11.9904 ], [ -14.0477, 11.9719 ], [ -14.0597, 11.9663 ], [ -14.0785, 11.9691 ], [ -14.0815, 11.9634 ], [ -14.0795, 11.9405 ], [ -14.0817, 11.9329 ], [ -14.0914, 11.9198 ], [ -14.1046, 11.913 ], [ -14.1192, 11.8981 ], [ -14.1503, 11.9016 ], [ -14.1622, 11.9092 ], [ -14.1895, 11.9376 ], [ -14.2069, 11.9292 ], [ -14.2398, 11.9294 ], [ -14.2469, 11.9048 ], [ -14.2565, 11.8958 ], [ -14.2656, 11.8928 ], [ -14.288, 11.8996 ], [ -14.2902, 11.9039 ], [ -14.286, 11.9222 ], [ -14.2891, 11.9297 ], [ -14.3027, 11.9276 ], [ -14.3101, 11.9205 ], [ -14.3267, 11.9256 ], [ -14.4541, 11.9227 ], [ -14.4699, 11.9133 ], [ -14.4758, 11.8978 ], [ -14.4839, 11.8539 ], [ -14.4762, 11.831 ] ] ] } },
{ "type": "Feature", "properties": { "iso3": "GNB", "unit_id": "89520995B39663639476396", "unit_name": "Gabu" }, "geometry": { "type": "Polygon", "coordinates": [ [ [ -14.5361, 12.1138 ], [ -14.5458, 12.1026 ], [ -14.5434, 12.0953 ], [ -14.5079, 12.0653 ], [ -14.5065, 12.0514 ], [ -14.4941, 12.0357 ], [ -14.4944, 12.0113 ], [ -14.5071, 11.9963 ], [ -14.5086, 11.9898 ], [ -14.4958, 11.9622 ], [ -14.4812, 11.9476 ], [ -14.4783, 11.9298 ], [ -14.4721, 11.9223 ], [ -14.4699, 11.9133 ], [ -14.4541, 11.9227 ], [ -14.3267, 11.9256 ], [ -14.3101, 11.9205 ], [ -14.3027, 11.9276 ], [ -14.2891, 11.9297 ], [ -14.286, 11.9222 ], [ -14.2902, 11.9039 ], [ -14.288, 11.8996 ], [ -14.2656, 11.8928 ], [ -14.2565, 11.8958 ], [ -14.2469, 11.9048 ], [ -14.2398, 11.9294 ], [ -14.2069, 11.9292 ], [ -14.1895, 11.9376 ], [ -14.1622, 11.9092 ], [ -14.1503, 11.9016 ], [ -14.1367, 11.8985 ], [ -14.1192, 11.8981 ], [ -14.1046, 11.913 ], [ -14.0914, 11.9198 ], [ -14.0795, 11.9405 ], [ -14.0815, 11.9634 ], [ -14.0785, 11.9691 ], [ -14.0597, 11.9663 ], [ -14.0477, 11.9719 ], [ -14.0473, 11.9904 ], [ -14.0595, 11.9983 ], [ -14.058, 12.0038 ], [ -14.0444, 12.0161 ], [ -14.0507, 12.0374 ], [ -14.0205, 12.0379 ], [ -14.0106, 12.0407 ], [ -14.0115, 12.0613 ], [ -14.0016, 12.0746 ], [ -13.9988, 12.0872 ], [ -14.0017, 12.1077 ], [ -13.9821, 12.1264 ], [ -14.0125, 12.1433 ], [ -14.0179, 12.1557 ], [ -14.0309, 12.1693 ], [ -14.0309, 12.176 ], [ -14.058, 12.2046 ], [ -14.0822, 12.259 ], [ -14.1029, 12.2529 ], [ -14.1214, 12.2599 ], [ -14.1399, 12.2571 ], [ -14.1478, 12.2662 ], [ -14.1711, 12.2768 ], [ -14.179, 12.2839 ], [ -14.1818, 12.2964 ], [ -14.1672, 12.3102 ], [ -14.1415, 12.3491 ], [ -14.0775, 12.4103 ], [ -14.0759, 12.4149 ], [ -14.0891, 12.4087 ], [ -14.1009, 12.4087 ], [ -14.1175, 12.4155 ], [ -14.1381, 12.4385 ], [ -14.1536, 12.4312 ], [ -14.1792, 12.4306 ], [ -14.1904, 12.4381 ], [ -14.1978, 12.4519 ], [ -14.2042, 12.4535 ], [ -14.2171, 12.4488 ], [ -14.234, 12.4474 ], [ -14.2436, 12.4425 ], [ -14.2647, 12.4411 ], [ -14.2779, 12.4459 ], [ -14.291, 12.4395 ], [ -14.2857, 12.3994 ], [ -14.3053, 12.3654 ], [ -14.3116, 12.3589 ], [ -14.3323, 12.3505 ], [ -14.3733, 12.3433 ], [ -14.3909, 12.3303 ], [ -14.4009, 12.2999 ], [ -14.3896, 12.2603 ], [ -14.39, 12.247 ], [ -14.3981, 12.2145 ], [ -14.4094, 12.1929 ], [ -14.4135, 12.1767 ], [ -14.4294, 12.1568 ], [ -14.4334, 12.1425 ], [ -14.4396, 12.1383 ], [ -14.4516, 12.1475 ], [ -14.4616, 12.1358 ], [ -14.4653, 12.122 ], [ -14.4731, 12.1298 ], [ -14.4786, 12.1255 ], [ -14.4844, 12.1274 ], [ -14.49, 12.1174 ], [ -14.5094, 12.1102 ], [ -14.5129, 12.111 ], [ -14.5085, 12.1242 ], [ -14.5241, 12.1213 ], [ -14.5361, 12.1138 ] ] ] } },
{ "type": "Feature", "properties": { "iso3": "GNB", "unit_id": "89520995B70950758792247", "unit_name": "Pirada" }, "geometry": { "type": "Polygon", "coordinates": [ [ [ -14.3455, 12.6326 ], [ -14.341, 12.6342 ], [ -14.3415, 12.6294 ], [ -14.3368, 12.629 ], [ -14.319, 12.6321 ], [ -14.3118, 12.6155 ], [ -14.3058, 12.611 ], [ -14.2931, 12.6149 ], [ -14.2917, 12.6265 ], [ -14.2877, 12.6275 ], [ -14.2813, 12.6155 ], [ -14.2744, 12.61 ], [ -14.2651, 12.6083 ], [ -14.2541, 12.6122 ], [ -14.2528, 12.5989 ], [ -14.2448, 12.5868 ], [ -14.2369, 12.5502 ], [ -14.2446, 12.54 ], [ -14.2634, 12.5254 ], [ -14.2853, 12.5195 ], [ -14.3277, 12.5326 ], [ -14.3411, 12.5275 ], [ -14.35, 12.5175 ], [ -14.3295, 12.4923 ], [ -14.3025, 12.4503 ], [ -14.291, 12.4395 ], [ -14.2779, 12.4459 ], [ -14.2647, 12.4411 ], [ -14.2436, 12.4425 ], [ -14.234, 12.4474 ], [ -14.2171, 12.4488 ], [ -14.2042, 12.4535 ], [ -14.1978, 12.4519 ], [ -14.1904, 12.4381 ], [ -14.1792, 12.4306 ], [ -14.1536, 12.4312 ], [ -14.1381, 12.4385 ], [ -14.1175, 12.4155 ], [ -14.1009, 12.4087 ], [ -14.0891, 12.4087 ], [ -14.0759, 12.4149 ], [ -14.0617, 12.4303 ], [ -14.0598, 12.439 ], [ -14.0537, 12.4474 ], [ -14.0555, 12.4713 ], [ -14.0611, 12.4765 ], [ -14.0659, 12.4928 ], [ -14.0603, 12.519 ], [ -14.0484, 12.5234 ], [ -14.0161, 12.5182 ], [ -14.0063, 12.5212 ], [ -13.9842, 12.5178 ], [ -13.9748, 12.5219 ], [ -13.9522, 12.5403 ], [ -13.9171, 12.5971 ], [ -13.9086, 12.605 ], [ -13.8769, 12.6124 ], [ -13.8643, 12.6211 ], [ -13.85, 12.6506 ], [ -13.8445, 12.676 ], [ -14.3397, 12.6765 ], [ -14.3508, 12.6431 ], [ -14.3455, 12.6326 ] ] ] } },
{ "type": "Feature", "properties": { "iso3": "GNB", "unit_id": "89520995B1073625570025", "unit_name": "Pitche" }, "geometry": { "type": "Polygon", "coordinates": [ [ [ -13.9573, 12.1591 ], [ -13.9647, 12.1781 ], [ -13.965, 12.1915 ], [ -13.9569, 12.2006 ], [ -13.9408, 12.2051 ], [ -13.9332, 12.2156 ], [ -13.9298, 12.23 ], [ -13.9224, 12.236 ], [ -13.8719, 12.2378 ], [ -13.8575, 12.2439 ], [ -13.8555, 12.2566 ], [ -13.8662, 12.2731 ], [ -13.865, 12.2795 ], [ -13.84, 12.2804 ], [ -13.836, 12.2777 ], [ -13.8342, 12.2598 ], [ -13.8291, 12.2564 ], [ -13.8239, 12.2606 ], [ -13.8096, 12.2878 ], [ -13.8015, 12.2946 ], [ -13.797, 12.2835 ], [ -13.7983, 12.273 ], [ -13.8087, 12.2535 ], [ -13.8044, 12.2506 ], [ -13.7784, 12.2492 ], [ -13.7731, 12.252 ], [ -13.7674, 12.2714 ], [ -13.763, 12.2753 ], [ -13.7557, 12.274 ], [ -13.7321, 12.2494 ], [ -13.7251, 12.2457 ], [ -13.7195, 12.2469 ], [ -13.7139, 12.2536 ], [ -13.7046, 12.2838 ], [ -13.6997, 12.2903 ], [ -13.6944, 12.2913 ], [ -13.69, 12.3026 ], [ -13.6632, 12.3152 ], [ -13.6598, 12.3279 ], [ -13.6616, 12.347 ], [ -13.6552, 12.3606 ], [ -13.6631, 12.4054 ], [ -13.6397, 12.4383 ], [ -13.6365, 12.4498 ], [ -13.6388, 12.4663 ], [ -13.6562, 12.5071 ], [ -13.6796, 12.532 ], [ -13.6925, 12.5869 ], [ -13.6997, 12.6036 ], [ -13.7037, 12.6556 ], [ -13.709, 12.6762 ], [ -13.8445, 12.676 ], [ -13.85, 12.6506 ], [ -13.8643, 12.6211 ], [ -13.8769, 12.6124 ], [ -13.9086, 12.605 ], [ -13.9171, 12.5971 ], [ -13.9522, 12.5403 ], [ -13.9748, 12.5219 ], [ -13.9842, 12.5178 ], [ -14.0063, 12.5212 ], [ -14.0161, 12.5182 ], [ -14.0484, 12.5234 ], [ -14.0603, 12.519 ], [ -14.0659, 12.4928 ], [ -14.0611, 12.4765 ], [ -14.0555, 12.4713 ], [ -14.0537, 12.4474 ], [ -14.0598, 12.439 ], [ -14.0617, 12.4303 ], [ -14.0745, 12.4191 ], [ -14.0775, 12.4103 ], [ -14.1415, 12.3491 ], [ -14.1672, 12.3102 ], [ -14.1818, 12.2964 ], [ -14.179, 12.2839 ], [ -14.1711, 12.2768 ], [ -14.1478, 12.2662 ], [ -14.1399, 12.2571 ], [ -14.1214, 12.2599 ], [ -14.1029, 12.2529 ], [ -14.0822, 12.259 ], [ -14.058, 12.2046 ], [ -14.0309, 12.176 ], [ -14.0309, 12.1693 ], [ -14.0179, 12.1557 ], [ -14.0125, 12.1433 ], [ -13.9838, 12.1273 ], [ -13.9721, 12.1344 ], [ -13.9686, 12.1581 ], [ -13.9573, 12.1591 ] ] ] } },
{ "type": "Feature", "properties": { "iso3": "GNB", "unit_id": "89520995B29862792366064", "unit_name": "Sonaco" }, "geometry": { "type": "Polygon", "coordinates": [ [ [ -14.4516, 12.1475 ], [ -14.4396, 12.1383 ], [ -14.4334, 12.1425 ], [ -14.4294, 12.1568 ], [ -14.4135, 12.1767 ], [ -14.4094, 12.1929 ], [ -14.3981, 12.2145 ], [ -14.3896, 12.2603 ], [ -14.4009, 12.2999 ], [ -14.3909, 12.3303 ], [ -14.3733, 12.3433 ], [ -14.363, 12.3469 ], [ -14.347, 12.3461 ], [ -14.3116, 12.3589 ], [ -14.2996, 12.3731 ], [ -14.2857, 12.3994 ], [ -14.291, 12.4395 ], [ -14.3025, 12.4503 ], [ -14.3295, 12.4923 ], [ -14.35, 12.5175 ], [ -14.3411, 12.5275 ], [ -14.3277, 12.5326 ], [ -14.2947, 12.5209 ], [ -14.2706, 12.5217 ], [ -14.2446, 12.54 ], [ -14.2369, 12.5502 ], [ -14.2463, 12.5921 ], [ -14.2528, 12.5989 ], [ -14.2541, 12.6122 ], [ -14.2651, 12.6083 ], [ -14.2744, 12.61 ], [ -14.2813, 12.6155 ], [ -14.2877, 12.6275 ], [ -14.2917, 12.6265 ], [ -14.2931, 12.6149 ], [ -14.3058, 12.611 ], [ -14.3118, 12.6155 ], [ -14.319, 12.6321 ], [ -14.3415, 12.6294 ], [ -14.341, 12.6342 ], [ -14.3479, 12.6318 ], [ -14.3597, 12.6111 ], [ -14.3772, 12.6073 ], [ -14.4008, 12.6403 ], [ -14.4176, 12.6337 ], [ -14.4176, 12.6028 ], [ -14.4083, 12.5932 ], [ -14.4117, 12.5815 ], [ -14.4087, 12.5729 ], [ -14.4177, 12.5668 ], [ -14.4091, 12.5406 ], [ -14.4032, 12.5387 ], [ -14.3974, 12.5308 ], [ -14.3738, 12.5232 ], [ -14.3777, 12.5037 ], [ -14.3861, 12.4988 ], [ -14.3902, 12.4981 ], [ -14.4193, 12.518 ], [ -14.4377, 12.4979 ], [ -14.4488, 12.492 ], [ -14.4627, 12.4904 ], [ -14.464, 12.5067 ], [ -14.4881, 12.5057 ], [ -14.4948, 12.5081 ], [ -14.4972, 12.5138 ], [ -14.502, 12.5161 ], [ -14.5099, 12.5103 ], [ -14.5096, 12.5153 ], [ -14.5032, 12.5193 ], [ -14.5053, 12.5209 ], [ -14.5256, 12.5205 ], [ -14.5342, 12.5116 ], [ -14.5325, 12.4979 ], [ -14.513, 12.4735 ], [ -14.5026, 12.4726 ], [ -14.4916, 12.4785 ], [ -14.488, 12.485 ], [ -14.482, 12.4827 ], [ -14.4629, 12.4551 ], [ -14.462, 12.443 ], [ -14.4667, 12.4371 ], [ -14.4734, 12.4348 ], [ -14.481, 12.441 ], [ -14.4881, 12.4421 ], [ -14.4905, 12.4393 ], [ -14.489, 12.4265 ], [ -14.5094, 12.437 ], [ -14.5125, 12.4306 ], [ -14.5086, 12.4178 ], [ -14.4992, 12.4053 ], [ -14.5029, 12.3971 ], [ -14.5198, 12.3881 ], [ -14.5383, 12.3983 ], [ -14.5413, 12.3974 ], [ -14.5614, 12.3767 ], [ -14.5441, 12.3678 ], [ -14.5555, 12.3624 ], [ -14.5544, 12.3508 ], [ -14.5306, 12.3491 ], [ -14.5027, 12.322 ], [ -14.4894, 12.3045 ], [ -14.4817, 12.2831 ], [ -14.4926, 12.2464 ], [ -14.4915, 12.2314 ], [ -14.4836, 12.2116 ], [ -14.4469, 12.1614 ], [ -14.4516, 12.1475 ] ] ] } },
{ "type": "Feature", "properties": { "iso3": "GNB", "unit_id": "89520995B95724856219570", "unit_name": "Bissora" }, "geometry": { "type": "Polygon", "coordinates": [ [ [ -15.6326, 11.9912 ], [ -15.5969, 12.0166 ], [ -15.5788, 12.016 ], [ -15.5608, 12.0026 ], [ -15.5252, 12.0399 ], [ -15.4584, 12.0549 ], [ -15.4573, 12.0613 ], [ -15.4494, 12.0627 ], [ -15.4449, 12.0579 ], [ -15.4412, 12.0729 ], [ -15.4325, 12.0745 ], [ -15.4288, 12.0903 ], [ -15.4209, 12.0981 ], [ -15.4213, 12.1066 ], [ -15.427, 12.1157 ], [ -15.4227, 12.1248 ], [ -15.4271, 12.1315 ], [ -15.4142, 12.1439 ], [ -15.4007, 12.1694 ], [ -15.3484, 12.1873 ], [ -15.2973, 12.1959 ], [ -15.2872, 12.2002 ], [ -15.2835, 12.2089 ], [ -15.3346, 12.2635 ], [ -15.3707, 12.2796 ], [ -15.3695, 12.2898 ], [ -15.3767, 12.2999 ], [ -15.3882, 12.2981 ], [ -15.4088, 12.3054 ], [ -15.4307, 12.3255 ], [ -15.4583, 12.3373 ], [ -15.458, 12.349 ], [ -15.4506, 12.3543 ], [ -15.452, 12.3721 ], [ -15.4573, 12.3733 ], [ -15.4658, 12.3831 ], [ -15.4704, 12.3992 ], [ -15.4796, 12.4077 ], [ -15.4903, 12.4079 ], [ -15.5039, 12.3949 ], [ -15.5235, 12.4074 ], [ -15.5391, 12.3956 ], [ -15.5508, 12.3794 ], [ -15.5583, 12.3766 ], [ -15.5745, 12.3792 ], [ -15.5843, 12.3731 ], [ -15.5975, 12.3567 ], [ -15.6167, 12.352 ], [ -15.6244, 12.3357 ], [ -15.6237, 12.3286 ], [ -15.6272, 12.3214 ], [ -15.6381, 12.3236 ], [ -15.6496, 12.3142 ], [ -15.6548, 12.3136 ], [ -15.6618, 12.3143 ], [ -15.6709, 12.3236 ], [ -15.6838, 12.3218 ], [ -15.6963, 12.312 ], [ -15.6967, 12.306 ], [ -15.6887, 12.2976 ], [ -15.6909, 12.2933 ], [ -15.7074, 12.2893 ], [ -15.711, 12.294 ], [ -15.7117, 12.3044 ], [ -15.7207, 12.307 ], [ -15.7338, 12.3007 ], [ -15.7474, 12.2782 ], [ -15.7474, 12.2693 ], [ -15.7411, 12.266 ], [ -15.727, 12.2691 ], [ -15.7269, 12.2619 ], [ -15.7363, 12.2494 ], [ -15.7572, 12.2439 ], [ -15.7423, 12.2226 ], [ -15.7351, 12.2234 ], [ -15.7265, 12.2172 ], [ -15.713, 12.1954 ], [ -15.7069, 12.1912 ], [ -15.6852, 12.191 ], [ -15.6699, 12.1678 ], [ -15.6536, 12.1684 ], [ -15.6174, 12.1499 ], [ -15.6239, 12.1439 ], [ -15.6224, 12.1264 ], [ -15.6588, 12.1123 ], [ -15.6629, 12.0829 ], [ -15.6554, 12.0745 ], [ -15.6561, 12.0673 ], [ -15.6706, 12.0573 ], [ -15.6668, 12.0263 ], [ -15.6571, 12.0253 ], [ -15.6466, 12.0189 ], [ -15.6422, 12.0136 ], [ -15.6381, 11.9954 ], [ -15.6326, 11.9912 ] ] ] } },
{ "type": "Feature", "properties": { "iso3": "GNB", "unit_id": "89520995B13101886261532", "unit_name": "Farim" }, "geometry": { "type": "Polygon", "coordinates": [ [ [ -14.9129, 12.6783 ], [ -15.0717, 12.6806 ], [ -15.1021, 12.6777 ], [ -15.1792, 12.6808 ], [ -15.1949, 12.6771 ], [ -15.2352, 12.6596 ], [ -15.2723, 12.6358 ], [ -15.3298, 12.6118 ], [ -15.4296, 12.5351 ], [ -15.4521, 12.5224 ], [ -15.4808, 12.5112 ], [ -15.4805, 12.4711 ], [ -15.4874, 12.4395 ], [ -15.4873, 12.4078 ], [ -15.4796, 12.4077 ], [ -15.4704, 12.3992 ], [ -15.4658, 12.3831 ], [ -15.4573, 12.3733 ], [ -15.452, 12.3721 ], [ -15.439, 12.377 ], [ -15.3909, 12.4031 ], [ -15.3812, 12.4039 ], [ -15.3792, 12.3855 ], [ -15.3695, 12.3802 ], [ -15.344, 12.3982 ], [ -15.3214, 12.3978 ], [ -15.3187, 12.4022 ], [ -15.3198, 12.4103 ], [ -15.3138, 12.4225 ], [ -15.2993, 12.4246 ], [ -15.296, 12.4331 ], [ -15.2727, 12.4278 ], [ -15.2653, 12.434 ], [ -15.2641, 12.4474 ], [ -15.2427, 12.449 ], [ -15.2405, 12.4544 ], [ -15.2459, 12.4669 ], [ -15.24, 12.478 ], [ -15.2205, 12.4721 ], [ -15.1966, 12.4784 ], [ -15.1913, 12.4701 ], [ -15.1816, 12.4687 ], [ -15.1746, 12.4583 ], [ -15.1759, 12.4519 ], [ -15.17, 12.4488 ], [ -15.1639, 12.4257 ], [ -15.1547, 12.4285 ], [ -15.1242, 12.4134 ], [ -15.0736, 12.4256 ], [ -15.0502, 12.4435 ], [ -15.0196, 12.4565 ], [ -15.0057, 12.4546 ], [ -14.9989, 12.4442 ], [ -14.9787, 12.4407 ], [ -14.9731, 12.4326 ], [ -14.9699, 12.4336 ], [ -14.9716, 12.4257 ], [ -14.9552, 12.431 ], [ -14.943, 12.4249 ], [ -14.9262, 12.4301 ], [ -14.9119, 12.4285 ], [ -14.9033, 12.4341 ], [ -14.8889, 12.4346 ], [ -14.8654, 12.4408 ], [ -14.8582, 12.4496 ], [ -14.8493, 12.4528 ], [ -14.8771, 12.4974 ], [ -14.8863, 12.5074 ], [ -14.9077, 12.5186 ], [ -14.9042, 12.5283 ], [ -14.8833, 12.5497 ], [ -14.8783, 12.5671 ], [ -14.8518, 12.5914 ], [ -14.8476, 12.5992 ], [ -14.8462, 12.6187 ], [ -14.8507, 12.631 ], [ -14.8614, 12.6415 ], [ -14.8687, 12.6622 ], [ -14.9129, 12.6783 ] ] ] } },
{ "type": "Feature", "properties": { "iso3": "GNB", "unit_id": "89520995B90646398148495", "unit_name": "Mansaba" }, "geometry": { "type": "Polygon", "coordinates": [ [ [ -14.9357, 12.1994 ], [ -14.9391, 12.2209 ], [ -14.9372, 12.2415 ], [ -14.9451, 12.2737 ], [ -14.9362, 12.2854 ], [ -14.9616, 12.3167 ], [ -14.9707, 12.351 ], [ -14.9764, 12.3919 ], [ -14.9699, 12.4336 ], [ -14.9731, 12.4326 ], [ -14.9787, 12.4407 ], [ -14.9989, 12.4442 ], [ -15.0086, 12.456 ], [ -15.0196, 12.4565 ], [ -15.0502, 12.4435 ], [ -15.0736, 12.4256 ], [ -15.1242, 12.4134 ], [ -15.1547, 12.4285 ], [ -15.1639, 12.4257 ], [ -15.17, 12.4488 ], [ -15.1759, 12.4519 ], [ -15.1746, 12.4583 ], [ -15.1816, 12.4687 ], [ -15.1913, 12.4701 ], [ -15.1966, 12.4784 ], [ -15.2205, 12.4721 ], [ -15.24, 12.478 ], [ -15.2459, 12.4669 ], [ -15.2405, 12.4544 ], [ -15.2427, 12.449 ], [ -15.2641, 12.4474 ], [ -15.2653, 12.434 ], [ -15.2727, 12.4278 ], [ -15.296, 12.4331 ], [ -15.2993, 12.4246 ], [ -15.3138, 12.4225 ], [ -15.3198, 12.4103 ], [ -15.3187, 12.4022 ], [ -15.3214, 12.3978 ], [ -15.344, 12.3982 ], [ -15.3695, 12.3802 ], [ -15.3792, 12.3855 ], [ -15.3812, 12.4039 ], [ -15.3909, 12.4031 ], [ -15.452, 12.3721 ], [ -15.4506, 12.3543 ], [ -15.458, 12.349 ], [ -15.4583, 12.3373 ], [ -15.4307, 12.3255 ], [ -15.4088, 12.3054 ], [ -15.3882, 12.2981 ], [ -15.3767, 12.2999 ], [ -15.3695, 12.2898 ], [ -15.3707, 12.2796 ], [ -15.3346, 12.2635 ], [ -15.302, 12.226 ], [ -15.2855, 12.2124 ], [ -15.2791, 12.2013 ], [ -15.2695, 12.1935 ], [ -15.2629, 12.1792 ], [ -15.2428, 12.2019 ], [ -15.2227, 12.2069 ], [ -15.2134, 12.207 ], [ -15.2012, 12.2018 ], [ -15.1839, 12.1732 ], [ -15.1742, 12.179 ], [ -15.1685, 12.1932 ], [ -15.1622, 12.1964 ], [ -15.1494, 12.1892 ], [ -15.1228, 12.1912 ], [ -15.0705, 12.1845 ], [ -15.0289, 12.2042 ], [ -15.011, 12.199 ], [ -14.9971, 12.2049 ], [ -14.9714, 12.1917 ], [ -14.96, 12.1907 ], [ -14.9357, 12.1994 ] ] ] } },
{ "type": "Feature", "properties": { "iso3": "GNB", "unit_id": "89520995B93738422846311", "unit_name": "Mansoa" }, "geometry": { "type": "Polygon", "coordinates": [ [ [ -15.0726, 12.1849 ], [ -15.1228, 12.1912 ], [ -15.1494, 12.1892 ], [ -15.1622, 12.1964 ], [ -15.1685, 12.1932 ], [ -15.1742, 12.179 ], [ -15.1839, 12.1732 ], [ -15.2012, 12.2018 ], [ -15.2134, 12.207 ], [ -15.2227, 12.2069 ], [ -15.2428, 12.2019 ], [ -15.2629, 12.1792 ], [ -15.2695, 12.1935 ], [ -15.2835, 12.2089 ], [ -15.2872, 12.2002 ], [ -15.2973, 12.1959 ], [ -15.3484, 12.1873 ], [ -15.3882, 12.1754 ], [ -15.4007, 12.1694 ], [ -15.4142, 12.1439 ], [ -15.4271, 12.1315 ], [ -15.4227, 12.1248 ], [ -15.427, 12.1157 ], [ -15.4213, 12.1066 ], [ -15.4209, 12.0981 ], [ -15.4288, 12.0903 ], [ -15.4325, 12.0745 ], [ -15.4412, 12.0729 ], [ -15.4449, 12.0579 ], [ -15.4494, 12.0627 ], [ -15.4573, 12.0613 ], [ -15.4584, 12.0549 ], [ -15.4352, 12.0366 ], [ -15.428, 12.0248 ], [ -15.4027, 11.9981 ], [ -15.39, 11.967 ], [ -15.3664, 11.9666 ], [ -15.3322, 11.9574 ], [ -15.3192, 11.9481 ], [ -15.3, 11.9251 ], [ -15.2677, 11.9239 ], [ -15.2366, 11.9062 ], [ -15.2094, 11.8987 ], [ -15.1978, 11.8993 ], [ -15.1858, 11.9096 ], [ -15.1769, 11.9123 ], [ -15.1611, 11.9302 ], [ -15.1577, 11.9428 ], [ -15.143, 11.9585 ], [ -15.1191, 11.9717 ], [ -15.0943, 11.9727 ], [ -15.0781, 11.9807 ], [ -15.0554, 11.9812 ], [ -15.0292, 11.9713 ], [ -15.0167, 11.9733 ], [ -14.9853, 11.9641 ], [ -14.9585, 11.9659 ], [ -14.9484, 11.9768 ], [ -14.9532, 11.9951 ], [ -14.9622, 12.0042 ], [ -14.9684, 12.0196 ], [ -14.9885, 12.0337 ], [ -15.0071, 12.0567 ], [ -15.0069, 12.0674 ], [ -15.021, 12.0861 ], [ -15.0726, 12.1849 ] ] ] } },
{ "type": "Feature", "properties": { "iso3": "GNB", "unit_id": "89520995B65221632247971", "unit_name": "Nhacra" }, "geometry": { "type": "Polygon", "coordinates": [ [ [ -15.6108, 11.9333 ], [ -15.5993, 11.9406 ], [ -15.5798, 11.931 ], [ -15.5772, 11.9224 ], [ -15.5588, 11.897 ], [ -15.5413, 11.8923 ], [ -15.5191, 11.9085 ], [ -15.5112, 11.9268 ], [ -15.5057, 11.9324 ], [ -15.4887, 11.9391 ], [ -15.4455, 11.9418 ], [ -15.4194, 11.9621 ], [ -15.39, 11.967 ], [ -15.4027, 11.9981 ], [ -15.428, 12.0248 ], [ -15.4352, 12.0366 ], [ -15.4584, 12.0549 ], [ -15.5252, 12.0399 ], [ -15.5608, 12.0026 ], [ -15.5788, 12.016 ], [ -15.5969, 12.0166 ], [ -15.6326, 11.9912 ], [ -15.6236, 11.9758 ], [ -15.6289, 11.9683 ], [ -15.6284, 11.9607 ], [ -15.6175, 11.9386 ], [ -15.6108, 11.9333 ] ] ] } },
{ "type": "Feature", "properties": { "iso3": "GNB", "unit_id": "89520995B51287885746208", "unit_name": "Buba" }, "geometry": { "type": "Polygon", "coordinates": [ [ [ -14.9248, 11.8344 ], [ -14.9712, 11.8269 ], [ -14.9932, 11.7958 ], [ -15.0046, 11.7917 ], [ -15.0046, 11.7778 ], [ -15.0198, 11.7445 ], [ -15.0182, 11.7358 ], [ -15.0261, 11.7072 ], [ -15.0425, 11.6867 ], [ -15.0746, 11.6584 ], [ -15.0903, 11.6501 ], [ -15.096, 11.642 ], [ -15.099, 11.6225 ], [ -15.0897, 11.6189 ], [ -15.0706, 11.6431 ], [ -15.0634, 11.6454 ], [ -15.062, 11.6416 ], [ -15.0679, 11.6309 ], [ -15.0622, 11.6275 ], [ -15.0624, 11.6243 ], [ -15.0752, 11.6211 ], [ -15.0805, 11.6158 ], [ -15.08, 11.611 ], [ -15.0876, 11.6053 ], [ -15.0767, 11.5926 ], [ -15.0592, 11.588 ], [ -15.0424, 11.5891 ], [ -15.0306, 11.5962 ], [ -15.0233, 11.591 ], [ -15.0198, 11.5919 ], [ -15.0123, 11.609 ], [ -15.0008, 11.6191 ], [ -14.9906, 11.6098 ], [ -14.9995, 11.6095 ], [ -15.0048, 11.6048 ], [ -15.0, 11.593 ], [ -14.9901, 11.5898 ], [ -14.9761, 11.5909 ], [ -14.9752, 11.5883 ], [ -14.9849, 11.5829 ], [ -14.9869, 11.5719 ], [ -14.9919, 11.5812 ], [ -15.0, 11.5841 ], [ -15.012, 11.5854 ], [ -15.0207, 11.5744 ], [ -15.0242, 11.5739 ], [ -15.03, 11.5844 ], [ -15.0467, 11.5812 ], [ -15.0499, 11.5607 ], [ -15.0565, 11.5813 ], [ -15.0636, 11.5675 ], [ -15.0653, 11.5771 ], [ -15.0698, 11.5823 ], [ -15.0787, 11.5831 ], [ -15.081, 11.5647 ], [ -15.0839, 11.5684 ], [ -15.0892, 11.567 ], [ -15.1018, 11.5562 ], [ -15.1225, 11.442 ], [ -15.1205, 11.4334 ], [ -15.115, 11.4269 ], [ -15.0917, 11.4122 ], [ -15.0904, 11.4083 ], [ -15.0701, 11.4134 ], [ -15.064, 11.418 ], [ -15.0571, 11.4155 ], [ -15.0463, 11.4219 ], [ -15.0311, 11.422 ], [ -15.0275, 11.4278 ], [ -15.0302, 11.4362 ], [ -15.008, 11.4337 ], [ -15.0058, 11.4384 ], [ -14.959, 11.4392 ], [ -14.843, 11.6967 ], [ -14.8517, 11.701 ], [ -14.8626, 11.6867 ], [ -14.8705, 11.6891 ], [ -14.8729, 11.7028 ], [ -14.8629, 11.719 ], [ -14.8467, 11.7194 ], [ -14.8347, 11.7379 ], [ -14.859, 11.7437 ], [ -14.863, 11.7528 ], [ -14.8681, 11.7555 ], [ -14.8797, 11.7452 ], [ -14.8905, 11.7428 ], [ -14.89, 11.7723 ], [ -14.8956, 11.8001 ], [ -14.9248, 11.8344 ] ] ] } },
{ "type": "Feature", "properties": { "iso3": "GNB", "unit_id": "89520995B21447207048005", "unit_name": "Empada" }, "geometry": { "type": "Polygon", "coordinates": [ [ [ -15.0839, 11.5684 ], [ -15.0849, 11.5771 ], [ -15.088, 11.5791 ], [ -15.0963, 11.5744 ], [ -15.1018, 11.5626 ], [ -15.1049, 11.572 ], [ -15.114, 11.5696 ], [ -15.1174, 11.5654 ], [ -15.1192, 11.5412 ], [ -15.1266, 11.5386 ], [ -15.1286, 11.5429 ], [ -15.1238, 11.5575 ], [ -15.1259, 11.5683 ], [ -15.1278, 11.5708 ], [ -15.1366, 11.5693 ], [ -15.1439, 11.5763 ], [ -15.1433, 11.5821 ], [ -15.1232, 11.5777 ], [ -15.1083, 11.5821 ], [ -15.1058, 11.5846 ], [ -15.1073, 11.592 ], [ -15.0935, 11.5878 ], [ -15.0902, 11.5913 ], [ -15.0929, 11.5965 ], [ -15.1099, 11.6152 ], [ -15.1268, 11.6244 ], [ -15.131, 11.6234 ], [ -15.1335, 11.6186 ], [ -15.1278, 11.6058 ], [ -15.1291, 11.6032 ], [ -15.1443, 11.6016 ], [ -15.1418, 11.612 ], [ -15.1438, 11.6175 ], [ -15.1554, 11.6323 ], [ -15.1701, 11.6312 ], [ -15.1741, 11.6369 ], [ -15.1833, 11.6382 ], [ -15.1946, 11.6451 ], [ -15.2001, 11.6419 ], [ -15.1974, 11.6329 ], [ -15.2078, 11.6404 ], [ -15.2179, 11.6299 ], [ -15.2061, 11.6156 ], [ -15.1859, 11.6052 ], [ -15.2033, 11.6016 ], [ -15.2056, 11.5983 ], [ -15.1934, 11.5934 ], [ -15.1905, 11.5893 ], [ -15.1917, 11.5868 ], [ -15.2033, 11.5873 ], [ -15.2021, 11.5671 ], [ -15.2042, 11.5663 ], [ -15.2112, 11.5819 ], [ -15.2191, 11.5765 ], [ -15.2205, 11.5953 ], [ -15.2293, 11.592 ], [ -15.2331, 11.5945 ], [ -15.219, 11.6096 ], [ -15.2193, 11.614 ], [ -15.2347, 11.6262 ], [ -15.2377, 11.6253 ], [ -15.2394, 11.6147 ], [ -15.2424, 11.6123 ], [ -15.251, 11.6253 ], [ -15.2574, 11.613 ], [ -15.2625, 11.6153 ], [ -15.2674, 11.6113 ], [ -15.2708, 11.6198 ], [ -15.286, 11.6251 ], [ -15.2899, 11.6213 ], [ -15.2822, 11.6185 ], [ -15.2748, 11.6064 ], [ -15.2595, 11.6027 ], [ -15.2662, 11.5911 ], [ -15.2514, 11.5708 ], [ -15.2546, 11.568 ], [ -15.2611, 11.5685 ], [ -15.2657, 11.5729 ], [ -15.27, 11.5675 ], [ -15.2742, 11.5684 ], [ -15.2761, 11.5817 ], [ -15.2822, 11.5895 ], [ -15.2913, 11.5884 ], [ -15.2858, 11.5977 ], [ -15.296, 11.6084 ], [ -15.2993, 11.6053 ], [ -15.303, 11.6081 ], [ -15.3123, 11.5886 ], [ -15.3214, 11.588 ], [ -15.3364, 11.574 ], [ -15.3303, 11.5718 ], [ -15.3064, 11.5822 ], [ -15.3031, 11.5777 ], [ -15.2954, 11.5799 ], [ -15.2937, 11.5757 ], [ -15.2973, 11.569 ], [ -15.282, 11.5586 ], [ -15.2944, 11.5559 ], [ -15.2991, 11.5471 ], [ -15.2875, 11.5342 ], [ -15.3, 11.5388 ], [ -15.3059, 11.5282 ], [ -15.3122, 11.5286 ], [ -15.3139, 11.5322 ], [ -15.3039, 11.5544 ], [ -15.3061, 11.5618 ], [ -15.3103, 11.5642 ], [ -15.3165, 11.5538 ], [ -15.3219, 11.5581 ], [ -15.3253, 11.5477 ], [ -15.3295, 11.546 ], [ -15.3331, 11.5563 ], [ -15.3465, 11.5615 ], [ -15.3477, 11.5532 ], [ -15.3382, 11.5386 ], [ -15.3482, 11.5341 ], [ -15.3435, 11.5182 ], [ -15.3453, 11.5148 ], [ -15.3634, 11.5226 ], [ -15.3655, 11.5251 ], [ -15.3631, 11.5357 ], [ -15.3671, 11.5368 ], [ -15.3795, 11.5368 ], [ -15.3861, 11.5273 ], [ -15.3897, 11.5272 ], [ -15.3963, 11.5354 ], [ -15.4081, 11.5292 ], [ -15.3964, 11.4996 ], [ -15.3846, 11.4887 ], [ -15.3864, 11.4859 ], [ -15.3923, 11.4879 ], [ -15.3969, 11.4839 ], [ -15.4008, 11.4917 ], [ -15.4197, 11.5089 ], [ -15.4232, 11.5086 ], [ -15.4252, 11.5035 ], [ -15.4217, 11.488 ], [ -15.426, 11.4824 ], [ -15.441, 11.487 ], [ -15.4655, 11.4705 ], [ -15.4706, 11.482 ], [ -15.4736, 11.4829 ], [ -15.4841, 11.4629 ], [ -15.482, 11.4503 ], [ -15.4799, 11.4469 ], [ -15.4654, 11.4464 ], [ -15.4689, 11.4335 ], [ -15.4826, 11.4259 ], [ -15.4887, 11.4145 ], [ -15.4975, 11.393 ], [ -15.4998, 11.3718 ], [ -15.5159, 11.3461 ], [ -15.5172, 11.3396 ], [ -15.5141, 11.3321 ], [ -15.4928, 11.3275 ], [ -15.4791, 11.3279 ], [ -15.4724, 11.3354 ], [ -15.4712, 11.3511 ], [ -15.4675, 11.3518 ], [ -15.459, 11.345 ], [ -15.4348, 11.3619 ], [ -15.4237, 11.3826 ], [ -15.4184, 11.3863 ], [ -15.3983, 11.3873 ], [ -15.3639, 11.4105 ], [ -15.3538, 11.4065 ], [ -15.3556, 11.3961 ], [ -15.2816, 11.4406 ], [ -15.2485, 11.4731 ], [ -15.2267, 11.4803 ], [ -15.2182, 11.4718 ], [ -15.2104, 11.4757 ], [ -15.1932, 11.4733 ], [ -15.1583, 11.4537 ], [ -15.1497, 11.4525 ], [ -15.1352, 11.456 ], [ -15.1225, 11.442 ], [ -15.1018, 11.5562 ], [ -15.0964, 11.5625 ], [ -15.0839, 11.5684 ] ] ] } },
{ "type": "Feature", "properties": { "iso3": "GNB", "unit_id": "89520995B44394366785236", "unit_name": "Fulacunda" }, "geometry": { "type": "Polygon", "coordinates": [ [ [ -15.031, 11.9393 ], [ -15.0294, 11.9226 ], [ -15.051, 11.9281 ], [ -15.0745, 11.9412 ], [ -15.0873, 11.9404 ], [ -15.1186, 11.9013 ], [ -15.1258, 11.8966 ], [ -15.1642, 11.8899 ], [ -15.192, 11.8693 ], [ -15.2198, 11.8705 ], [ -15.2478, 11.8672 ], [ -15.2664, 11.8766 ], [ -15.2854, 11.8696 ], [ -15.2995, 11.8689 ], [ -15.3007, 11.8341 ], [ -15.2927, 11.8227 ], [ -15.2921, 11.8161 ], [ -15.2761, 11.7852 ], [ -15.2736, 11.7711 ], [ -15.2746, 11.7442 ], [ -15.2697, 11.7327 ], [ -15.2766, 11.7216 ], [ -15.2748, 11.7076 ], [ -15.28, 11.6953 ], [ -15.2778, 11.6908 ], [ -15.2634, 11.6988 ], [ -15.2606, 11.6956 ], [ -15.2752, 11.6855 ], [ -15.2772, 11.6799 ], [ -15.2743, 11.6729 ], [ -15.2614, 11.6657 ], [ -15.2566, 11.6772 ], [ -15.2604, 11.6827 ], [ -15.2579, 11.6866 ], [ -15.2512, 11.6906 ], [ -15.2485, 11.6994 ], [ -15.2424, 11.6958 ], [ -15.2396, 11.6982 ], [ -15.2412, 11.7071 ], [ -15.2331, 11.7134 ], [ -15.2336, 11.7187 ], [ -15.2443, 11.7322 ], [ -15.2429, 11.7345 ], [ -15.2266, 11.7347 ], [ -15.2267, 11.7579 ], [ -15.2239, 11.7591 ], [ -15.2181, 11.7451 ], [ -15.198, 11.7452 ], [ -15.1919, 11.7393 ], [ -15.1972, 11.7367 ], [ -15.1918, 11.7308 ], [ -15.1909, 11.723 ], [ -15.2114, 11.7337 ], [ -15.2181, 11.7309 ], [ -15.2246, 11.708 ], [ -15.2215, 11.7021 ], [ -15.2128, 11.6969 ], [ -15.2195, 11.6918 ], [ -15.2314, 11.6911 ], [ -15.2301, 11.6859 ], [ -15.2407, 11.6765 ], [ -15.245, 11.6638 ], [ -15.2356, 11.6628 ], [ -15.2356, 11.6566 ], [ -15.2444, 11.6525 ], [ -15.2609, 11.6514 ], [ -15.2699, 11.6407 ], [ -15.2675, 11.6371 ], [ -15.2589, 11.6376 ], [ -15.2496, 11.6435 ], [ -15.2431, 11.6427 ], [ -15.238, 11.6478 ], [ -15.2272, 11.6452 ], [ -15.2173, 11.6531 ], [ -15.2165, 11.6628 ], [ -15.2083, 11.6788 ], [ -15.2073, 11.6572 ], [ -15.1982, 11.6522 ], [ -15.1872, 11.6551 ], [ -15.1872, 11.674 ], [ -15.1847, 11.6761 ], [ -15.1735, 11.6735 ], [ -15.1672, 11.6775 ], [ -15.1715, 11.6986 ], [ -15.1685, 11.7042 ], [ -15.165, 11.703 ], [ -15.1556, 11.6841 ], [ -15.1512, 11.6846 ], [ -15.1353, 11.7014 ], [ -15.1355, 11.6954 ], [ -15.1282, 11.6941 ], [ -15.1275, 11.6913 ], [ -15.1717, 11.6657 ], [ -15.1788, 11.6529 ], [ -15.1771, 11.6493 ], [ -15.1733, 11.6463 ], [ -15.1633, 11.6462 ], [ -15.1592, 11.6504 ], [ -15.1554, 11.6477 ], [ -15.1494, 11.6503 ], [ -15.1506, 11.6416 ], [ -15.1483, 11.6386 ], [ -15.1381, 11.6429 ], [ -15.1331, 11.6393 ], [ -15.1234, 11.6484 ], [ -15.1261, 11.6573 ], [ -15.1155, 11.6671 ], [ -15.1101, 11.6798 ], [ -15.1007, 11.6611 ], [ -15.1096, 11.6589 ], [ -15.1129, 11.6483 ], [ -15.1273, 11.6384 ], [ -15.1249, 11.6352 ], [ -15.1069, 11.6345 ], [ -15.0425, 11.6867 ], [ -15.0261, 11.7072 ], [ -15.0182, 11.7358 ], [ -15.0198, 11.7445 ], [ -15.0046, 11.7778 ], [ -15.0046, 11.7917 ], [ -14.9932, 11.7958 ], [ -14.9712, 11.8269 ], [ -14.9248, 11.8344 ], [ -14.9594, 11.8504 ], [ -14.9811, 11.8705 ], [ -15.0105, 11.9279 ], [ -15.031, 11.9393 ] ] ] } },
{ "type": "Feature", "properties": { "iso3": "GNB", "unit_id": "89520995B69558738257348", "unit_name": "Tite" }, "geometry": { "type": "MultiPolygon", "coordinates": [ [ [ [ -15.4087, 11.6844 ], [ -15.3368, 11.6847 ], [ -15.3235, 11.6729 ], [ -15.3237, 11.6529 ], [ -15.3199, 11.6437 ], [ -15.3189, 11.6276 ], [ -15.3129, 11.6295 ], [ -15.3089, 11.6446 ], [ -15.3113, 11.6489 ], [ -15.3095, 11.6535 ], [ -15.3133, 11.6581 ], [ -15.3103, 11.6618 ], [ -15.3052, 11.6623 ], [ -15.3011, 11.6523 ], [ -15.2877, 11.6441 ], [ -15.2832, 11.6447 ], [ -15.2803, 11.6516 ], [ -15.2819, 11.6636 ], [ -15.2977, 11.676 ], [ -15.2968, 11.6795 ], [ -15.2879, 11.6803 ], [ -15.2897, 11.6871 ], [ -15.3072, 11.6871 ], [ -15.3177, 11.6925 ], [ -15.2998, 11.6955 ], [ -15.3004, 11.701 ], [ -15.3091, 11.7078 ], [ -15.3148, 11.7174 ], [ -15.3015, 11.7146 ], [ -15.2884, 11.6987 ], [ -15.2837, 11.7279 ], [ -15.2746, 11.7442 ], [ -15.2736, 11.7711 ], [ -15.2761, 11.7852 ], [ -15.2921, 11.8161 ], [ -15.2927, 11.8227 ], [ -15.3007, 11.8341 ], [ -15.2995, 11.8689 ], [ -15.316, 11.8699 ], [ -15.3597, 11.8891 ], [ -15.3916, 11.882 ], [ -15.4326, 11.837 ], [ -15.443, 11.8348 ], [ -15.4569, 11.8378 ], [ -15.4636, 11.8341 ], [ -15.5219, 11.7799 ], [ -15.5339, 11.7544 ], [ -15.5554, 11.7244 ], [ -15.5564, 11.7184 ], [ -15.5545, 11.7143 ], [ -15.545, 11.7121 ], [ -15.5421, 11.7058 ], [ -15.5476, 11.6884 ], [ -15.5443, 11.6839 ], [ -15.5386, 11.6828 ], [ -15.5369, 11.6757 ], [ -15.5191, 11.6736 ], [ -15.5154, 11.6762 ], [ -15.5138, 11.6919 ], [ -15.4898, 11.6809 ], [ -15.4866, 11.6676 ], [ -15.4911, 11.6547 ], [ -15.4885, 11.6508 ], [ -15.477, 11.6487 ], [ -15.4574, 11.6483 ], [ -15.4537, 11.6509 ], [ -15.4455, 11.6636 ], [ -15.441, 11.6789 ], [ -15.4234, 11.6895 ], [ -15.4171, 11.6898 ], [ -15.4087, 11.6844 ] ] ], [ [ [ -15.4154, 11.8789 ], [ -15.4166, 11.8635 ], [ -15.4046, 11.8747 ], [ -15.4047, 11.8827 ], [ -15.4154, 11.8789 ] ] ], [ [ [ -15.4462, 11.8449 ], [ -15.4369, 11.8439 ], [ -15.4285, 11.85 ], [ -15.424, 11.8572 ], [ -15.4227, 11.8807 ], [ -15.4388, 11.8772 ], [ -15.4552, 11.8673 ], [ -15.4595, 11.861 ], [ -15.4462, 11.8449 ] ] ], [ [ [ -15.6269, 11.7008 ], [ -15.6244, 11.6891 ], [ -15.6158, 11.6934 ], [ -15.6108, 11.7022 ], [ -15.613, 11.7056 ], [ -15.6237, 11.7043 ], [ -15.6269, 11.7008 ] ] ] ] } },
{ "type": "Feature", "properties": { "iso3": "GNB", "unit_id": "89520995B35262382709509", "unit_name": "Sector Autonomo de Bissau" }, "geometry": { "type": "MultiPolygon", "coordinates": [ [ [ [ -15.6639, 11.7976 ], [ -15.6583, 11.8007 ], [ -15.6395, 11.8247 ], [ -15.6174, 11.8293 ], [ -15.6021, 11.8374 ], [ -15.5859, 11.8611 ], [ -15.555, 11.8875 ], [ -15.5528, 11.8952 ], [ -15.5588, 11.897 ], [ -15.5772, 11.9224 ], [ -15.5798, 11.931 ], [ -15.5993, 11.9406 ], [ -15.6108, 11.9333 ], [ -15.6584, 11.8454 ], [ -15.6639, 11.7976 ] ] ], [ [ [ -15.5771, 11.8539 ], [ -15.5707, 11.8475 ], [ -15.5659, 11.851 ], [ -15.5723, 11.8571 ], [ -15.5771, 11.8539 ] ] ] ] } },
{ "type": "Feature", "properties": { "iso3": "GNB", "unit_id": "89520995B9551823376653", "unit_name": "Bedanda" }, "geometry": { "type": "MultiPolygon", "coordinates": [ [ [ [ -15.0948, 11.4136 ], [ -15.1021, 11.4021 ], [ -15.1092, 11.3974 ], [ -15.1188, 11.4014 ], [ -15.1304, 11.3992 ], [ -15.1325, 11.3925 ], [ -15.1299, 11.3865 ], [ -15.1181, 11.3797 ], [ -15.1193, 11.3747 ], [ -15.1288, 11.3638 ], [ -15.1401, 11.3616 ], [ -15.1422, 11.3566 ], [ -15.1361, 11.3518 ], [ -15.1251, 11.3497 ], [ -15.122, 11.3393 ], [ -15.1232, 11.3297 ], [ -15.1495, 11.3249 ], [ -15.1576, 11.314 ], [ -15.1606, 11.2842 ], [ -15.1537, 11.2396 ], [ -15.1766, 11.2347 ], [ -15.2278, 11.2327 ], [ -15.236, 11.2302 ], [ -15.2389, 11.2249 ], [ -15.2393, 11.1995 ], [ -15.2348, 11.1842 ], [ -15.2285, 11.1906 ], [ -15.2077, 11.1552 ], [ -15.2034, 11.1419 ], [ -15.217, 11.1212 ], [ -15.2222, 11.0913 ], [ -15.2287, 11.0739 ], [ -15.1653, 11.0814 ], [ -15.1518, 11.0862 ], [ -15.12, 11.1066 ], [ -15.1189, 11.1112 ], [ -15.1251, 11.1241 ], [ -15.121, 11.1338 ], [ -15.1108, 11.1224 ], [ -15.1071, 11.1229 ], [ -15.1069, 11.1431 ], [ -15.1035, 11.1441 ], [ -15.0963, 11.132 ], [ -15.0855, 11.1395 ], [ -15.0782, 11.1348 ], [ -15.0686, 11.1358 ], [ -15.0588, 11.1477 ], [ -15.0554, 11.1578 ], [ -15.0486, 11.1572 ], [ -15.0337, 11.1691 ], [ -15.0065, 11.2137 ], [ -14.9943, 11.2094 ], [ -14.9478, 11.2531 ], [ -14.9162, 11.2544 ], [ -14.8982, 11.2472 ], [ -14.8693, 11.2834 ], [ -14.8493, 11.2826 ], [ -14.8159, 11.268 ], [ -14.7912, 11.3316 ], [ -14.8164, 11.3406 ], [ -14.8259, 11.3478 ], [ -14.8302, 11.3542 ], [ -14.8347, 11.3805 ], [ -14.8422, 11.3991 ], [ -14.8521, 11.4014 ], [ -14.8735, 11.3993 ], [ -14.897, 11.4034 ], [ -14.9342, 11.4221 ], [ -14.9555, 11.4437 ], [ -14.959, 11.4392 ], [ -14.9685, 11.4377 ], [ -14.9982, 11.4392 ], [ -15.0058, 11.4384 ], [ -15.008, 11.4337 ], [ -15.0302, 11.4362 ], [ -15.0275, 11.4278 ], [ -15.0311, 11.422 ], [ -15.0463, 11.4219 ], [ -15.0571, 11.4155 ], [ -15.064, 11.418 ], [ -15.0701, 11.4134 ], [ -15.0904, 11.4083 ], [ -15.0948, 11.4136 ] ] ], [ [ [ -15.23, 10.9936 ], [ -15.2209, 10.9967 ], [ -15.1984, 11.0334 ], [ -15.1735, 11.0553 ], [ -15.1695, 11.0669 ], [ -15.1743, 11.0758 ], [ -15.217, 11.0695 ], [ -15.2453, 11.0599 ], [ -15.2516, 11.0566 ], [ -15.2644, 11.0413 ], [ -15.2671, 11.0332 ], [ -15.2637, 11.0261 ], [ -15.2477, 11.0323 ], [ -15.244, 11.0296 ], [ -15.246, 11.0261 ], [ -15.2555, 11.0239 ], [ -15.2586, 11.0135 ], [ -15.23, 10.9936 ] ] ], [ [ [ -15.2717, 11.0159 ], [ -15.2652, 11.0182 ], [ -15.2767, 11.0369 ], [ -15.2855, 11.0359 ], [ -15.2871, 11.0336 ], [ -15.2717, 11.0159 ] ] ] ] } },
{ "type": "Feature", "properties": { "iso3": "GNB", "unit_id": "89520995B64179214466088", "unit_name": "Cacine" }, "geometry": { "type": "MultiPolygon", "coordinates": [ [ [ [ -14.9943, 11.2094 ], [ -14.9891, 11.2001 ], [ -14.9931, 11.1888 ], [ -14.997, 11.1901 ], [ -15.0013, 11.1861 ], [ -15.0227, 11.1502 ], [ -15.0453, 11.132 ], [ -15.0443, 11.1248 ], [ -15.0366, 11.116 ], [ -15.047, 11.117 ], [ -15.0628, 11.1016 ], [ -15.0782, 11.1012 ], [ -15.0853, 11.0928 ], [ -15.0843, 11.0726 ], [ -15.0713, 11.0714 ], [ -15.0675, 11.0675 ], [ -15.0758, 11.0626 ], [ -15.0985, 11.0655 ], [ -15.1081, 11.0576 ], [ -15.1108, 11.0474 ], [ -15.1065, 11.0081 ], [ -15.1165, 10.9698 ], [ -15.1143, 10.9597 ], [ -15.0976, 10.9505 ], [ -15.0779, 10.9549 ], [ -15.0649, 10.9606 ], [ -15.0567, 10.9687 ], [ -15.0583, 10.986 ], [ -15.0549, 10.9908 ], [ -15.0343, 10.9918 ], [ -15.0478, 10.987 ], [ -15.0495, 10.97 ], [ -15.0646, 10.9548 ], [ -15.0922, 10.942 ], [ -15.0965, 10.9362 ], [ -15.0953, 10.9319 ], [ -15.0864, 10.9251 ], [ -15.0615, 10.9263 ], [ -15.0544, 10.9354 ], [ -15.0432, 10.9362 ], [ -15.0272, 10.9546 ], [ -15.0179, 10.9561 ], [ -14.9938, 10.9727 ], [ -14.9766, 10.9765 ], [ -14.9672, 10.9861 ], [ -14.9528, 11.0056 ], [ -14.9316, 11.0465 ], [ -14.934, 11.0501 ], [ -14.932, 11.0598 ], [ -14.9266, 11.0545 ], [ -14.8646, 11.1691 ], [ -14.8159, 11.268 ], [ -14.8493, 11.2826 ], [ -14.8693, 11.2834 ], [ -14.8982, 11.2472 ], [ -14.9162, 11.2544 ], [ -14.9478, 11.2531 ], [ -14.9943, 11.2094 ] ] ], [ [ [ -15.1943, 10.9065 ], [ -15.1892, 10.9088 ], [ -15.1875, 10.9137 ], [ -15.1924, 10.9194 ], [ -15.1943, 10.9065 ] ] ], [ [ [ -15.2156, 10.8604 ], [ -15.2041, 10.8707 ], [ -15.2072, 10.8778 ], [ -15.2099, 10.8692 ], [ -15.2156, 10.8604 ] ] ] ] } },
{ "type": "Feature", "properties": { "iso3": "GNB", "unit_id": "89520995B82760907825508", "unit_name": "Catio" }, "geometry": { "type": "Polygon", "coordinates": [ [ [ -15.1225, 11.442 ], [ -15.1352, 11.456 ], [ -15.1497, 11.4525 ], [ -15.1583, 11.4537 ], [ -15.2, 11.476 ], [ -15.2104, 11.4757 ], [ -15.2182, 11.4718 ], [ -15.2267, 11.4803 ], [ -15.2485, 11.4731 ], [ -15.2816, 11.4406 ], [ -15.3556, 11.3961 ], [ -15.3504, 11.3883 ], [ -15.3561, 11.3775 ], [ -15.3607, 11.3786 ], [ -15.3771, 11.3715 ], [ -15.39, 11.3614 ], [ -15.4262, 11.299 ], [ -15.4248, 11.2855 ], [ -15.4074, 11.273 ], [ -15.4109, 11.2639 ], [ -15.3976, 11.2493 ], [ -15.3905, 11.2493 ], [ -15.3696, 11.2731 ], [ -15.3546, 11.2723 ], [ -15.3329, 11.2631 ], [ -15.3333, 11.2539 ], [ -15.3266, 11.2502 ], [ -15.2957, 11.2422 ], [ -15.2803, 11.218 ], [ -15.2473, 11.2151 ], [ -15.2391, 11.2086 ], [ -15.2389, 11.2249 ], [ -15.236, 11.2302 ], [ -15.1766, 11.2347 ], [ -15.1537, 11.2396 ], [ -15.1606, 11.2842 ], [ -15.1576, 11.314 ], [ -15.1495, 11.3249 ], [ -15.1232, 11.3297 ], [ -15.122, 11.3393 ], [ -15.1251, 11.3497 ], [ -15.1361, 11.3518 ], [ -15.1422, 11.3566 ], [ -15.1401, 11.3616 ], [ -15.1288, 11.3638 ], [ -15.1193, 11.3747 ], [ -15.1181, 11.3797 ], [ -15.1299, 11.3865 ], [ -15.1325, 11.3925 ], [ -15.1304, 11.3992 ], [ -15.1188, 11.4014 ], [ -15.1092, 11.3974 ], [ -15.1021, 11.4021 ], [ -15.0948, 11.4136 ], [ -15.115, 11.4269 ], [ -15.1205, 11.4334 ], [ -15.1225, 11.442 ] ] ] } },
{ "type": "Feature", "properties": { "iso3": "GNB", "unit_id": "89520995B18735137268999", "unit_name": "Quebo" }, "geometry": { "type": "Polygon", "coordinates": [ [ [ -14.843, 11.6967 ], [ -14.932, 11.5019 ], [ -14.9555, 11.4437 ], [ -14.9342, 11.4221 ], [ -14.897, 11.4034 ], [ -14.8735, 11.3993 ], [ -14.8521, 11.4014 ], [ -14.8422, 11.3991 ], [ -14.8347, 11.3805 ], [ -14.8302, 11.3542 ], [ -14.8259, 11.3478 ], [ -14.8164, 11.3406 ], [ -14.7912, 11.3316 ], [ -14.7681, 11.3824 ], [ -14.7034, 11.472 ], [ -14.6922, 11.485 ], [ -14.6654, 11.5067 ], [ -14.611, 11.509 ], [ -14.5711, 11.5023 ], [ -14.5162, 11.4988 ], [ -14.4058, 11.5582 ], [ -14.423, 11.576 ], [ -14.437, 11.6119 ], [ -14.4559, 11.6203 ], [ -14.4761, 11.623 ], [ -14.4843, 11.6337 ], [ -14.5065, 11.6492 ], [ -14.5175, 11.6478 ], [ -14.5333, 11.6384 ], [ -14.5456, 11.6356 ], [ -14.6106, 11.633 ], [ -14.6297, 11.6111 ], [ -14.6372, 11.6075 ], [ -14.643, 11.6109 ], [ -14.6485, 11.6325 ], [ -14.6601, 11.6447 ], [ -14.6691, 11.6467 ], [ -14.6728, 11.6428 ], [ -14.675, 11.6187 ], [ -14.6921, 11.6176 ], [ -14.6919, 11.6106 ], [ -14.7008, 11.5983 ], [ -14.7103, 11.5948 ], [ -14.7256, 11.5977 ], [ -14.7426, 11.593 ], [ -14.7505, 11.5952 ], [ -14.7669, 11.6189 ], [ -14.8095, 11.644 ], [ -14.8123, 11.6492 ], [ -14.8087, 11.6691 ], [ -14.8117, 11.6839 ], [ -14.8079, 11.689 ], [ -14.8169, 11.6977 ], [ -14.843, 11.6967 ] ] ] } },
{ "type": "Feature", "properties": { "iso3": "GNB", "unit_id": "89520995B63039009575645", "unit_name": "Komo" }, "geometry": { "type": "MultiPolygon", "coordinates": [ [ [ [ -15.2391, 11.2086 ], [ -15.2473, 11.2151 ], [ -15.2803, 11.218 ], [ -15.2957, 11.2422 ], [ -15.3266, 11.2502 ], [ -15.3333, 11.2539 ], [ -15.3329, 11.2631 ], [ -15.3546, 11.2723 ], [ -15.3696, 11.2731 ], [ -15.3905, 11.2493 ], [ -15.3976, 11.2493 ], [ -15.4038, 11.2535 ], [ -15.4109, 11.2639 ], [ -15.4275, 11.2468 ], [ -15.4281, 11.2396 ], [ -15.4081, 11.2098 ], [ -15.37, 11.1645 ], [ -15.3606, 11.1465 ], [ -15.3434, 11.1423 ], [ -15.3301, 11.1464 ], [ -15.3145, 11.1282 ], [ -15.2878, 11.1192 ], [ -15.2781, 11.1264 ], [ -15.2553, 11.1219 ], [ -15.2455, 11.1239 ], [ -15.2421, 11.1292 ], [ -15.2418, 11.1407 ], [ -15.2311, 11.1613 ], [ -15.2331, 11.1677 ], [ -15.2424, 11.1764 ], [ -15.2348, 11.1842 ], [ -15.2391, 11.2086 ] ] ], [ [ [ -15.2333, 11.1321 ], [ -15.2279, 11.131 ], [ -15.2256, 11.1483 ], [ -15.2288, 11.1475 ], [ -15.2333, 11.1321 ] ] ] ] } }
]
}
