{
"type": "FeatureCollection",
"name": "GNQ",
"crs": { "type": "name", "properties": { "name": "urn:ogc:def:crs:OGC:1.3:CRS84" } },
"xy_coordinate_resolution": 0.0001,
"features": [
{ "type": "Feature", "properties": { "iso3": "GNQ", "unit_id": "11065452B61336086634219", "unit_name": "AYENE" }, "geometry": { "type": "Polygon", "coordinates": [ [ [ 10.7211, 1.5748 ], [ 10.7223, 1.8193 ], [ 10.7096, 1.8357 ], [ 10.7008, 1.8545 ], [ 10.6729, 1.8609 ], [ 10.6641, 1.8673 ], [ 10.7226, 1.9393 ], [ 10.8178, 1.9638 ], [ 10.7884, 1.9804 ], [ 10.7895, 2.0015 ], [ 10.7865, 2.0089 ], [ 10.7638, 2.0215 ], [ 10.7045, 1.992 ], [ 10.6959, 1.9849 ], [ 10.6635, 1.98 ], [ 10.6593, 1.9801 ], [ 10.6536, 1.9857 ], [ 10.6325, 1.9858 ], [ 10.6202, 1.9801 ], [ 10.6156, 1.9822 ], [ 10.6083, 1.9796 ], [ 10.6063, 1.9682 ], [ 10.6024, 1.9642 ], [ 10.5966, 1.9613 ], [ 10.5866, 1.9624 ], [ 10.579, 1.9587 ], [ 10.5686, 1.9448 ], [ 10.5478, 1.9415 ], [ 10.539, 1.9313 ], [ 10.5229, 1.9252 ], [ 10.5343, 1.9179 ], [ 10.5405, 1.892 ], [ 10.5525, 1.8822 ], [ 10.5631, 1.879 ], [ 10.5663, 1.8667 ], [ 10.5748, 1.8672 ], [ 10.5767, 1.8629 ], [ 10.5857, 1.868 ], [ 10.5917, 1.8654 ], [ 10.5928, 1.8608 ], [ 10.5879, 1.8508 ], [ 10.5912, 1.8355 ], [ 10.5977, 1.8297 ], [ 10.6033, 1.8339 ], [ 10.6156, 1.8323 ], [ 10.6193, 1.8285 ], [ 10.6098, 1.8124 ], [ 10.6084, 1.8018 ], [ 10.6118, 1.7969 ], [ 10.605, 1.7891 ], [ 10.6087, 1.7747 ], [ 10.598, 1.7452 ], [ 10.58, 1.715 ], [ 10.5654, 1.6721 ], [ 10.5674, 1.6702 ], [ 10.5735, 1.6726 ], [ 10.5781, 1.6634 ], [ 10.5865, 1.658 ], [ 10.5864, 1.6471 ], [ 10.5908, 1.6396 ], [ 10.5873, 1.6342 ], [ 10.5863, 1.6186 ], [ 10.579, 1.6238 ], [ 10.5755, 1.6227 ], [ 10.5758, 1.6045 ], [ 10.57, 1.5926 ], [ 10.5994, 1.5881 ], [ 10.6042, 1.5834 ], [ 10.6109, 1.5861 ], [ 10.625, 1.5847 ], [ 10.624, 1.5808 ], [ 10.6273, 1.5774 ], [ 10.6253, 1.5751 ], [ 10.6355, 1.5684 ], [ 10.6454, 1.5687 ], [ 10.6468, 1.5655 ], [ 10.6508, 1.5693 ], [ 10.6473, 1.5769 ], [ 10.6523, 1.5815 ], [ 10.6649, 1.5715 ], [ 10.6712, 1.5743 ], [ 10.6739, 1.5651 ], [ 10.6822, 1.5596 ], [ 10.6867, 1.5641 ], [ 10.6919, 1.5596 ], [ 10.7074, 1.5633 ], [ 10.7109, 1.5601 ], [ 10.7135, 1.5694 ], [ 10.7211, 1.5748 ] ] ] } },
{ "type": "Feature", "properties": { "iso3": "GNQ", "unit_id": "11065452B3926826010895", "unit_name": "NKUE" }, "geometry": { "type": "Polygon", "coordinates": [ [ [ 10.6325, 1.9858 ], [ 10.6325, 2.0549 ], [ 10.5443, 2.1294 ], [ 10.4979, 2.1286 ], [ 10.4956, 2.1123 ], [ 10.49, 2.1067 ], [ 10.4876, 2.0731 ], [ 10.4791, 2.0685 ], [ 10.4783, 2.056 ], [ 10.4731, 2.0509 ], [ 10.4737, 2.0366 ], [ 10.4657, 2.0331 ], [ 10.4655, 2.0188 ], [ 10.4299, 1.9971 ], [ 10.3754, 1.9455 ], [ 10.3933, 1.9372 ], [ 10.394, 1.9307 ], [ 10.4142, 1.9197 ], [ 10.4202, 1.9131 ], [ 10.4286, 1.9147 ], [ 10.4364, 1.9221 ], [ 10.4469, 1.9172 ], [ 10.4522, 1.9246 ], [ 10.4646, 1.9205 ], [ 10.4771, 1.9286 ], [ 10.4881, 1.9272 ], [ 10.5, 1.9326 ], [ 10.507, 1.9285 ], [ 10.5118, 1.9332 ], [ 10.5169, 1.9242 ], [ 10.539, 1.9313 ], [ 10.5478, 1.9415 ], [ 10.5686, 1.9448 ], [ 10.579, 1.9587 ], [ 10.6024, 1.9642 ], [ 10.6063, 1.9682 ], [ 10.6083, 1.9796 ], [ 10.6156, 1.9822 ], [ 10.6202, 1.9801 ], [ 10.6325, 1.9858 ] ] ] } },
{ "type": "Feature", "properties": { "iso3": "GNQ", "unit_id": "11065452B43435483695389", "unit_name": "NSOC NSOMO" }, "geometry": { "type": "Polygon", "coordinates": [ [ [ 11.1283, 2.0518 ], [ 11.1283, 2.0632 ], [ 11.114, 2.0801 ], [ 11.1055, 2.1071 ], [ 11.0904, 2.118 ], [ 11.0285, 2.118 ], [ 10.933, 1.9836 ], [ 10.9576, 1.9778 ], [ 10.9601, 1.9681 ], [ 10.9543, 1.9433 ], [ 10.9445, 1.9347 ], [ 10.9369, 1.9365 ], [ 10.9315, 1.9314 ], [ 10.9292, 1.9229 ], [ 10.9213, 1.9178 ], [ 10.9222, 1.9094 ], [ 10.952, 1.8886 ], [ 10.9594, 1.7873 ], [ 11.1279, 1.7536 ], [ 11.1318, 1.7882 ], [ 11.1296, 1.7942 ], [ 11.1351, 1.8106 ], [ 11.1472, 1.8053 ], [ 11.157, 1.7939 ], [ 11.1879, 1.8013 ], [ 11.2285, 1.7873 ], [ 11.2367, 1.7883 ], [ 11.245, 1.8057 ], [ 11.2471, 1.8187 ], [ 11.2422, 1.8313 ], [ 11.2457, 1.8451 ], [ 11.2435, 1.8833 ], [ 11.1864, 1.9452 ], [ 11.1884, 1.9878 ], [ 11.196, 2.0215 ], [ 11.1432, 2.022 ], [ 11.1396, 2.0366 ], [ 11.1283, 2.0518 ] ] ] } },
{ "type": "Feature", "properties": { "iso3": "GNQ", "unit_id": "11065452B27397509806446", "unit_name": "AÑISOC" }, "geometry": { "type": "Polygon", "coordinates": [ [ [ 10.7216, 1.5753 ], [ 10.7254, 1.5726 ], [ 10.7405, 1.5842 ], [ 10.7432, 1.5803 ], [ 10.7653, 1.586 ], [ 10.7716, 1.5984 ], [ 10.7856, 1.5914 ], [ 10.7906, 1.5937 ], [ 10.7968, 1.5896 ], [ 10.8106, 1.5878 ], [ 10.8143, 1.5907 ], [ 10.8124, 1.5953 ], [ 10.8179, 1.5969 ], [ 10.8177, 1.6017 ], [ 10.8282, 1.5908 ], [ 10.8328, 1.5972 ], [ 10.8382, 1.5799 ], [ 10.8597, 1.5712 ], [ 10.8596, 1.5664 ], [ 10.8639, 1.5629 ], [ 10.866, 1.5666 ], [ 10.8643, 1.5768 ], [ 10.8558, 1.5845 ], [ 10.8533, 1.5948 ], [ 10.8711, 1.5909 ], [ 10.8735, 1.6043 ], [ 10.8802, 1.6005 ], [ 10.8873, 1.6014 ], [ 10.8891, 1.5942 ], [ 10.8827, 1.5911 ], [ 10.883, 1.5873 ], [ 10.8901, 1.5843 ], [ 10.9013, 1.5857 ], [ 10.9039, 1.5834 ], [ 10.9007, 1.5818 ], [ 10.9098, 1.5763 ], [ 10.9308, 1.578 ], [ 10.9337, 1.5707 ], [ 10.9374, 1.5699 ], [ 10.9538, 1.6592 ], [ 10.9825, 1.6776 ], [ 10.993, 1.6987 ], [ 10.985, 1.7017 ], [ 10.977, 1.7108 ], [ 10.9756, 1.7197 ], [ 10.9841, 1.7357 ], [ 11.0025, 1.7408 ], [ 11.0232, 1.7534 ], [ 11.015, 1.7765 ], [ 10.9594, 1.7873 ], [ 10.952, 1.8886 ], [ 10.9222, 1.9094 ], [ 10.9213, 1.9178 ], [ 10.9292, 1.9229 ], [ 10.9315, 1.9314 ], [ 10.8596, 1.9724 ], [ 10.8314, 1.9728 ], [ 10.8178, 1.9638 ], [ 10.7226, 1.9393 ], [ 10.6641, 1.8673 ], [ 10.6729, 1.8609 ], [ 10.7008, 1.8545 ], [ 10.7096, 1.8357 ], [ 10.7223, 1.8193 ], [ 10.7216, 1.5753 ] ] ] } },
{ "type": "Feature", "properties": { "iso3": "GNQ", "unit_id": "11065452B89932418637458", "unit_name": "ACONIBE" }, "geometry": { "type": "Polygon", "coordinates": [ [ [ 10.7135, 1.5694 ], [ 10.7115, 1.5471 ], [ 10.7154, 1.545 ], [ 10.7423, 1.5538 ], [ 10.7518, 1.5482 ], [ 10.7532, 1.5373 ], [ 10.7498, 1.5229 ], [ 10.756, 1.5012 ], [ 10.7412, 1.5004 ], [ 10.7516, 1.4887 ], [ 10.7488, 1.4819 ], [ 10.7576, 1.4751 ], [ 10.7517, 1.4573 ], [ 10.7657, 1.4383 ], [ 10.7705, 1.4248 ], [ 10.7548, 1.4031 ], [ 10.7446, 1.3749 ], [ 10.7248, 1.3427 ], [ 10.7267, 1.3349 ], [ 10.7217, 1.3261 ], [ 10.722, 1.3157 ], [ 10.7118, 1.3042 ], [ 10.7149, 1.2807 ], [ 10.7108, 1.2692 ], [ 10.7482, 1.2354 ], [ 10.8279, 1.2053 ], [ 10.9643, 1.0733 ], [ 11.0685, 1.0987 ], [ 11.1346, 1.2027 ], [ 11.1657, 1.3467 ], [ 11.1311, 1.4999 ], [ 11.124, 1.5168 ], [ 11.1186, 1.5062 ], [ 11.1094, 1.5107 ], [ 11.1024, 1.5064 ], [ 11.0991, 1.5096 ], [ 11.0917, 1.5043 ], [ 11.075, 1.507 ], [ 11.07, 1.5048 ], [ 11.0464, 1.5132 ], [ 11.0413, 1.5103 ], [ 11.0372, 1.5161 ], [ 11.0257, 1.5177 ], [ 11.0227, 1.5235 ], [ 11.0252, 1.5277 ], [ 11.0156, 1.5244 ], [ 11.0097, 1.5277 ], [ 11.0092, 1.5322 ], [ 11.0195, 1.5416 ], [ 11.0162, 1.5442 ], [ 11.0135, 1.5381 ], [ 11.0059, 1.5365 ], [ 11.0037, 1.5458 ], [ 10.999, 1.5505 ], [ 10.9887, 1.5496 ], [ 10.9904, 1.5541 ], [ 10.9844, 1.5593 ], [ 10.9863, 1.5628 ], [ 10.9801, 1.5829 ], [ 10.976, 1.5805 ], [ 10.9667, 1.5853 ], [ 10.9624, 1.5648 ], [ 10.9533, 1.5612 ], [ 10.9471, 1.5692 ], [ 10.9495, 1.5788 ], [ 10.9403, 1.5832 ], [ 10.9374, 1.5699 ], [ 10.9337, 1.5707 ], [ 10.9308, 1.578 ], [ 10.9098, 1.5763 ], [ 10.9007, 1.5818 ], [ 10.9039, 1.5834 ], [ 10.9013, 1.5857 ], [ 10.8901, 1.5843 ], [ 10.883, 1.5873 ], [ 10.8827, 1.5911 ], [ 10.8891, 1.5942 ], [ 10.8873, 1.6014 ], [ 10.8802, 1.6005 ], [ 10.8735, 1.6043 ], [ 10.8711, 1.5909 ], [ 10.8533, 1.5948 ], [ 10.8558, 1.5845 ], [ 10.8643, 1.5768 ], [ 10.866, 1.5666 ], [ 10.8639, 1.5629 ], [ 10.8596, 1.5664 ], [ 10.8597, 1.5712 ], [ 10.8382, 1.5799 ], [ 10.8328, 1.5972 ], [ 10.8282, 1.5908 ], [ 10.8177, 1.6017 ], [ 10.8179, 1.5969 ], [ 10.8124, 1.5953 ], [ 10.8143, 1.5907 ], [ 10.8106, 1.5878 ], [ 10.7968, 1.5896 ], [ 10.7906, 1.5937 ], [ 10.7856, 1.5914 ], [ 10.7716, 1.5984 ], [ 10.7653, 1.586 ], [ 10.7432, 1.5803 ], [ 10.7405, 1.5842 ], [ 10.7254, 1.5726 ], [ 10.7216, 1.5753 ], [ 10.7135, 1.5694 ] ] ] } },
{ "type": "Feature", "properties": { "iso3": "GNQ", "unit_id": "11065452B87560810385120", "unit_name": "BICURGA" }, "geometry": { "type": "Polygon", "coordinates": [ [ [ 10.58, 1.715 ], [ 10.4977, 1.7415 ], [ 10.3953, 1.6727 ], [ 10.3064, 1.6575 ], [ 10.1143, 1.5781 ], [ 10.1068, 1.4687 ], [ 10.1099, 1.4429 ], [ 10.0611, 1.4092 ], [ 10.1077, 1.3569 ], [ 10.4381, 1.3567 ], [ 10.4385, 1.4751 ], [ 10.4697, 1.4999 ], [ 10.57, 1.5926 ], [ 10.5758, 1.6045 ], [ 10.5755, 1.6227 ], [ 10.579, 1.6238 ], [ 10.5863, 1.6186 ], [ 10.5873, 1.6342 ], [ 10.5908, 1.6396 ], [ 10.5864, 1.6471 ], [ 10.5865, 1.658 ], [ 10.5781, 1.6634 ], [ 10.5735, 1.6726 ], [ 10.5674, 1.6702 ], [ 10.5654, 1.6721 ], [ 10.58, 1.715 ] ] ] } },
{ "type": "Feature", "properties": { "iso3": "GNQ", "unit_id": "11065452B18175278434840", "unit_name": "EVINAYONG" }, "geometry": { "type": "Polygon", "coordinates": [ [ [ 10.57, 1.5926 ], [ 10.4697, 1.4999 ], [ 10.4385, 1.4751 ], [ 10.4381, 1.3567 ], [ 10.1077, 1.3569 ], [ 10.1252, 1.2823 ], [ 10.1237, 1.2713 ], [ 10.1277, 1.2542 ], [ 10.1414, 1.2392 ], [ 10.1658, 1.2289 ], [ 10.1716, 1.2205 ], [ 10.1995, 1.1398 ], [ 10.2032, 1.1362 ], [ 10.2238, 1.1398 ], [ 10.2348, 1.13 ], [ 10.2476, 1.1255 ], [ 10.2557, 1.1377 ], [ 10.2702, 1.1386 ], [ 10.284, 1.1354 ], [ 10.2877, 1.1279 ], [ 10.2968, 1.1309 ], [ 10.2958, 1.1272 ], [ 10.2992, 1.1249 ], [ 10.3064, 1.1255 ], [ 10.3069, 1.1312 ], [ 10.3103, 1.1334 ], [ 10.3233, 1.1332 ], [ 10.3292, 1.1243 ], [ 10.3403, 1.1386 ], [ 10.357, 1.125 ], [ 10.3645, 1.1255 ], [ 10.3707, 1.1346 ], [ 10.3693, 1.1384 ], [ 10.3736, 1.1403 ], [ 10.3667, 1.1488 ], [ 10.3748, 1.161 ], [ 10.3883, 1.1614 ], [ 10.3936, 1.1666 ], [ 10.3953, 1.1754 ], [ 10.4039, 1.1744 ], [ 10.4066, 1.1791 ], [ 10.4179, 1.1855 ], [ 10.4215, 1.1792 ], [ 10.4444, 1.1681 ], [ 10.4465, 1.1644 ], [ 10.4645, 1.1599 ], [ 10.4791, 1.1519 ], [ 10.4996, 1.1304 ], [ 10.5316, 1.1557 ], [ 10.5356, 1.1662 ], [ 10.551, 1.1803 ], [ 10.5596, 1.1962 ], [ 10.5761, 1.2158 ], [ 10.5952, 1.2183 ], [ 10.606, 1.2233 ], [ 10.628, 1.2218 ], [ 10.6353, 1.2167 ], [ 10.7482, 1.2354 ], [ 10.7108, 1.2692 ], [ 10.7149, 1.2807 ], [ 10.7118, 1.3042 ], [ 10.722, 1.3157 ], [ 10.7217, 1.3261 ], [ 10.7267, 1.3349 ], [ 10.7248, 1.3427 ], [ 10.7446, 1.3749 ], [ 10.7548, 1.4031 ], [ 10.7705, 1.4248 ], [ 10.7657, 1.4383 ], [ 10.7517, 1.4573 ], [ 10.7576, 1.4751 ], [ 10.7488, 1.4819 ], [ 10.7516, 1.4887 ], [ 10.7412, 1.5004 ], [ 10.756, 1.5012 ], [ 10.7498, 1.5229 ], [ 10.7532, 1.5373 ], [ 10.7518, 1.5482 ], [ 10.7423, 1.5538 ], [ 10.7154, 1.545 ], [ 10.7115, 1.5471 ], [ 10.7109, 1.5601 ], [ 10.7074, 1.5633 ], [ 10.6919, 1.5596 ], [ 10.6867, 1.5641 ], [ 10.6822, 1.5596 ], [ 10.6739, 1.5651 ], [ 10.6712, 1.5743 ], [ 10.6649, 1.5715 ], [ 10.6523, 1.5815 ], [ 10.6473, 1.5769 ], [ 10.6508, 1.5693 ], [ 10.6468, 1.5655 ], [ 10.6454, 1.5687 ], [ 10.6355, 1.5684 ], [ 10.6253, 1.5751 ], [ 10.6273, 1.5774 ], [ 10.624, 1.5808 ], [ 10.625, 1.5847 ], [ 10.6109, 1.5861 ], [ 10.6042, 1.5834 ], [ 10.5994, 1.5881 ], [ 10.57, 1.5926 ] ] ] } },
{ "type": "Feature", "properties": { "iso3": "GNQ", "unit_id": "11065452B2915005607236", "unit_name": "MONGOMOYEN" }, "geometry": { "type": "Polygon", "coordinates": [ [ [ 11.015, 1.7765 ], [ 11.0232, 1.7534 ], [ 11.0025, 1.7408 ], [ 10.9841, 1.7357 ], [ 10.9756, 1.7197 ], [ 10.977, 1.7108 ], [ 10.985, 1.7017 ], [ 10.993, 1.6987 ], [ 10.9914, 1.6926 ], [ 10.9825, 1.6776 ], [ 10.9538, 1.6592 ], [ 10.9403, 1.5832 ], [ 10.9495, 1.5788 ], [ 10.9471, 1.5692 ], [ 10.9533, 1.5612 ], [ 10.9624, 1.5648 ], [ 10.9667, 1.5853 ], [ 10.976, 1.5805 ], [ 10.9801, 1.5829 ], [ 10.9863, 1.5628 ], [ 10.9844, 1.5593 ], [ 10.9904, 1.5541 ], [ 10.9887, 1.5496 ], [ 10.999, 1.5505 ], [ 11.0037, 1.5458 ], [ 11.0059, 1.5365 ], [ 11.0135, 1.5381 ], [ 11.0162, 1.5442 ], [ 11.0195, 1.5416 ], [ 11.0092, 1.5322 ], [ 11.0119, 1.5248 ], [ 11.0252, 1.5277 ], [ 11.0227, 1.5235 ], [ 11.0257, 1.5177 ], [ 11.0372, 1.5161 ], [ 11.0413, 1.5103 ], [ 11.0464, 1.5132 ], [ 11.07, 1.5048 ], [ 11.1489, 1.6069 ], [ 11.2071, 1.7007 ], [ 11.2075, 1.7071 ], [ 11.2049, 1.714 ], [ 11.18, 1.7363 ], [ 11.1564, 1.751 ], [ 11.1279, 1.7536 ], [ 11.015, 1.7765 ] ] ] } },
{ "type": "Feature", "properties": { "iso3": "GNQ", "unit_id": "11065452B63780080368940", "unit_name": "CORISCO" }, "geometry": { "type": "Polygon", "coordinates": [ [ [ 9.3249, 0.9346 ], [ 9.3082, 0.9335 ], [ 9.3031, 0.8967 ], [ 9.3109, 0.8974 ], [ 9.3198, 0.89 ], [ 9.3312, 0.8889 ], [ 9.3453, 0.8934 ], [ 9.3342, 0.9078 ], [ 9.3332, 0.9161 ], [ 9.3377, 0.9241 ], [ 9.3325, 0.931 ], [ 9.3249, 0.9346 ] ] ] } },
{ "type": "Feature", "properties": { "iso3": "GNQ", "unit_id": "11065452B98139425844484", "unit_name": "BATA" }, "geometry": { "type": "Polygon", "coordinates": [ [ [ 9.9163, 2.1975 ], [ 9.9134, 2.1919 ], [ 9.9067, 2.193 ], [ 9.9003, 2.2013 ], [ 9.9007, 2.2066 ], [ 9.8945, 2.2089 ], [ 9.8921, 2.2149 ], [ 9.8875, 2.2145 ], [ 9.8806, 2.227 ], [ 9.8485, 2.2402 ], [ 9.847, 2.2354 ], [ 9.845, 2.251 ], [ 9.833, 2.284 ], [ 9.8287, 2.2869 ], [ 9.8354, 2.2981 ], [ 9.8347, 2.3199 ], [ 9.8208, 2.3448 ], [ 9.8176, 2.3397 ], [ 9.8093, 2.3358 ], [ 9.7965, 2.3344 ], [ 9.791, 2.329 ], [ 9.7782, 2.3273 ], [ 9.7754, 2.3157 ], [ 9.7902, 2.2682 ], [ 9.7879, 2.2536 ], [ 9.7948, 2.2191 ], [ 9.793, 2.1837 ], [ 9.7974, 2.1606 ], [ 9.7902, 2.1244 ], [ 9.7786, 2.1093 ], [ 9.7685, 2.1048 ], [ 9.7656, 2.0891 ], [ 9.7764, 2.0675 ], [ 9.7873, 2.0264 ], [ 9.7927, 2.0189 ], [ 9.8055, 1.9584 ], [ 9.8179, 1.9322 ], [ 9.8107, 1.9397 ], [ 9.808, 1.9115 ], [ 9.7939, 1.9076 ], [ 9.7883, 1.8829 ], [ 9.7759, 1.8716 ], [ 9.7653, 1.8686 ], [ 9.7593, 1.8621 ], [ 9.7575, 1.8543 ], [ 9.7506, 1.8535 ], [ 9.744, 1.8469 ], [ 9.7442, 1.8384 ], [ 9.7566, 1.8338 ], [ 9.7595, 1.8293 ], [ 9.745, 1.8361 ], [ 9.7444, 1.8086 ], [ 9.7338, 1.7851 ], [ 9.7078, 1.7565 ], [ 9.6954, 1.7477 ], [ 9.6837, 1.7444 ], [ 9.6632, 1.7128 ], [ 9.7165, 1.702 ], [ 9.7344, 1.6689 ], [ 9.7593, 1.6596 ], [ 9.922, 1.66 ], [ 9.9333, 1.6716 ], [ 9.9139, 1.7837 ], [ 9.9163, 2.1975 ] ] ] } },
{ "type": "Feature", "properties": { "iso3": "GNQ", "unit_id": "11065452B59369715507709", "unit_name": "MACHINDA" }, "geometry": { "type": "Polygon", "coordinates": [ [ [ 9.9333, 1.6716 ], [ 9.9522, 1.6839 ], [ 9.9606, 1.6799 ], [ 9.9652, 1.6818 ], [ 9.9707, 1.6884 ], [ 9.9811, 1.6933 ], [ 9.981, 1.6968 ], [ 10.0213, 1.7339 ], [ 10.0524, 1.8565 ], [ 10.0352, 2.144 ], [ 10.0365, 2.1621 ], [ 10.0139, 2.1723 ], [ 9.9928, 2.164 ], [ 9.989, 2.1709 ], [ 9.9854, 2.1704 ], [ 9.9595, 2.186 ], [ 9.9511, 2.1854 ], [ 9.9439, 2.1913 ], [ 9.9409, 2.187 ], [ 9.9411, 2.193 ], [ 9.9351, 2.191 ], [ 9.9258, 2.2003 ], [ 9.9163, 2.1975 ], [ 9.9139, 1.7837 ], [ 9.9333, 1.6716 ] ] ] } },
{ "type": "Feature", "properties": { "iso3": "GNQ", "unit_id": "11065452B28626668585382", "unit_name": "NIEFANG" }, "geometry": { "type": "Polygon", "coordinates": [ [ [ 10.3953, 1.6727 ], [ 10.3079, 1.9115 ], [ 10.307, 2.1727 ], [ 10.1909, 2.1728 ], [ 10.1842, 2.1631 ], [ 10.1771, 2.1589 ], [ 10.1745, 2.1617 ], [ 10.1676, 2.1594 ], [ 10.1471, 2.1709 ], [ 10.121, 2.1565 ], [ 10.1187, 2.1608 ], [ 10.1063, 2.1624 ], [ 10.1015, 2.1601 ], [ 10.092, 2.1646 ], [ 10.08, 2.1613 ], [ 10.063, 2.1639 ], [ 10.0512, 2.1703 ], [ 10.0506, 2.1813 ], [ 10.0482, 2.1818 ], [ 10.0455, 2.1667 ], [ 10.0365, 2.1621 ], [ 10.0352, 2.144 ], [ 10.0524, 1.8565 ], [ 10.0213, 1.7339 ], [ 9.981, 1.6968 ], [ 9.9812, 1.6911 ], [ 10.0462, 1.6063 ], [ 10.0511, 1.5839 ], [ 10.056, 1.5789 ], [ 10.1143, 1.5781 ], [ 10.3064, 1.6575 ], [ 10.3953, 1.6727 ] ] ] } },
{ "type": "Feature", "properties": { "iso3": "GNQ", "unit_id": "11065452B74289865102960", "unit_name": "NKIMI" }, "geometry": { "type": "Polygon", "coordinates": [ [ [ 10.5405, 1.892 ], [ 10.5343, 1.9179 ], [ 10.5229, 1.9252 ], [ 10.5169, 1.9242 ], [ 10.5118, 1.9332 ], [ 10.507, 1.9285 ], [ 10.5, 1.9326 ], [ 10.4881, 1.9272 ], [ 10.4771, 1.9286 ], [ 10.4646, 1.9205 ], [ 10.4522, 1.9246 ], [ 10.4469, 1.9172 ], [ 10.4364, 1.9221 ], [ 10.4286, 1.9147 ], [ 10.4202, 1.9131 ], [ 10.4142, 1.9197 ], [ 10.394, 1.9307 ], [ 10.3933, 1.9372 ], [ 10.3754, 1.9455 ], [ 10.4299, 1.9971 ], [ 10.4655, 2.0188 ], [ 10.4657, 2.0331 ], [ 10.4737, 2.0366 ], [ 10.4731, 2.0509 ], [ 10.4783, 2.056 ], [ 10.4791, 2.0685 ], [ 10.4876, 2.0731 ], [ 10.49, 2.1067 ], [ 10.4956, 2.1123 ], [ 10.4988, 2.1355 ], [ 10.5239, 2.1591 ], [ 10.5291, 2.1666 ], [ 10.5291, 2.1725 ], [ 10.307, 2.1727 ], [ 10.3079, 1.9115 ], [ 10.3953, 1.6727 ], [ 10.4977, 1.7415 ], [ 10.58, 1.715 ], [ 10.598, 1.7452 ], [ 10.6087, 1.7747 ], [ 10.605, 1.7891 ], [ 10.6118, 1.7969 ], [ 10.6084, 1.8018 ], [ 10.6098, 1.8124 ], [ 10.6193, 1.8285 ], [ 10.6156, 1.8323 ], [ 10.6033, 1.8339 ], [ 10.5977, 1.8297 ], [ 10.5889, 1.8388 ], [ 10.5881, 1.8539 ], [ 10.5928, 1.8608 ], [ 10.5917, 1.8654 ], [ 10.5857, 1.868 ], [ 10.5767, 1.8629 ], [ 10.5748, 1.8672 ], [ 10.5663, 1.8667 ], [ 10.5631, 1.879 ], [ 10.5525, 1.8822 ], [ 10.5405, 1.892 ] ] ] } },
{ "type": "Feature", "properties": { "iso3": "GNQ", "unit_id": "11065452B35658646165921", "unit_name": "MICOMISENG" }, "geometry": { "type": "Polygon", "coordinates": [ [ [ 10.8178, 1.9638 ], [ 10.8314, 1.9728 ], [ 10.8596, 1.9724 ], [ 10.9315, 1.9314 ], [ 10.9369, 1.9365 ], [ 10.9445, 1.9347 ], [ 10.9543, 1.9433 ], [ 10.9536, 1.9491 ], [ 10.96, 1.9611 ], [ 10.9583, 1.9766 ], [ 10.933, 1.9836 ], [ 11.0285, 2.118 ], [ 11.0363, 2.1171 ], [ 11.0317, 2.1231 ], [ 11.0196, 2.1262 ], [ 10.9946, 2.1544 ], [ 10.9935, 2.1719 ], [ 10.5291, 2.1725 ], [ 10.5291, 2.1666 ], [ 10.5239, 2.1591 ], [ 10.4988, 2.1355 ], [ 10.4979, 2.1286 ], [ 10.5443, 2.1294 ], [ 10.6325, 2.0549 ], [ 10.6325, 1.9858 ], [ 10.6536, 1.9857 ], [ 10.6593, 1.9801 ], [ 10.6635, 1.98 ], [ 10.6959, 1.9849 ], [ 10.7045, 1.992 ], [ 10.7638, 2.0215 ], [ 10.7865, 2.0089 ], [ 10.7895, 2.0015 ], [ 10.7884, 1.9804 ], [ 10.8178, 1.9638 ] ] ] } },
{ "type": "Feature", "properties": { "iso3": "GNQ", "unit_id": "11065452B6027875666302", "unit_name": "EBEBIYIN" }, "geometry": { "type": "Polygon", "coordinates": [ [ [ 11.2367, 1.7883 ], [ 11.2552, 1.7895 ], [ 11.3243, 1.7648 ], [ 11.3991, 1.7614 ], [ 11.4024, 1.8245 ], [ 11.4011, 1.8368 ], [ 11.3969, 1.8407 ], [ 11.3987, 1.8481 ], [ 11.3719, 1.8889 ], [ 11.3541, 1.8955 ], [ 11.3389, 1.9406 ], [ 11.3263, 1.9602 ], [ 11.3273, 1.966 ], [ 11.3347, 1.971 ], [ 11.3325, 1.9754 ], [ 11.3353, 1.9788 ], [ 11.3355, 1.9966 ], [ 11.335, 2.0016 ], [ 11.3323, 2.0015 ], [ 11.3313, 2.0073 ], [ 11.3209, 2.0203 ], [ 11.3236, 2.0298 ], [ 11.3212, 2.0349 ], [ 11.3249, 2.0386 ], [ 11.3212, 2.0445 ], [ 11.3261, 2.0536 ], [ 11.3243, 2.0617 ], [ 11.3324, 2.0756 ], [ 11.3321, 2.0871 ], [ 11.343, 2.1043 ], [ 11.3414, 2.1077 ], [ 11.3477, 2.1062 ], [ 11.345, 2.1134 ], [ 11.351, 2.1147 ], [ 11.3502, 2.1206 ], [ 11.3536, 2.1197 ], [ 11.3516, 2.1266 ], [ 11.3594, 2.1281 ], [ 11.3636, 2.1363 ], [ 11.3557, 2.1483 ], [ 11.3597, 2.1507 ], [ 11.3571, 2.1574 ], [ 11.3623, 2.1714 ], [ 11.266, 2.1715 ], [ 11.1876, 2.1975 ], [ 11.1499, 2.1717 ], [ 10.9935, 2.1719 ], [ 10.9946, 2.1544 ], [ 11.0196, 2.1262 ], [ 11.0317, 2.1231 ], [ 11.0363, 2.1171 ], [ 11.0904, 2.118 ], [ 11.1055, 2.1071 ], [ 11.114, 2.0801 ], [ 11.1283, 2.0632 ], [ 11.1282, 2.0574 ], [ 11.1369, 2.0373 ], [ 11.1396, 2.0366 ], [ 11.1432, 2.022 ], [ 11.196, 2.0215 ], [ 11.1884, 1.9878 ], [ 11.1864, 1.9452 ], [ 11.2435, 1.8833 ], [ 11.2457, 1.8451 ], [ 11.2422, 1.8313 ], [ 11.2471, 1.8187 ], [ 11.245, 1.8057 ], [ 11.2367, 1.7883 ] ] ] } },
{ "type": "Feature", "properties": { "iso3": "GNQ", "unit_id": "11065452B93694652116414", "unit_name": "MONGOMO" }, "geometry": { "type": "Polygon", "coordinates": [ [ [ 11.1279, 1.7536 ], [ 11.1564, 1.751 ], [ 11.18, 1.7363 ], [ 11.2049, 1.714 ], [ 11.2071, 1.7007 ], [ 11.1489, 1.6069 ], [ 11.07, 1.5048 ], [ 11.075, 1.507 ], [ 11.0917, 1.5043 ], [ 11.0991, 1.5096 ], [ 11.1024, 1.5064 ], [ 11.1094, 1.5107 ], [ 11.1186, 1.5062 ], [ 11.1203, 1.5138 ], [ 11.1402, 1.5253 ], [ 11.1513, 1.5215 ], [ 11.1756, 1.4906 ], [ 11.1846, 1.4958 ], [ 11.205, 1.4975 ], [ 11.219, 1.484 ], [ 11.2452, 1.4863 ], [ 11.2522, 1.4686 ], [ 11.274, 1.4648 ], [ 11.2784, 1.4666 ], [ 11.2837, 1.4603 ], [ 11.2955, 1.4606 ], [ 11.3032, 1.4413 ], [ 11.3366, 1.4395 ], [ 11.3367, 1.6428 ], [ 11.3517, 1.6506 ], [ 11.3653, 1.6668 ], [ 11.3822, 1.6766 ], [ 11.3912, 1.691 ], [ 11.4056, 1.7006 ], [ 11.4056, 1.707 ], [ 11.3966, 1.7138 ], [ 11.3938, 1.7232 ], [ 11.4, 1.7404 ], [ 11.3991, 1.7614 ], [ 11.3243, 1.7648 ], [ 11.2552, 1.7895 ], [ 11.2285, 1.7873 ], [ 11.1879, 1.8013 ], [ 11.157, 1.7939 ], [ 11.1472, 1.8053 ], [ 11.1351, 1.8106 ], [ 11.1296, 1.7942 ], [ 11.1318, 1.7882 ], [ 11.1279, 1.7536 ] ] ] } },
{ "type": "Feature", "properties": { "iso3": "GNQ", "unit_id": "11065452B58050641555743", "unit_name": "NSORK" }, "geometry": { "type": "Polygon", "coordinates": [ [ [ 10.9643, 1.0733 ], [ 10.9622, 1.0598 ], [ 10.9765, 1.0333 ], [ 10.973, 1.0135 ], [ 10.9629, 1.0001 ], [ 11.3364, 1.0 ], [ 11.3366, 1.4395 ], [ 11.3032, 1.4413 ], [ 11.2955, 1.4606 ], [ 11.2837, 1.4603 ], [ 11.2784, 1.4666 ], [ 11.274, 1.4648 ], [ 11.2522, 1.4686 ], [ 11.2452, 1.4863 ], [ 11.219, 1.484 ], [ 11.205, 1.4975 ], [ 11.1846, 1.4958 ], [ 11.1756, 1.4906 ], [ 11.1513, 1.5215 ], [ 11.1402, 1.5253 ], [ 11.1298, 1.5206 ], [ 11.1279, 1.5162 ], [ 11.124, 1.5168 ], [ 11.1311, 1.4999 ], [ 11.1657, 1.3467 ], [ 11.1346, 1.2027 ], [ 11.0685, 1.0987 ], [ 10.9643, 1.0733 ] ] ] } },
{ "type": "Feature", "properties": { "iso3": "GNQ", "unit_id": "11065452B93144755032170", "unit_name": "ACURENAM" }, "geometry": { "type": "Polygon", "coordinates": [ [ [ 10.7482, 1.2354 ], [ 10.6353, 1.2167 ], [ 10.628, 1.2218 ], [ 10.606, 1.2233 ], [ 10.5952, 1.2183 ], [ 10.5761, 1.2158 ], [ 10.5596, 1.1962 ], [ 10.551, 1.1803 ], [ 10.5356, 1.1662 ], [ 10.5316, 1.1557 ], [ 10.4996, 1.1304 ], [ 10.4791, 1.1519 ], [ 10.4645, 1.1599 ], [ 10.4465, 1.1644 ], [ 10.4444, 1.1681 ], [ 10.4215, 1.1792 ], [ 10.4179, 1.1855 ], [ 10.4066, 1.1791 ], [ 10.4039, 1.1744 ], [ 10.3953, 1.1754 ], [ 10.3936, 1.1666 ], [ 10.3883, 1.1614 ], [ 10.3748, 1.161 ], [ 10.3667, 1.1488 ], [ 10.3736, 1.1403 ], [ 10.3693, 1.1384 ], [ 10.3707, 1.1346 ], [ 10.3645, 1.1255 ], [ 10.357, 1.125 ], [ 10.3403, 1.1386 ], [ 10.3292, 1.1243 ], [ 10.3233, 1.1332 ], [ 10.3103, 1.1334 ], [ 10.3069, 1.1312 ], [ 10.3064, 1.1255 ], [ 10.2992, 1.1249 ], [ 10.2958, 1.1272 ], [ 10.2968, 1.1309 ], [ 10.2877, 1.1279 ], [ 10.284, 1.1354 ], [ 10.2795, 1.1374 ], [ 10.258, 1.1388 ], [ 10.2476, 1.1255 ], [ 10.2624, 1.097 ], [ 10.2581, 1.0571 ], [ 10.2484, 1.048 ], [ 10.2351, 1.0148 ], [ 10.2104, 1.0001 ], [ 10.697, 1.0001 ], [ 10.7401, 1.0341 ], [ 10.8744, 1.0342 ], [ 10.9062, 1.0227 ], [ 10.9119, 1.0116 ], [ 10.9279, 1.0001 ], [ 10.9629, 1.0001 ], [ 10.973, 1.0135 ], [ 10.9765, 1.0333 ], [ 10.9622, 1.0598 ], [ 10.9643, 1.0733 ], [ 10.8279, 1.2053 ], [ 10.7482, 1.2354 ] ] ] } },
{ "type": "Feature", "properties": { "iso3": "GNQ", "unit_id": "11065452B69337055746076", "unit_name": "MBINI" }, "geometry": { "type": "Polygon", "coordinates": [ [ [ 10.1143, 1.5781 ], [ 10.056, 1.5789 ], [ 10.0511, 1.5839 ], [ 10.0462, 1.6063 ], [ 9.9811, 1.6933 ], [ 9.9606, 1.6799 ], [ 9.9528, 1.6839 ], [ 9.948, 1.6818 ], [ 9.9313, 1.6705 ], [ 9.922, 1.66 ], [ 9.7593, 1.6596 ], [ 9.7344, 1.6689 ], [ 9.7165, 1.702 ], [ 9.6632, 1.7128 ], [ 9.6589, 1.7055 ], [ 9.649, 1.7022 ], [ 9.6406, 1.691 ], [ 9.6326, 1.6898 ], [ 9.611, 1.6654 ], [ 9.6118, 1.6467 ], [ 9.6077, 1.6229 ], [ 9.6127, 1.6214 ], [ 9.6176, 1.6106 ], [ 9.6238, 1.6076 ], [ 9.6321, 1.5872 ], [ 9.652, 1.5752 ], [ 9.6791, 1.568 ], [ 9.7203, 1.5931 ], [ 9.7386, 1.5963 ], [ 9.7508, 1.5929 ], [ 9.7591, 1.5953 ], [ 9.7796, 1.5807 ], [ 9.7969, 1.5781 ], [ 9.8008, 1.574 ], [ 9.8006, 1.5661 ], [ 9.8045, 1.5607 ], [ 9.8228, 1.5601 ], [ 9.8047, 1.5587 ], [ 9.7987, 1.5646 ], [ 9.7993, 1.5729 ], [ 9.7946, 1.578 ], [ 9.7777, 1.5773 ], [ 9.7573, 1.5914 ], [ 9.7408, 1.5919 ], [ 9.7219, 1.5868 ], [ 9.7162, 1.5807 ], [ 9.7219, 1.5661 ], [ 9.7389, 1.5565 ], [ 9.7375, 1.5496 ], [ 9.7325, 1.5599 ], [ 9.7236, 1.5581 ], [ 9.7144, 1.5743 ], [ 9.6997, 1.5719 ], [ 9.6944, 1.5616 ], [ 9.6853, 1.5605 ], [ 9.6751, 1.5544 ], [ 9.6617, 1.5543 ], [ 9.6615, 1.548 ], [ 9.658, 1.551 ], [ 9.659, 1.5549 ], [ 9.6342, 1.5712 ], [ 9.6202, 1.59 ], [ 9.5988, 1.5738 ], [ 9.5978, 1.561 ], [ 9.576, 1.5093 ], [ 9.5957, 1.5098 ], [ 9.679, 1.47 ], [ 10.1068, 1.4687 ], [ 10.1143, 1.5781 ] ] ] } },
{ "type": "Feature", "properties": { "iso3": "GNQ", "unit_id": "11065452B13026737962858", "unit_name": "BITICA" }, "geometry": { "type": "Polygon", "coordinates": [ [ [ 10.1068, 1.4687 ], [ 9.679, 1.47 ], [ 9.5957, 1.5098 ], [ 9.576, 1.5093 ], [ 9.5629, 1.4865 ], [ 9.5495, 1.4825 ], [ 9.5443, 1.4641 ], [ 9.5364, 1.4552 ], [ 9.5192, 1.4405 ], [ 9.497, 1.4315 ], [ 9.4906, 1.4228 ], [ 9.4806, 1.419 ], [ 9.4704, 1.4012 ], [ 9.464, 1.3974 ], [ 9.4606, 1.3916 ], [ 9.4659, 1.3585 ], [ 9.4617, 1.3286 ], [ 9.4542, 1.3178 ], [ 9.4443, 1.3157 ], [ 9.4291, 1.2847 ], [ 9.4217, 1.2821 ], [ 9.4095, 1.2833 ], [ 9.3976, 1.2746 ], [ 9.4, 1.2638 ], [ 9.3908, 1.2488 ], [ 9.3877, 1.2197 ], [ 9.385, 1.2143 ], [ 9.3797, 1.2119 ], [ 9.3894, 1.2088 ], [ 9.4073, 1.2099 ], [ 9.4268, 1.2163 ], [ 9.4495, 1.2433 ], [ 9.463, 1.249 ], [ 9.4764, 1.2433 ], [ 9.4746, 1.2397 ], [ 9.4785, 1.229 ], [ 9.5091, 1.23 ], [ 9.5485, 1.2491 ], [ 9.5605, 1.2581 ], [ 9.5709, 1.2717 ], [ 9.5869, 1.2778 ], [ 9.6001, 1.2757 ], [ 9.6193, 1.2815 ], [ 9.6319, 1.2811 ], [ 9.6861, 1.2677 ], [ 9.8027, 1.3593 ], [ 10.0611, 1.4092 ], [ 10.1099, 1.4429 ], [ 10.1068, 1.4687 ] ] ] } },
{ "type": "Feature", "properties": { "iso3": "GNQ", "unit_id": "11065452B22787327477805", "unit_name": "COGO" }, "geometry": { "type": "MultiPolygon", "coordinates": [ [ [ [ 9.7827, 1.0434 ], [ 9.774, 1.0629 ], [ 9.7687, 1.0678 ], [ 9.7609, 1.0686 ], [ 9.7582, 1.0626 ], [ 9.7611, 1.0554 ], [ 9.7827, 1.0434 ] ] ], [ [ [ 9.6885, 1.0688 ], [ 9.6917, 1.0716 ], [ 9.6926, 1.0758 ], [ 9.6886, 1.0721 ], [ 9.6885, 1.0688 ] ] ], [ [ [ 9.7276, 1.0739 ], [ 9.7325, 1.0756 ], [ 9.7291, 1.0799 ], [ 9.7276, 1.0739 ] ] ], [ [ [ 10.0611, 1.4092 ], [ 9.8027, 1.3593 ], [ 9.6861, 1.2677 ], [ 9.6319, 1.2811 ], [ 9.6193, 1.2815 ], [ 9.6001, 1.2757 ], [ 9.5915, 1.278 ], [ 9.5776, 1.276 ], [ 9.5485, 1.2491 ], [ 9.5091, 1.23 ], [ 9.4875, 1.2275 ], [ 9.4785, 1.229 ], [ 9.4758, 1.2323 ], [ 9.4764, 1.2433 ], [ 9.4672, 1.2488 ], [ 9.4568, 1.2475 ], [ 9.4386, 1.2321 ], [ 9.4268, 1.2163 ], [ 9.4073, 1.2099 ], [ 9.3894, 1.2088 ], [ 9.3797, 1.2119 ], [ 9.3682, 1.1854 ], [ 9.361, 1.1865 ], [ 9.3523, 1.1813 ], [ 9.3469, 1.1825 ], [ 9.3424, 1.1763 ], [ 9.3577, 1.1641 ], [ 9.3626, 1.1495 ], [ 9.3579, 1.1469 ], [ 9.3591, 1.1426 ], [ 9.367, 1.1422 ], [ 9.3757, 1.1369 ], [ 9.3871, 1.1097 ], [ 9.3983, 1.1117 ], [ 9.4114, 1.1022 ], [ 9.4129, 1.1084 ], [ 9.4197, 1.1143 ], [ 9.4356, 1.115 ], [ 9.4489, 1.1194 ], [ 9.4564, 1.1254 ], [ 9.4707, 1.1293 ], [ 9.4734, 1.1347 ], [ 9.4811, 1.1379 ], [ 9.4953, 1.1369 ], [ 9.5016, 1.1332 ], [ 9.5109, 1.1362 ], [ 9.5248, 1.1288 ], [ 9.5332, 1.1301 ], [ 9.5521, 1.1138 ], [ 9.561, 1.0985 ], [ 9.5746, 1.0723 ], [ 9.5827, 1.0363 ], [ 9.5894, 1.0285 ], [ 9.6047, 1.04 ], [ 9.6157, 1.0418 ], [ 9.6218, 1.049 ], [ 9.6425, 1.0548 ], [ 9.6474, 1.0623 ], [ 9.6564, 1.0681 ], [ 9.6616, 1.0675 ], [ 9.6742, 1.079 ], [ 9.666, 1.0874 ], [ 9.6687, 1.0985 ], [ 9.6619, 1.101 ], [ 9.6615, 1.1048 ], [ 9.6624, 1.1065 ], [ 9.665, 1.1061 ], [ 9.6624, 1.102 ], [ 9.6678, 1.1017 ], [ 9.6696, 1.0977 ], [ 9.6675, 1.0876 ], [ 9.6762, 1.0876 ], [ 9.6817, 1.1026 ], [ 9.6819, 1.1171 ], [ 9.6956, 1.1306 ], [ 9.715, 1.1373 ], [ 9.7202, 1.1432 ], [ 9.7213, 1.1467 ], [ 9.7108, 1.1492 ], [ 9.716, 1.1437 ], [ 9.7142, 1.1402 ], [ 9.7109, 1.1409 ], [ 9.71, 1.1449 ], [ 9.7025, 1.1432 ], [ 9.6992, 1.1451 ], [ 9.6985, 1.1483 ], [ 9.7021, 1.1524 ], [ 9.6959, 1.151 ], [ 9.7029, 1.1534 ], [ 9.7005, 1.1449 ], [ 9.7104, 1.146 ], [ 9.7115, 1.1412 ], [ 9.7149, 1.1423 ], [ 9.7096, 1.1479 ], [ 9.7109, 1.1524 ], [ 9.7045, 1.1628 ], [ 9.7131, 1.1508 ], [ 9.7216, 1.1494 ], [ 9.743, 1.1646 ], [ 9.7316, 1.1766 ], [ 9.7325, 1.1927 ], [ 9.7412, 1.2082 ], [ 9.732, 1.2156 ], [ 9.7424, 1.209 ], [ 9.7448, 1.2111 ], [ 9.7514, 1.223 ], [ 9.7517, 1.2414 ], [ 9.7547, 1.2134 ], [ 9.747, 1.2111 ], [ 9.7399, 1.2012 ], [ 9.7343, 1.1838 ], [ 9.7365, 1.1734 ], [ 9.7521, 1.1711 ], [ 9.7542, 1.1653 ], [ 9.7604, 1.1665 ], [ 9.7861, 1.1907 ], [ 9.7871, 1.2029 ], [ 9.7908, 1.2075 ], [ 9.8038, 1.2058 ], [ 9.8098, 1.1995 ], [ 9.7918, 1.2047 ], [ 9.7881, 1.2006 ], [ 9.7859, 1.1863 ], [ 9.7774, 1.1818 ], [ 9.7784, 1.1756 ], [ 9.7741, 1.1788 ], [ 9.7657, 1.1654 ], [ 9.7477, 1.1616 ], [ 9.7273, 1.1379 ], [ 9.6983, 1.1207 ], [ 9.6943, 1.1136 ], [ 9.6966, 1.1079 ], [ 9.6938, 1.1077 ], [ 9.6946, 1.0807 ], [ 9.6967, 1.0782 ], [ 9.7141, 1.0803 ], [ 9.7304, 1.0917 ], [ 9.7426, 1.0939 ], [ 9.7537, 1.0899 ], [ 9.7639, 1.0932 ], [ 9.7785, 1.0872 ], [ 9.7774, 1.0955 ], [ 9.7847, 1.0918 ], [ 9.7848, 1.0876 ], [ 9.7886, 1.0854 ], [ 9.8192, 1.0727 ], [ 9.8353, 1.0741 ], [ 9.8493, 1.0802 ], [ 9.8587, 1.0913 ], [ 9.8495, 1.0981 ], [ 9.8497, 1.1018 ], [ 9.8537, 1.1079 ], [ 9.8428, 1.1153 ], [ 9.8378, 1.1226 ], [ 9.8549, 1.1091 ], [ 9.8507, 1.0975 ], [ 9.86, 1.0943 ], [ 9.8621, 1.0878 ], [ 9.8709, 1.09 ], [ 9.8759, 1.0955 ], [ 9.8778, 1.1049 ], [ 9.8738, 1.1214 ], [ 9.8771, 1.1271 ], [ 9.8711, 1.134 ], [ 9.871, 1.1485 ], [ 9.8727, 1.1348 ], [ 9.878, 1.1277 ], [ 9.8764, 1.1162 ], [ 9.8825, 1.1016 ], [ 9.8709, 1.0797 ], [ 9.8614, 1.0737 ], [ 9.8448, 1.0738 ], [ 9.8323, 1.0656 ], [ 9.8209, 1.0631 ], [ 9.8321, 1.0505 ], [ 9.8517, 1.0604 ], [ 9.8568, 1.0493 ], [ 9.8657, 1.0527 ], [ 9.8783, 1.0527 ], [ 9.9012, 1.0443 ], [ 9.8843, 1.045 ], [ 9.8762, 1.0524 ], [ 9.8552, 1.0479 ], [ 9.85, 1.0582 ], [ 9.8324, 1.039 ], [ 9.8309, 1.0454 ], [ 9.8245, 1.0439 ], [ 9.8249, 1.0527 ], [ 9.8178, 1.0576 ], [ 9.8106, 1.0605 ], [ 9.7888, 1.0604 ], [ 9.7844, 1.0553 ], [ 9.797, 1.0278 ], [ 9.7957, 1.0028 ], [ 9.8387, 1.0101 ], [ 9.8455, 1.009 ], [ 9.855, 1.0003 ], [ 9.8731, 0.9962 ], [ 9.8862, 0.9821 ], [ 9.8917, 0.9575 ], [ 9.9022, 0.9498 ], [ 9.9222, 0.9433 ], [ 9.9331, 0.9313 ], [ 9.9472, 0.9241 ], [ 9.952, 0.9246 ], [ 9.9561, 0.9301 ], [ 9.9772, 0.9304 ], [ 9.9905, 0.9357 ], [ 9.9839, 0.9412 ], [ 9.9891, 0.9463 ], [ 9.9883, 0.9536 ], [ 9.9918, 0.9578 ], [ 9.9869, 0.9609 ], [ 9.984, 0.9789 ], [ 9.9902, 0.9841 ], [ 9.9938, 0.9952 ], [ 9.9903, 1.0001 ], [ 10.2104, 1.0001 ], [ 10.2351, 1.0148 ], [ 10.2484, 1.048 ], [ 10.2581, 1.0571 ], [ 10.2624, 1.097 ], [ 10.2476, 1.1255 ], [ 10.2348, 1.13 ], [ 10.2238, 1.1398 ], [ 10.2032, 1.1362 ], [ 10.1995, 1.1398 ], [ 10.1716, 1.2205 ], [ 10.1658, 1.2289 ], [ 10.1414, 1.2392 ], [ 10.1277, 1.2542 ], [ 10.1237, 1.2713 ], [ 10.1252, 1.2823 ], [ 10.1077, 1.3569 ], [ 10.0611, 1.4092 ] ] ] ] } },
{ "type": "Feature", "properties": { "iso3": "GNQ", "unit_id": "11065452B23490115173263", "unit_name": "ELOBEY GRANDE" }, "geometry": { "type": "Polygon", "coordinates": [ [ [ 9.514, 0.9725 ], [ 9.5061, 0.9922 ], [ 9.4998, 0.9788 ], [ 9.5019, 0.9699 ], [ 9.5064, 0.9719 ], [ 9.5124, 0.9698 ], [ 9.514, 0.9725 ] ] ] } },
{ "type": "Feature", "properties": { "iso3": "GNQ", "unit_id": "11065452B42024070816207", "unit_name": "ELOBEY CHICO" }, "geometry": { "type": "Polygon", "coordinates": [ [ [ 9.522, 0.998 ], [ 9.5152, 1.0027 ], [ 9.5191, 0.9953 ], [ 9.522, 0.998 ] ] ] } },
{ "type": "Feature", "properties": { "iso3": "GNQ", "unit_id": "11065452B47830871634702", "unit_name": "ANNOBON" }, "geometry": { "type": "Polygon", "coordinates": [ [ [ 5.62, -1.4545 ], [ 5.6275, -1.4567 ], [ 5.628, -1.4629 ], [ 5.6341, -1.4603 ], [ 5.636, -1.4646 ], [ 5.6436, -1.4636 ], [ 5.644, -1.4594 ], [ 5.6515, -1.4573 ], [ 5.6498, -1.4431 ], [ 5.6556, -1.4383 ], [ 5.6489, -1.4143 ], [ 5.6419, -1.4051 ], [ 5.6312, -1.3984 ], [ 5.6179, -1.4047 ], [ 5.6162, -1.4096 ], [ 5.6195, -1.4114 ], [ 5.6179, -1.4182 ], [ 5.621, -1.4188 ], [ 5.6219, -1.4336 ], [ 5.626, -1.4412 ], [ 5.6196, -1.4497 ], [ 5.62, -1.4545 ] ] ] } },
{ "type": "Feature", "properties": { "iso3": "GNQ", "unit_id": "11065452B197102371645", "unit_name": "MALABO" }, "geometry": { "type": "Polygon", "coordinates": [ [ [ 8.8071, 3.7484 ], [ 8.7968, 3.7569 ], [ 8.7868, 3.7528 ], [ 8.7826, 3.7613 ], [ 8.7821, 3.7537 ], [ 8.777, 3.7546 ], [ 8.7749, 3.7516 ], [ 8.7681, 3.7541 ], [ 8.7637, 3.7523 ], [ 8.7548, 3.7568 ], [ 8.7312, 3.7563 ], [ 8.7245, 3.7644 ], [ 8.7291, 3.7767 ], [ 8.7132, 3.784 ], [ 8.6873, 3.7687 ], [ 8.6802, 3.7447 ], [ 8.669, 3.7348 ], [ 8.6517, 3.7053 ], [ 8.6395, 3.6905 ], [ 8.6317, 3.6857 ], [ 8.6233, 3.6692 ], [ 8.6144, 3.6641 ], [ 8.6096, 3.6292 ], [ 8.6108, 3.6145 ], [ 8.6295, 3.6107 ], [ 8.6488, 3.6008 ], [ 8.6635, 3.5867 ], [ 8.6793, 3.5825 ], [ 8.693, 3.5698 ], [ 8.7015, 3.5669 ], [ 8.7207, 3.567 ], [ 8.734, 3.5738 ], [ 8.7544, 3.5764 ], [ 8.758, 3.584 ], [ 8.763, 3.5837 ], [ 8.7677, 3.5878 ], [ 8.7765, 3.6031 ], [ 8.7891, 3.6021 ], [ 8.7919, 3.6043 ], [ 8.7966, 3.6183 ], [ 8.8076, 3.625 ], [ 8.8214, 3.6463 ], [ 8.825, 3.6852 ], [ 8.8235, 3.7118 ], [ 8.8075, 3.7375 ], [ 8.8071, 3.7484 ] ] ] } },
{ "type": "Feature", "properties": { "iso3": "GNQ", "unit_id": "11065452B68125244133984", "unit_name": "BANEY" }, "geometry": { "type": "Polygon", "coordinates": [ [ [ 8.7544, 3.5764 ], [ 8.7754, 3.5868 ], [ 8.7835, 3.5894 ], [ 8.7872, 3.5876 ], [ 8.7957, 3.5799 ], [ 8.8009, 3.5685 ], [ 8.8146, 3.5567 ], [ 8.8179, 3.5472 ], [ 8.8362, 3.5334 ], [ 8.8447, 3.5325 ], [ 8.8549, 3.526 ], [ 8.8613, 3.54 ], [ 8.8668, 3.5413 ], [ 8.8717, 3.5565 ], [ 8.8967, 3.5839 ], [ 8.9043, 3.6047 ], [ 8.9144, 3.6113 ], [ 8.9336, 3.6387 ], [ 8.9318, 3.6428 ], [ 8.9379, 3.6631 ], [ 8.9343, 3.6783 ], [ 8.9336, 3.7081 ], [ 8.9294, 3.7168 ], [ 8.924, 3.7167 ], [ 8.9238, 3.7254 ], [ 8.917, 3.7301 ], [ 8.9151, 3.7364 ], [ 8.9172, 3.7411 ], [ 8.913, 3.7439 ], [ 8.9117, 3.7499 ], [ 8.9026, 3.7516 ], [ 8.899, 3.7595 ], [ 8.8802, 3.7633 ], [ 8.864, 3.7549 ], [ 8.8439, 3.754 ], [ 8.8418, 3.7496 ], [ 8.8342, 3.7514 ], [ 8.8318, 3.7493 ], [ 8.827, 3.7529 ], [ 8.8217, 3.7511 ], [ 8.8172, 3.7543 ], [ 8.8057, 3.7474 ], [ 8.8075, 3.7375 ], [ 8.8235, 3.7118 ], [ 8.825, 3.6852 ], [ 8.8214, 3.6463 ], [ 8.8076, 3.625 ], [ 8.7966, 3.6183 ], [ 8.7919, 3.6043 ], [ 8.7891, 3.6021 ], [ 8.7765, 3.6031 ], [ 8.7677, 3.5878 ], [ 8.763, 3.5837 ], [ 8.758, 3.584 ], [ 8.7544, 3.5764 ] ] ] } },
{ "type": "Feature", "properties": { "iso3": "GNQ", "unit_id": "11065452B69220194361963", "unit_name": "LUBA" }, "geometry": { "type": "Polygon", "coordinates": [ [ [ 8.6108, 3.6145 ], [ 8.6107, 3.5883 ], [ 8.607, 3.5776 ], [ 8.6089, 3.5614 ], [ 8.5782, 3.5301 ], [ 8.579, 3.5257 ], [ 8.5708, 3.5141 ], [ 8.5738, 3.5119 ], [ 8.5724, 3.5087 ], [ 8.5817, 3.5049 ], [ 8.5854, 3.498 ], [ 8.5823, 3.4808 ], [ 8.5726, 3.464 ], [ 8.5558, 3.4577 ], [ 8.5406, 3.4665 ], [ 8.523, 3.4631 ], [ 8.5037, 3.4643 ], [ 8.4979, 3.4677 ], [ 8.4895, 3.4644 ], [ 8.4775, 3.4707 ], [ 8.4587, 3.4608 ], [ 8.4384, 3.4283 ], [ 8.4286, 3.3885 ], [ 8.4223, 3.376 ], [ 8.4236, 3.3634 ], [ 8.4187, 3.3548 ], [ 8.4223, 3.3462 ], [ 8.4214, 3.3376 ], [ 8.4276, 3.3189 ], [ 8.4394, 3.303 ], [ 8.4376, 3.2988 ], [ 8.4417, 3.2974 ], [ 8.4399, 3.2929 ], [ 8.4437, 3.2851 ], [ 8.4431, 3.2776 ], [ 8.4576, 3.2655 ], [ 8.4649, 3.266 ], [ 8.4983, 3.2523 ], [ 8.5051, 3.255 ], [ 8.5242, 3.251 ], [ 8.5584, 3.2377 ], [ 8.5638, 3.2368 ], [ 8.5686, 3.2437 ], [ 8.5858, 3.2419 ], [ 8.5881, 3.2446 ], [ 8.619, 3.2283 ], [ 8.6278, 3.2306 ], [ 8.6459, 3.225 ], [ 8.6625, 3.2176 ], [ 8.6671, 3.2108 ], [ 8.6752, 3.2075 ], [ 8.6982, 3.2305 ], [ 8.6884, 3.2378 ], [ 8.6773, 3.2389 ], [ 8.6729, 3.2423 ], [ 8.6689, 3.2596 ], [ 8.6596, 3.2714 ], [ 8.6619, 3.2772 ], [ 8.6585, 3.2838 ], [ 8.6733, 3.3107 ], [ 8.679, 3.336 ], [ 8.6844, 3.3729 ], [ 8.6826, 3.4026 ], [ 8.692, 3.4416 ], [ 8.7544, 3.5764 ], [ 8.734, 3.5738 ], [ 8.7207, 3.567 ], [ 8.7015, 3.5669 ], [ 8.693, 3.5698 ], [ 8.6793, 3.5825 ], [ 8.6635, 3.5867 ], [ 8.6488, 3.6008 ], [ 8.6295, 3.6107 ], [ 8.6108, 3.6145 ] ] ] } },
{ "type": "Feature", "properties": { "iso3": "GNQ", "unit_id": "11065452B69866248222639", "unit_name": "RIABA" }, "geometry": { "type": "Polygon", "coordinates": [ [ [ 8.7544, 3.5764 ], [ 8.692, 3.4416 ], [ 8.6826, 3.4026 ], [ 8.6844, 3.3729 ], [ 8.6775, 3.3287 ], [ 8.6705, 3.3041 ], [ 8.6585, 3.2838 ], [ 8.6619, 3.2772 ], [ 8.6596, 3.2714 ], [ 8.6689, 3.2596 ], [ 8.6729, 3.2423 ], [ 8.6773, 3.2389 ], [ 8.6884, 3.2378 ], [ 8.6982, 3.2305 ], [ 8.7013, 3.2421 ], [ 8.7207, 3.2709 ], [ 8.7267, 3.2736 ], [ 8.7647, 3.3156 ], [ 8.773, 3.3412 ], [ 8.7702, 3.347 ], [ 8.7729, 3.3541 ], [ 8.7706, 3.3579 ], [ 8.7732, 3.3602 ], [ 8.7643, 3.3854 ], [ 8.771, 3.3949 ], [ 8.7819, 3.3946 ], [ 8.7952, 3.4034 ], [ 8.7986, 3.4136 ], [ 8.8065, 3.4183 ], [ 8.8089, 3.4272 ], [ 8.8051, 3.428 ], [ 8.8102, 3.4331 ], [ 8.8083, 3.4385 ], [ 8.812, 3.4477 ], [ 8.8095, 3.4526 ], [ 8.8178, 3.4548 ], [ 8.8215, 3.4639 ], [ 8.8325, 3.4758 ], [ 8.8402, 3.4907 ], [ 8.8413, 3.5005 ], [ 8.8549, 3.526 ], [ 8.8447, 3.5325 ], [ 8.8362, 3.5334 ], [ 8.8179, 3.5472 ], [ 8.8146, 3.5567 ], [ 8.8009, 3.5685 ], [ 8.7957, 3.5799 ], [ 8.7872, 3.5876 ], [ 8.7835, 3.5894 ], [ 8.7754, 3.5868 ], [ 8.7544, 3.5764 ] ] ] } }
]
}
