{
"type": "FeatureCollection",
"name": "LBY",
"crs": { "type": "name", "properties": { "name": "urn:ogc:def:crs:OGC:1.3:CRS84" } },
"xy_coordinate_resolution": 0.0001,
"features": [
{ "type": "Feature", "properties": { "iso3": "LBY", "unit_id": "82343102B78199206019", "unit_name": "Derna" }, "geometry": { "type": "Polygon", "coordinates": [ [ [ 23.2528, 32.218 ], [ 23.2293, 32.2503 ], [ 23.2272, 32.2644 ], [ 23.2172, 32.2764 ], [ 23.2104, 32.28 ], [ 23.2051, 32.2895 ], [ 23.1755, 32.3015 ], [ 23.1642, 32.3125 ], [ 23.147, 32.312 ], [ 23.1109, 32.322 ], [ 23.0916, 32.3414 ], [ 23.0867, 32.356 ], [ 23.0874, 32.3631 ], [ 23.1079, 32.4006 ], [ 23.1017, 32.4115 ], [ 23.0937, 32.4175 ], [ 23.0931, 32.4205 ], [ 23.1011, 32.424 ], [ 23.0978, 32.43 ], [ 23.0996, 32.4339 ], [ 23.1068, 32.4344 ], [ 23.1314, 32.4094 ], [ 23.1282, 32.4064 ], [ 23.1158, 32.4087 ], [ 23.1142, 32.4059 ], [ 23.1269, 32.3944 ], [ 23.1358, 32.3941 ], [ 23.1424, 32.4132 ], [ 23.1407, 32.4288 ], [ 23.1458, 32.4307 ], [ 23.1521, 32.4482 ], [ 23.1598, 32.4554 ], [ 23.1549, 32.4698 ], [ 23.1486, 32.4729 ], [ 23.1427, 32.4836 ], [ 23.133, 32.4855 ], [ 23.1299, 32.4928 ], [ 23.108, 32.5174 ], [ 23.1084, 32.5211 ], [ 23.1015, 32.5308 ], [ 23.1079, 32.5433 ], [ 23.0987, 32.5725 ], [ 23.1001, 32.5789 ], [ 23.103, 32.5826 ], [ 23.1103, 32.5834 ], [ 23.1255, 32.6063 ], [ 23.1271, 32.6173 ], [ 23.1209, 32.6289 ], [ 23.111, 32.6357 ], [ 23.0819, 32.6464 ], [ 23.0654, 32.645 ], [ 23.0593, 32.6495 ], [ 23.0332, 32.6574 ], [ 23.0073, 32.6544 ], [ 22.9896, 32.6599 ], [ 22.9663, 32.662 ], [ 22.9517, 32.6698 ], [ 22.9241, 32.6728 ], [ 22.9166, 32.6781 ], [ 22.8918, 32.6848 ], [ 22.8789, 32.6919 ], [ 22.8673, 32.6931 ], [ 22.8486, 32.7049 ], [ 22.8037, 32.722 ], [ 22.7588, 32.7308 ], [ 22.6742, 32.7549 ], [ 22.663, 32.7593 ], [ 22.6465, 32.7757 ], [ 22.6032, 32.7748 ], [ 22.57, 32.79 ], [ 22.5643, 32.7986 ], [ 22.5575, 32.8019 ], [ 22.5102, 32.8053 ], [ 22.4905, 32.8099 ], [ 22.4441, 32.8385 ], [ 22.4349, 32.8496 ], [ 22.4213, 32.85 ], [ 22.3948, 32.8636 ], [ 22.3765, 32.869 ], [ 22.3453, 32.869 ], [ 22.3237, 32.8742 ], [ 22.3155, 32.8743 ], [ 22.3116, 32.8712 ], [ 22.2815, 32.8715 ], [ 22.2113, 32.8758 ], [ 22.1987, 32.8799 ], [ 22.1826, 32.8917 ], [ 22.1769, 32.9083 ], [ 22.1822, 32.9194 ], [ 22.1661, 32.9307 ], [ 22.1494, 32.9338 ], [ 22.1151, 32.9297 ], [ 22.0716, 32.9071 ], [ 22.0492, 32.9025 ], [ 21.98, 32.9012 ], [ 21.9777, 32.839 ], [ 21.9693, 32.7564 ], [ 21.9941, 32.6823 ], [ 22.0249, 32.6265 ], [ 22.0332, 32.5527 ], [ 22.0203, 32.4977 ], [ 21.9904, 32.4247 ], [ 21.9769, 32.3514 ], [ 21.9594, 32.3195 ], [ 21.9781, 32.2316 ], [ 21.9805, 32.144 ], [ 22.0044, 32.0513 ], [ 21.9987, 31.89 ], [ 22.0006, 31.7884 ], [ 21.9913, 31.6778 ], [ 21.9676, 31.6229 ], [ 21.9674, 31.4613 ], [ 21.9178, 31.2821 ], [ 22.1125, 31.1199 ], [ 22.259, 31.1452 ], [ 22.4566, 30.9928 ], [ 22.5118, 30.8935 ], [ 22.6193, 30.8291 ], [ 22.6893, 30.817 ], [ 22.7899, 30.7916 ], [ 22.8888, 30.7931 ], [ 22.9689, 30.7994 ], [ 22.9687, 31.0063 ], [ 22.9556, 31.0807 ], [ 22.9566, 31.2334 ], [ 22.9854, 31.4037 ], [ 23.0714, 31.5123 ], [ 23.1053, 31.6684 ], [ 23.1185, 31.8481 ], [ 23.1688, 32.0035 ], [ 23.2176, 32.122 ], [ 23.2528, 32.218 ] ] ] } },
{ "type": "Feature", "properties": { "iso3": "LBY", "unit_id": "82343102B76317500102672", "unit_name": "Almarj" }, "geometry": { "type": "Polygon", "coordinates": [ [ [ 21.7172, 31.0657 ], [ 21.7118, 31.2818 ], [ 21.68, 31.3056 ], [ 21.6544, 31.3524 ], [ 21.615, 31.4733 ], [ 21.6187, 31.5888 ], [ 21.6596, 31.6757 ], [ 21.6682, 31.7724 ], [ 21.6647, 31.8454 ], [ 21.6612, 31.8554 ], [ 21.6412, 31.8725 ], [ 21.5786, 31.9025 ], [ 21.5506, 31.923 ], [ 21.5292, 31.9539 ], [ 21.492, 31.991 ], [ 21.4711, 32.022 ], [ 21.4506, 32.0781 ], [ 21.4492, 32.0972 ], [ 21.462, 32.1317 ], [ 21.4269, 32.2291 ], [ 21.3645, 32.327 ], [ 21.3348, 32.4289 ], [ 21.3319, 32.5118 ], [ 21.3884, 32.5705 ], [ 21.4615, 32.6335 ], [ 21.4581, 32.698 ], [ 21.3946, 32.7681 ], [ 21.3873, 32.7806 ], [ 21.3677, 32.7752 ], [ 21.2491, 32.7669 ], [ 21.1973, 32.7674 ], [ 21.1842, 32.7704 ], [ 21.1102, 32.7687 ], [ 21.0798, 32.7645 ], [ 21.0321, 32.7464 ], [ 21.0118, 32.7349 ], [ 20.997, 32.734 ], [ 20.9627, 32.7191 ], [ 20.9498, 32.7177 ], [ 20.9248, 32.6971 ], [ 20.9001, 32.6821 ], [ 20.5786, 32.5536 ], [ 20.5784, 32.5473 ], [ 20.6099, 32.4747 ], [ 20.6329, 32.4372 ], [ 20.6387, 32.4084 ], [ 20.7021, 32.3104 ], [ 20.7194, 32.2758 ], [ 20.7713, 32.1894 ], [ 20.7972, 32.1202 ], [ 20.7972, 32.0856 ], [ 20.8087, 32.028 ], [ 20.8087, 31.9646 ], [ 20.8433, 31.9127 ], [ 20.9644, 31.7715 ], [ 21.0537, 31.6735 ], [ 21.2154, 31.5411 ], [ 21.2238, 31.4578 ], [ 21.2424, 31.3558 ], [ 21.2888, 31.2763 ], [ 21.3191, 31.0351 ], [ 21.3975, 31.0328 ], [ 21.6553, 31.0432 ], [ 21.7172, 31.0657 ] ] ] } },
{ "type": "Feature", "properties": { "iso3": "LBY", "unit_id": "82343102B38910720797014", "unit_name": "Benghazi" }, "geometry": { "type": "Polygon", "coordinates": [ [ [ 20.5786, 32.5536 ], [ 20.5626, 32.545 ], [ 20.5447, 32.5299 ], [ 20.5113, 32.5126 ], [ 20.498, 32.4985 ], [ 20.4769, 32.4842 ], [ 20.3734, 32.4215 ], [ 20.2762, 32.3353 ], [ 20.2612, 32.3286 ], [ 20.2178, 32.2942 ], [ 20.1638, 32.2444 ], [ 20.1528, 32.2295 ], [ 20.1587, 32.2201 ], [ 20.151, 32.2182 ], [ 20.1446, 32.2218 ], [ 20.1224, 32.1966 ], [ 20.1005, 32.1881 ], [ 20.0985, 32.177 ], [ 20.0845, 32.1494 ], [ 20.0561, 32.1193 ], [ 20.0614, 32.1117 ], [ 20.0683, 32.1138 ], [ 20.0716, 32.1117 ], [ 20.0729, 32.1083 ], [ 20.0697, 32.1034 ], [ 20.0607, 32.1048 ], [ 20.0555, 32.1115 ], [ 20.0518, 32.1104 ], [ 20.0424, 32.0784 ], [ 20.0346, 32.0641 ], [ 20.0016, 32.0278 ], [ 19.9779, 32.0096 ], [ 19.9776, 32.0 ], [ 19.9599, 31.9942 ], [ 19.9537, 31.9876 ], [ 19.9435, 31.9566 ], [ 19.9479, 31.9468 ], [ 19.9585, 31.9355 ], [ 19.9445, 31.9081 ], [ 19.95, 31.8945 ], [ 19.9495, 31.8883 ], [ 19.9249, 31.8297 ], [ 19.9318, 31.8111 ], [ 19.9298, 31.7838 ], [ 19.9241, 31.7715 ], [ 19.9242, 31.7447 ], [ 19.929, 31.7238 ], [ 19.956, 31.6734 ], [ 19.9679, 31.5864 ], [ 19.9878, 31.5364 ], [ 19.9951, 31.4899 ], [ 19.9936, 31.4786 ], [ 19.9959, 31.4752 ], [ 20.0068, 31.4757 ], [ 20.0172, 31.4625 ], [ 20.014, 31.4308 ], [ 20.0319, 31.3936 ], [ 20.0513, 31.3655 ], [ 20.0762, 31.3484 ], [ 20.097, 31.3251 ], [ 20.1281, 31.2759 ], [ 20.1329, 31.2608 ], [ 20.1892, 31.2629 ], [ 20.299, 31.2317 ], [ 20.3431, 31.175 ], [ 20.4175, 31.0884 ], [ 20.5235, 31.0255 ], [ 20.5938, 31.007 ], [ 20.7381, 31.0139 ], [ 20.9341, 31.0462 ], [ 21.3191, 31.0351 ], [ 21.2888, 31.2763 ], [ 21.2424, 31.3558 ], [ 21.2238, 31.4578 ], [ 21.2154, 31.5411 ], [ 21.0537, 31.6735 ], [ 20.9644, 31.7715 ], [ 20.8433, 31.9127 ], [ 20.8087, 31.9646 ], [ 20.8087, 32.028 ], [ 20.7972, 32.0856 ], [ 20.7972, 32.1202 ], [ 20.7713, 32.1894 ], [ 20.7194, 32.2758 ], [ 20.7021, 32.3104 ], [ 20.6387, 32.4084 ], [ 20.6329, 32.4372 ], [ 20.6099, 32.4747 ], [ 20.5784, 32.5473 ], [ 20.5786, 32.5536 ] ] ] } },
{ "type": "Feature", "properties": { "iso3": "LBY", "unit_id": "82343102B86005011462120", "unit_name": "Tobruk" }, "geometry": { "type": "MultiPolygon", "coordinates": [ [ [ [ 22.9689, 30.7994 ], [ 23.0571, 30.77 ], [ 23.0621, 28.1393 ], [ 24.9609, 28.1005 ], [ 25.0, 28.0932 ], [ 24.9994, 29.2502 ], [ 24.9886, 29.268 ], [ 24.957, 29.3458 ], [ 24.9102, 29.4306 ], [ 24.8996, 29.46 ], [ 24.883, 29.4811 ], [ 24.8604, 29.5342 ], [ 24.8577, 29.5483 ], [ 24.8748, 29.5871 ], [ 24.895, 29.6088 ], [ 24.8977, 29.623 ], [ 24.8958, 29.6314 ], [ 24.8194, 29.789 ], [ 24.8165, 29.8152 ], [ 24.8201, 29.8862 ], [ 24.8132, 29.9189 ], [ 24.7533, 30.0957 ], [ 24.6981, 30.1488 ], [ 24.7094, 30.1819 ], [ 24.7596, 30.2647 ], [ 24.7831, 30.3313 ], [ 24.8344, 30.3689 ], [ 24.8581, 30.3949 ], [ 24.8753, 30.4281 ], [ 24.8902, 30.4484 ], [ 24.9265, 30.4811 ], [ 24.9478, 30.5453 ], [ 24.9492, 30.5774 ], [ 24.9551, 30.5986 ], [ 24.9786, 30.6444 ], [ 24.9923, 30.7129 ], [ 25.0159, 30.765 ], [ 25.0183, 30.778 ], [ 24.9901, 30.8618 ], [ 24.9905, 30.8816 ], [ 24.9806, 30.913 ], [ 24.963, 30.937 ], [ 24.9514, 30.9651 ], [ 24.9448, 30.9991 ], [ 24.9188, 31.0662 ], [ 24.8831, 31.134 ], [ 24.8777, 31.1671 ], [ 24.8882, 31.2621 ], [ 24.8869, 31.3039 ], [ 24.8811, 31.3238 ], [ 24.8672, 31.343 ], [ 24.8588, 31.3961 ], [ 24.8611, 31.4059 ], [ 24.9389, 31.4589 ], [ 24.9636, 31.4802 ], [ 25.0625, 31.5418 ], [ 25.0712, 31.557 ], [ 25.0785, 31.5961 ], [ 25.0841, 31.6101 ], [ 25.1024, 31.6324 ], [ 25.1178, 31.644 ], [ 25.1315, 31.6666 ], [ 25.1428, 31.6673 ], [ 25.1422, 31.6559 ], [ 25.148, 31.6486 ], [ 25.1506, 31.6563 ], [ 25.1478, 31.6662 ], [ 25.1264, 31.7063 ], [ 25.1264, 31.7214 ], [ 25.1137, 31.738 ], [ 25.1115, 31.7493 ], [ 25.0967, 31.7476 ], [ 25.0919, 31.7497 ], [ 25.0932, 31.7646 ], [ 25.0757, 31.7831 ], [ 25.0753, 31.789 ], [ 25.0649, 31.7951 ], [ 25.0606, 31.8107 ], [ 25.0323, 31.8483 ], [ 25.0322, 31.8781 ], [ 25.0404, 31.9261 ], [ 25.0332, 31.9353 ], [ 25.0016, 31.9585 ], [ 24.9826, 31.9667 ], [ 24.9625, 31.9679 ], [ 24.9537, 31.9727 ], [ 24.9477, 31.9691 ], [ 24.9415, 31.9694 ], [ 24.9359, 31.9743 ], [ 24.9179, 31.9726 ], [ 24.8949, 31.9792 ], [ 24.8806, 31.9775 ], [ 24.8643, 31.9857 ], [ 24.8425, 31.9868 ], [ 24.8213, 31.9927 ], [ 24.8103, 32.0052 ], [ 24.7824, 32.0127 ], [ 24.7735, 32.0203 ], [ 24.7364, 32.0267 ], [ 24.6956, 32.0275 ], [ 24.6776, 32.0248 ], [ 24.6677, 32.0273 ], [ 24.612, 32.0051 ], [ 24.61, 32.0 ], [ 24.5991, 31.9956 ], [ 24.5619, 31.9876 ], [ 24.5471, 31.9806 ], [ 24.5302, 31.9811 ], [ 24.5052, 31.9923 ], [ 24.4603, 31.9905 ], [ 24.4499, 31.9956 ], [ 24.4389, 31.9925 ], [ 24.4276, 31.9946 ], [ 24.4246, 31.987 ], [ 24.4211, 31.993 ], [ 24.4152, 31.991 ], [ 24.4077, 31.9958 ], [ 24.3851, 31.9932 ], [ 24.3814, 31.998 ], [ 24.3665, 31.9917 ], [ 24.3614, 31.9933 ], [ 24.3574, 32.0052 ], [ 24.3476, 32.0041 ], [ 24.3303, 31.9919 ], [ 24.2891, 31.9939 ], [ 24.2897, 32.0 ], [ 24.2767, 32.0131 ], [ 24.2585, 32.0096 ], [ 24.2324, 32.0097 ], [ 24.2003, 32.0026 ], [ 24.1817, 32.0091 ], [ 24.1221, 32.0159 ], [ 24.0729, 32.0256 ], [ 24.0296, 32.0551 ], [ 23.9792, 32.0703 ], [ 23.9738, 32.0743 ], [ 23.9759, 32.0812 ], [ 23.996, 32.0805 ], [ 24.0068, 32.0753 ], [ 24.0154, 32.0767 ], [ 24.0132, 32.0815 ], [ 24.019, 32.0896 ], [ 24.0057, 32.0991 ], [ 23.9488, 32.117 ], [ 23.9344, 32.1102 ], [ 23.9337, 32.1214 ], [ 23.9289, 32.1244 ], [ 23.8735, 32.1278 ], [ 23.8619, 32.1311 ], [ 23.8469, 32.1411 ], [ 23.8407, 32.1393 ], [ 23.8307, 32.1505 ], [ 23.7934, 32.1605 ], [ 23.7802, 32.1691 ], [ 23.7672, 32.1724 ], [ 23.6693, 32.1884 ], [ 23.6583, 32.1871 ], [ 23.6474, 32.1808 ], [ 23.5772, 32.178 ], [ 23.5551, 32.1837 ], [ 23.5444, 32.1801 ], [ 23.5269, 32.1811 ], [ 23.51, 32.176 ], [ 23.5008, 32.1801 ], [ 23.4734, 32.1786 ], [ 23.4671, 32.1838 ], [ 23.4554, 32.1797 ], [ 23.4339, 32.1788 ], [ 23.3978, 32.1955 ], [ 23.3714, 32.2123 ], [ 23.3475, 32.2118 ], [ 23.3204, 32.2201 ], [ 23.3113, 32.217 ], [ 23.3095, 32.2122 ], [ 23.322, 32.1936 ], [ 23.3244, 32.1783 ], [ 23.3328, 32.1637 ], [ 23.3307, 32.1589 ], [ 23.3256, 32.1604 ], [ 23.2978, 32.2045 ], [ 23.2865, 32.2071 ], [ 23.275, 32.2042 ], [ 23.2603, 32.2102 ], [ 23.2528, 32.218 ], [ 23.2176, 32.122 ], [ 23.1688, 32.0035 ], [ 23.1185, 31.8481 ], [ 23.1053, 31.6684 ], [ 23.0714, 31.5123 ], [ 22.9854, 31.4037 ], [ 22.9566, 31.2334 ], [ 22.9556, 31.0807 ], [ 22.9687, 31.0063 ], [ 22.9689, 30.7994 ] ] ], [ [ [ 23.288, 32.225 ], [ 23.2941, 32.2287 ], [ 23.2839, 32.2393 ], [ 23.2813, 32.2366 ], [ 23.288, 32.225 ] ] ] ] } },
{ "type": "Feature", "properties": { "iso3": "LBY", "unit_id": "82343102B28706312371620", "unit_name": "Ejdabia" }, "geometry": { "type": "Polygon", "coordinates": [ [ [ 22.1125, 31.1199 ], [ 21.7928, 31.0931 ], [ 21.6553, 31.0432 ], [ 21.3975, 31.0328 ], [ 20.9341, 31.0462 ], [ 20.7381, 31.0139 ], [ 20.5938, 31.007 ], [ 20.5235, 31.0255 ], [ 20.4175, 31.0884 ], [ 20.3431, 31.175 ], [ 20.299, 31.2317 ], [ 20.1892, 31.2629 ], [ 20.1329, 31.2608 ], [ 20.1358, 31.2518 ], [ 20.1504, 31.2372 ], [ 20.168, 31.182 ], [ 20.1739, 31.172 ], [ 20.177, 31.1508 ], [ 20.1715, 31.1002 ], [ 20.16, 31.0541 ], [ 20.1348, 31.0021 ], [ 20.1278, 30.9792 ], [ 20.0974, 30.9342 ], [ 20.0896, 30.9131 ], [ 20.0736, 30.89 ], [ 20.0681, 30.8706 ], [ 20.0559, 30.8478 ], [ 20.0069, 30.787 ], [ 19.9785, 30.7622 ], [ 19.9375, 30.6976 ], [ 19.9052, 30.6552 ], [ 19.8665, 30.6172 ], [ 19.8326, 30.5925 ], [ 19.8011, 30.5611 ], [ 19.7947, 30.5476 ], [ 19.7727, 30.5252 ], [ 19.7052, 30.4796 ], [ 19.6878, 30.4623 ], [ 19.6419, 30.4365 ], [ 19.6081, 30.4117 ], [ 19.5907, 30.4105 ], [ 19.5792, 30.4203 ], [ 19.5744, 30.4201 ], [ 19.5647, 30.4111 ], [ 19.5565, 30.4111 ], [ 19.5463, 30.4065 ], [ 19.5239, 30.39 ], [ 19.3765, 30.3147 ], [ 19.2474, 30.2752 ], [ 19.1966, 30.2672 ], [ 19.122, 30.2678 ], [ 19.1086, 30.2706 ], [ 19.0751, 30.2677 ], [ 19.0259, 30.2695 ], [ 18.9535, 30.2839 ], [ 18.9289, 30.2962 ], [ 18.9107, 30.3123 ], [ 18.8841, 30.3275 ], [ 18.8004, 30.3559 ], [ 18.7932, 30.3639 ], [ 18.7914, 30.3787 ], [ 18.7265, 30.0006 ], [ 18.7137, 29.8335 ], [ 18.7332, 29.6661 ], [ 18.6993, 29.5175 ], [ 18.5799, 29.3692 ], [ 18.5136, 29.1647 ], [ 18.4999, 28.876 ], [ 18.4993, 28.5022 ], [ 18.7186, 28.4367 ], [ 19.0043, 28.3583 ], [ 19.1722, 28.3475 ], [ 19.1699, 27.0129 ], [ 20.7231, 27.0219 ], [ 21.9228, 27.0077 ], [ 23.0918, 27.0147 ], [ 24.2618, 27.0331 ], [ 25.0, 27.0497 ], [ 25.0, 28.0932 ], [ 24.9609, 28.1005 ], [ 23.0621, 28.1393 ], [ 23.0571, 30.77 ], [ 22.9738, 30.7998 ], [ 22.8888, 30.7931 ], [ 22.7899, 30.7916 ], [ 22.6893, 30.817 ], [ 22.6193, 30.8291 ], [ 22.5118, 30.8935 ], [ 22.4566, 30.9928 ], [ 22.259, 31.1452 ], [ 22.1125, 31.1199 ] ] ] } },
{ "type": "Feature", "properties": { "iso3": "LBY", "unit_id": "82343102B49946147009035", "unit_name": "Al Jabal Al Akhdar" }, "geometry": { "type": "Polygon", "coordinates": [ [ [ 21.98, 32.9012 ], [ 21.9282, 32.8942 ], [ 21.9099, 32.8983 ], [ 21.8969, 32.8968 ], [ 21.8881, 32.9003 ], [ 21.8344, 32.9048 ], [ 21.7427, 32.9336 ], [ 21.708, 32.9386 ], [ 21.6364, 32.9217 ], [ 21.6314, 32.9252 ], [ 21.5899, 32.8915 ], [ 21.5533, 32.8694 ], [ 21.5445, 32.86 ], [ 21.5367, 32.8584 ], [ 21.5262, 32.8491 ], [ 21.5184, 32.8466 ], [ 21.5083, 32.8355 ], [ 21.4884, 32.8244 ], [ 21.4825, 32.8171 ], [ 21.4707, 32.8154 ], [ 21.4639, 32.8074 ], [ 21.4405, 32.7964 ], [ 21.4268, 32.7946 ], [ 21.4045, 32.7841 ], [ 21.3953, 32.7843 ], [ 21.3873, 32.7806 ], [ 21.3946, 32.7681 ], [ 21.4581, 32.698 ], [ 21.4615, 32.6335 ], [ 21.3884, 32.5705 ], [ 21.3319, 32.5118 ], [ 21.3348, 32.4289 ], [ 21.3645, 32.327 ], [ 21.4269, 32.2291 ], [ 21.462, 32.1317 ], [ 21.4492, 32.0972 ], [ 21.4506, 32.0781 ], [ 21.4711, 32.022 ], [ 21.492, 31.991 ], [ 21.5292, 31.9539 ], [ 21.5506, 31.923 ], [ 21.5786, 31.9025 ], [ 21.6412, 31.8725 ], [ 21.6612, 31.8554 ], [ 21.6647, 31.8454 ], [ 21.6682, 31.7724 ], [ 21.6596, 31.6757 ], [ 21.6187, 31.5888 ], [ 21.615, 31.4733 ], [ 21.6544, 31.3524 ], [ 21.68, 31.3056 ], [ 21.7118, 31.2818 ], [ 21.7172, 31.0657 ], [ 21.7928, 31.0931 ], [ 22.1125, 31.1199 ], [ 21.9178, 31.2821 ], [ 21.9674, 31.4613 ], [ 21.9676, 31.6229 ], [ 21.9913, 31.6778 ], [ 22.0006, 31.7884 ], [ 21.9987, 31.89 ], [ 22.0044, 32.0513 ], [ 21.9805, 32.144 ], [ 21.9781, 32.2316 ], [ 21.9594, 32.3195 ], [ 21.9769, 32.3514 ], [ 21.9904, 32.4247 ], [ 22.0203, 32.4977 ], [ 22.0332, 32.5527 ], [ 22.0249, 32.6265 ], [ 21.9941, 32.6823 ], [ 21.9693, 32.7564 ], [ 21.9777, 32.839 ], [ 21.98, 32.9012 ] ] ] } },
{ "type": "Feature", "properties": { "iso3": "LBY", "unit_id": "82343102B90536519271103", "unit_name": "Alkufra" }, "geometry": { "type": "Polygon", "coordinates": [ [ [ 19.1699, 27.0129 ], [ 19.1681, 26.0038 ], [ 19.1859, 21.9426 ], [ 20.3507, 21.3735 ], [ 20.6688, 21.2101 ], [ 21.0821, 21.0074 ], [ 21.2214, 20.9344 ], [ 21.4803, 20.8067 ], [ 21.4986, 20.7942 ], [ 21.5049, 20.7934 ], [ 21.6521, 20.7169 ], [ 21.6809, 20.7051 ], [ 21.7668, 20.6594 ], [ 21.7828, 20.654 ], [ 21.8015, 20.6419 ], [ 21.8245, 20.6331 ], [ 21.8298, 20.6275 ], [ 21.9081, 20.5874 ], [ 21.919, 20.5845 ], [ 22.0883, 20.4938 ], [ 22.1676, 20.4559 ], [ 22.3179, 20.3754 ], [ 22.342, 20.3656 ], [ 22.4761, 20.2963 ], [ 22.5178, 20.2714 ], [ 22.5899, 20.2374 ], [ 23.1325, 19.9537 ], [ 23.2864, 19.8775 ], [ 23.935, 19.5376 ], [ 24.0, 19.508 ], [ 24.0, 20.0 ], [ 25.0, 20.0 ], [ 25.0, 27.0497 ], [ 24.2618, 27.0331 ], [ 23.0918, 27.0147 ], [ 21.9228, 27.0077 ], [ 20.7231, 27.0219 ], [ 19.1699, 27.0129 ] ] ] } },
{ "type": "Feature", "properties": { "iso3": "LBY", "unit_id": "82343102B30357983534493", "unit_name": "Sirt" }, "geometry": { "type": "Polygon", "coordinates": [ [ [ 18.7914, 30.3787 ], [ 18.7869, 30.3857 ], [ 18.7497, 30.3826 ], [ 18.7387, 30.392 ], [ 18.6733, 30.4072 ], [ 18.6635, 30.4122 ], [ 18.6503, 30.4269 ], [ 18.6479, 30.4399 ], [ 18.5684, 30.4949 ], [ 18.5692, 30.514 ], [ 18.5335, 30.5193 ], [ 18.5158, 30.5347 ], [ 18.4931, 30.5436 ], [ 18.4772, 30.5579 ], [ 18.4536, 30.5683 ], [ 18.4321, 30.5847 ], [ 18.4088, 30.5942 ], [ 18.3748, 30.6209 ], [ 18.3677, 30.637 ], [ 18.3523, 30.6417 ], [ 18.3342, 30.6527 ], [ 18.2917, 30.6861 ], [ 18.2851, 30.7034 ], [ 18.2661, 30.722 ], [ 18.2492, 30.7322 ], [ 18.2189, 30.7656 ], [ 18.2016, 30.7714 ], [ 18.18, 30.7875 ], [ 18.145, 30.7974 ], [ 18.0751, 30.8105 ], [ 18.0376, 30.8249 ], [ 17.9793, 30.8357 ], [ 17.9429, 30.8485 ], [ 17.9044, 30.857 ], [ 17.8799, 30.881 ], [ 17.8769, 30.8982 ], [ 17.8652, 30.904 ], [ 17.8654, 30.9161 ], [ 17.847, 30.9265 ], [ 17.8172, 30.925 ], [ 17.7918, 30.9343 ], [ 17.7312, 30.9408 ], [ 17.6781, 30.9556 ], [ 17.6613, 30.9656 ], [ 17.6408, 30.9696 ], [ 17.5938, 30.9903 ], [ 17.4777, 31.0223 ], [ 17.4575, 31.0307 ], [ 17.4462, 31.0443 ], [ 17.4378, 31.0496 ], [ 17.401, 31.0644 ], [ 17.3921, 31.0707 ], [ 17.3901, 31.0811 ], [ 17.3022, 31.0866 ], [ 17.294, 31.0897 ], [ 17.2858, 31.0979 ], [ 17.2511, 31.1063 ], [ 17.2012, 31.1134 ], [ 17.1839, 31.1226 ], [ 17.1451, 31.1281 ], [ 17.0173, 31.1655 ], [ 17.0, 31.1674 ], [ 16.9941, 31.1712 ], [ 16.8446, 31.1939 ], [ 16.7517, 31.2207 ], [ 16.7352, 31.2173 ], [ 16.695, 31.2235 ], [ 16.6369, 31.2206 ], [ 16.6161, 31.2157 ], [ 16.5557, 31.2186 ], [ 16.5027, 31.2164 ], [ 16.4515, 31.2218 ], [ 16.3638, 31.2234 ], [ 16.2061, 31.2455 ], [ 16.0521, 31.2769 ], [ 15.9425, 31.3132 ], [ 15.904, 31.3346 ], [ 15.8168, 31.3654 ], [ 15.7747, 31.3914 ], [ 15.7487, 31.401 ], [ 15.7118, 31.4258 ], [ 15.6799, 31.4362 ], [ 15.5836, 31.3983 ], [ 15.5751, 31.3713 ], [ 15.5698, 31.3657 ], [ 15.5227, 31.3746 ], [ 15.4429, 31.362 ], [ 15.3188, 31.3655 ], [ 15.2694, 31.3279 ], [ 15.0822, 31.3106 ], [ 15.0912, 31.2793 ], [ 15.0823, 31.246 ], [ 15.0594, 31.2191 ], [ 15.0084, 31.2026 ], [ 14.9835, 31.1639 ], [ 14.9712, 31.0975 ], [ 14.946, 31.0211 ], [ 14.8836, 30.9711 ], [ 14.8088, 30.9464 ], [ 14.7184, 30.9092 ], [ 14.6535, 30.859 ], [ 14.6002, 30.8 ], [ 14.5945, 30.7221 ], [ 14.5981, 30.626 ], [ 14.5943, 30.56 ], [ 14.5628, 30.4202 ], [ 14.6045, 30.3977 ], [ 14.6472, 30.3239 ], [ 14.7153, 30.1078 ], [ 14.7413, 30.0701 ], [ 14.6544, 29.9708 ], [ 14.8999, 29.8393 ], [ 14.9759, 29.7753 ], [ 15.0519, 29.702 ], [ 15.2025, 29.6575 ], [ 15.2992, 29.6402 ], [ 15.3852, 29.6133 ], [ 15.503, 29.6147 ], [ 15.5675, 29.5876 ], [ 15.5999, 29.56 ], [ 15.665, 29.4677 ], [ 15.7405, 29.394 ], [ 15.8797, 29.3768 ], [ 15.9435, 29.4239 ], [ 16.0395, 29.4713 ], [ 16.1357, 29.5 ], [ 16.3714, 29.4367 ], [ 16.4186, 29.4089 ], [ 16.4357, 29.4185 ], [ 16.5534, 29.3913 ], [ 16.7459, 29.4016 ], [ 16.8528, 29.4394 ], [ 16.9812, 29.4306 ], [ 17.0881, 29.3472 ], [ 17.2378, 29.3104 ], [ 17.3339, 29.2826 ], [ 17.4303, 29.3572 ], [ 17.5053, 29.3946 ], [ 17.5802, 29.3946 ], [ 17.6654, 29.3295 ], [ 17.6864, 29.255 ], [ 17.7287, 29.1619 ], [ 17.8137, 29.0781 ], [ 17.8985, 28.9848 ], [ 17.9404, 28.873 ], [ 17.9821, 28.7331 ], [ 18.0878, 28.6397 ], [ 18.2255, 28.5554 ], [ 18.3846, 28.5175 ], [ 18.4993, 28.4847 ], [ 18.4999, 28.876 ], [ 18.5136, 29.1647 ], [ 18.5799, 29.3692 ], [ 18.6993, 29.5175 ], [ 18.7332, 29.6661 ], [ 18.7137, 29.8335 ], [ 18.7265, 30.0006 ], [ 18.7914, 30.3787 ] ] ] } },
{ "type": "Feature", "properties": { "iso3": "LBY", "unit_id": "82343102B67933240026091", "unit_name": "Nalut" }, "geometry": { "type": "Polygon", "coordinates": [ [ [ 11.781, 32.2787 ], [ 11.6063, 32.268 ], [ 11.5426, 32.2713 ], [ 11.475, 32.3121 ], [ 11.4254, 32.354 ], [ 11.3664, 32.3224 ], [ 11.2042, 32.2767 ], [ 11.1534, 32.2582 ], [ 11.1387, 32.2485 ], [ 11.1012, 32.2375 ], [ 11.0887, 32.2293 ], [ 11.0745, 32.2284 ], [ 11.0344, 32.2021 ], [ 10.9821, 32.1867 ], [ 10.858, 32.1104 ], [ 10.8501, 32.0828 ], [ 10.7947, 32.0 ], [ 10.7678, 31.9955 ], [ 10.7309, 31.9793 ], [ 10.718, 31.9781 ], [ 10.6707, 31.9875 ], [ 10.6423, 31.9728 ], [ 10.6391, 31.9679 ], [ 10.6406, 31.9455 ], [ 10.6249, 31.9255 ], [ 10.6255, 31.9191 ], [ 10.644, 31.8935 ], [ 10.6443, 31.8839 ], [ 10.6353, 31.8651 ], [ 10.582, 31.8241 ], [ 10.5738, 31.8117 ], [ 10.562, 31.7731 ], [ 10.5418, 31.7545 ], [ 10.5298, 31.7473 ], [ 10.4587, 31.7283 ], [ 10.441, 31.7273 ], [ 10.3938, 31.7405 ], [ 10.374, 31.7381 ], [ 10.313, 31.7056 ], [ 10.2912, 31.6901 ], [ 10.2794, 31.6673 ], [ 10.2543, 31.6356 ], [ 10.2222, 31.5867 ], [ 10.1498, 31.5048 ], [ 10.1375, 31.4857 ], [ 10.1375, 31.4628 ], [ 10.1443, 31.4498 ], [ 10.1466, 31.4386 ], [ 10.1449, 31.4225 ], [ 10.1539, 31.3889 ], [ 10.1946, 31.3047 ], [ 10.2169, 31.2473 ], [ 10.2422, 31.1987 ], [ 10.2621, 31.1331 ], [ 10.2848, 31.0966 ], [ 10.2876, 31.0826 ], [ 10.2755, 31.0456 ], [ 10.2752, 31.0268 ], [ 10.2868, 30.9877 ], [ 10.2881, 30.9652 ], [ 10.2972, 30.9293 ], [ 10.3078, 30.909 ], [ 10.3062, 30.9039 ], [ 10.2954, 30.894 ], [ 10.2967, 30.8791 ], [ 10.2778, 30.8246 ], [ 10.226, 30.732 ], [ 10.2132, 30.7131 ], [ 10.1813, 30.6936 ], [ 10.1745, 30.6865 ], [ 10.1524, 30.6505 ], [ 10.1145, 30.6091 ], [ 10.1002, 30.5861 ], [ 10.0199, 30.5055 ], [ 10.007, 30.4754 ], [ 9.9774, 30.434 ], [ 9.9622, 30.4235 ], [ 9.9473, 30.3936 ], [ 9.9179, 30.3749 ], [ 9.8889, 30.3492 ], [ 9.8258, 30.3439 ], [ 9.7748, 30.3232 ], [ 9.7443, 30.316 ], [ 9.7071, 30.2924 ], [ 9.6759, 30.2822 ], [ 9.6161, 30.2503 ], [ 9.5917, 30.2422 ], [ 9.5764, 30.2405 ], [ 9.5516, 30.2464 ], [ 9.5372, 30.2344 ], [ 9.39, 30.1657 ], [ 9.419, 30.0425 ], [ 9.5372, 29.905 ], [ 9.7828, 29.4268 ], [ 9.8754, 29.0259 ], [ 9.8969, 28.8408 ], [ 10.0316, 28.8521 ], [ 10.3823, 28.8638 ], [ 10.8849, 28.8893 ], [ 11.9467, 28.9652 ], [ 11.9381, 30.9893 ], [ 11.9324, 31.0482 ], [ 11.8954, 31.0447 ], [ 11.8292, 31.0552 ], [ 11.8234, 31.0806 ], [ 11.7309, 31.2073 ], [ 11.7384, 31.2367 ], [ 11.7372, 31.301 ], [ 11.7582, 31.3514 ], [ 11.7397, 31.4856 ], [ 11.725, 31.5556 ], [ 11.7388, 31.6255 ], [ 11.7593, 31.6803 ], [ 11.7562, 31.7112 ], [ 11.7665, 31.7386 ], [ 11.7386, 31.7832 ], [ 11.7297, 31.8203 ], [ 11.728, 31.8624 ], [ 11.746, 31.9171 ], [ 11.7221, 32.0242 ], [ 11.71, 32.0922 ], [ 11.7055, 32.1363 ], [ 11.7288, 32.1891 ], [ 11.781, 32.2787 ] ] ] } },
{ "type": "Feature", "properties": { "iso3": "LBY", "unit_id": "82343102B29105448696904", "unit_name": "Almargeb" }, "geometry": { "type": "Polygon", "coordinates": [ [ [ 14.4462, 32.53 ], [ 14.4441, 32.5423 ], [ 14.4366, 32.5453 ], [ 14.4339, 32.5522 ], [ 14.3871, 32.5747 ], [ 14.3426, 32.6068 ], [ 14.3389, 32.6172 ], [ 14.3303, 32.6274 ], [ 14.3386, 32.6389 ], [ 14.3301, 32.6275 ], [ 14.3175, 32.6309 ], [ 14.3021, 32.6365 ], [ 14.3014, 32.6406 ], [ 14.2934, 32.6403 ], [ 14.2797, 32.6454 ], [ 14.2735, 32.6505 ], [ 14.2718, 32.6577 ], [ 14.253, 32.6637 ], [ 14.248, 32.6718 ], [ 14.2574, 32.6831 ], [ 14.2632, 32.6817 ], [ 14.2447, 32.6929 ], [ 14.2348, 32.6919 ], [ 14.21, 32.6975 ], [ 14.1707, 32.7127 ], [ 14.1636, 32.7102 ], [ 14.1465, 32.7152 ], [ 14.1278, 32.7142 ], [ 14.1203, 32.7182 ], [ 14.095, 32.7165 ], [ 14.0859, 32.7214 ], [ 14.0739, 32.721 ], [ 14.0719, 32.724 ], [ 14.0524, 32.7239 ], [ 14.009, 32.731 ], [ 13.9887, 32.7467 ], [ 13.9548, 32.7608 ], [ 13.943, 32.7732 ], [ 13.8832, 32.7848 ], [ 13.8694, 32.7821 ], [ 13.8432, 32.7852 ], [ 13.8087, 32.7952 ], [ 13.8033, 32.8025 ], [ 13.7632, 32.797 ], [ 13.7546, 32.7985 ], [ 13.744, 32.7926 ], [ 13.7352, 32.7917 ], [ 13.7292, 32.7956 ], [ 13.7149, 32.796 ], [ 13.7123, 32.7935 ], [ 13.7043, 32.7946 ], [ 13.703, 32.7916 ], [ 13.6527, 32.7896 ], [ 13.5983, 32.7927 ], [ 13.5943, 32.789 ], [ 13.5977, 32.7871 ], [ 13.5945, 32.7828 ], [ 13.5872, 32.7822 ], [ 13.5825, 32.7726 ], [ 13.5767, 32.7758 ], [ 13.577, 32.7726 ], [ 13.5708, 32.7681 ], [ 13.573, 32.7597 ], [ 13.5799, 32.7571 ], [ 13.5815, 32.7521 ], [ 13.5626, 32.747 ], [ 13.5559, 32.7418 ], [ 13.5562, 32.7375 ], [ 13.5365, 32.7233 ], [ 13.5393, 32.7199 ], [ 13.5326, 32.7136 ], [ 13.53, 32.7043 ], [ 13.5105, 32.6861 ], [ 13.4794, 32.6669 ], [ 13.4692, 32.6564 ], [ 13.4197, 32.6327 ], [ 13.3944, 32.6253 ], [ 13.3824, 32.6349 ], [ 13.3775, 32.6348 ], [ 13.3772, 32.6393 ], [ 13.3704, 32.6424 ], [ 13.3736, 32.6478 ], [ 13.3586, 32.6617 ], [ 13.3648, 32.6487 ], [ 13.3675, 32.6315 ], [ 13.3652, 32.5992 ], [ 13.3709, 32.5541 ], [ 13.3665, 32.529 ], [ 13.3735, 32.5061 ], [ 13.3725, 32.4914 ], [ 13.357, 32.4472 ], [ 13.3681, 32.4428 ], [ 13.3601, 32.4245 ], [ 13.3703, 32.4089 ], [ 13.3701, 32.4009 ], [ 13.3538, 32.4139 ], [ 13.3381, 32.4204 ], [ 13.3203, 32.4201 ], [ 13.2979, 32.4113 ], [ 13.2962, 32.4048 ], [ 13.3003, 32.3908 ], [ 13.2823, 32.3537 ], [ 13.2759, 32.318 ], [ 13.2839, 32.2874 ], [ 13.2889, 32.2849 ], [ 13.2907, 32.2792 ], [ 13.3033, 32.2735 ], [ 13.3225, 32.2577 ], [ 13.33, 32.2232 ], [ 13.3431, 32.204 ], [ 13.3508, 32.2038 ], [ 13.3985, 32.1747 ], [ 13.4056, 32.1404 ], [ 13.4052, 32.1294 ], [ 13.4262, 32.1257 ], [ 13.4583, 32.1104 ], [ 13.4567, 32.0971 ], [ 13.4409, 32.0917 ], [ 13.431, 32.0846 ], [ 13.4408, 32.079 ], [ 13.4583, 32.0763 ], [ 13.4672, 32.0601 ], [ 13.4667, 32.0547 ], [ 13.4846, 32.0413 ], [ 13.5126, 32.032 ], [ 13.5678, 32.0257 ], [ 13.5835, 32.0117 ], [ 13.6157, 32.0293 ], [ 13.6354, 32.0465 ], [ 13.7023, 32.0504 ], [ 13.7239, 32.0612 ], [ 13.7591, 32.0254 ], [ 13.7808, 32.01 ], [ 13.8408, 32.0264 ], [ 13.849, 32.0313 ], [ 13.8628, 32.0286 ], [ 13.8924, 32.0397 ], [ 13.9037, 32.0484 ], [ 13.9297, 32.0523 ], [ 13.962, 32.0626 ], [ 14.0097, 32.065 ], [ 14.0198, 32.0682 ], [ 14.0585, 32.0661 ], [ 14.076, 32.0699 ], [ 14.0969, 32.0809 ], [ 14.1122, 32.0844 ], [ 14.1365, 32.0804 ], [ 14.1554, 32.0861 ], [ 14.1841, 32.087 ], [ 14.1926, 32.0914 ], [ 14.213, 32.08 ], [ 14.2222, 32.11 ], [ 14.252, 32.178 ], [ 14.254, 32.2541 ], [ 14.2665, 32.2967 ], [ 14.2754, 32.3126 ], [ 14.2825, 32.3121 ], [ 14.2978, 32.3262 ], [ 14.293, 32.342 ], [ 14.3244, 32.3829 ], [ 14.331, 32.4006 ], [ 14.384, 32.4424 ], [ 14.3966, 32.4428 ], [ 14.4046, 32.4488 ], [ 14.4191, 32.4532 ], [ 14.4211, 32.4619 ], [ 14.4261, 32.4647 ], [ 14.4322, 32.4801 ], [ 14.4473, 32.4886 ], [ 14.4461, 32.5 ], [ 14.4408, 32.5027 ], [ 14.4449, 32.507 ], [ 14.4427, 32.5139 ], [ 14.4462, 32.53 ] ] ] } },
{ "type": "Feature", "properties": { "iso3": "LBY", "unit_id": "82343102B66656500716830", "unit_name": "Tripoli" }, "geometry": { "type": "Polygon", "coordinates": [ [ [ 13.5983, 32.7927 ], [ 13.5051, 32.8302 ], [ 13.4767, 32.8467 ], [ 13.4508, 32.8533 ], [ 13.4171, 32.8686 ], [ 13.405, 32.8769 ], [ 13.3886, 32.8966 ], [ 13.3297, 32.8965 ], [ 13.2892, 32.9098 ], [ 13.2525, 32.9087 ], [ 13.2364, 32.9103 ], [ 13.236, 32.9129 ], [ 13.2318, 32.9083 ], [ 13.2236, 32.9068 ], [ 13.2125, 32.9212 ], [ 13.1721, 32.9023 ], [ 13.1689, 32.897 ], [ 13.164, 32.8958 ], [ 13.1596, 32.8861 ], [ 13.149, 32.8805 ], [ 13.1357, 32.8824 ], [ 13.1245, 32.876 ], [ 13.117, 32.8784 ], [ 13.0887, 32.8629 ], [ 13.0738, 32.8614 ], [ 13.0655, 32.8571 ], [ 13.0686, 32.8488 ], [ 13.0722, 32.851 ], [ 13.0762, 32.8388 ], [ 13.0817, 32.8403 ], [ 13.0819, 32.7892 ], [ 13.1102, 32.7897 ], [ 13.1077, 32.779 ], [ 13.1376, 32.772 ], [ 13.1457, 32.7401 ], [ 13.1458, 32.7122 ], [ 13.1703, 32.7277 ], [ 13.1933, 32.7268 ], [ 13.1924, 32.7221 ], [ 13.1972, 32.7153 ], [ 13.201, 32.7257 ], [ 13.2013, 32.7474 ], [ 13.1979, 32.7583 ], [ 13.2101, 32.7769 ], [ 13.2513, 32.7758 ], [ 13.2503, 32.7593 ], [ 13.2982, 32.7591 ], [ 13.3104, 32.7321 ], [ 13.3149, 32.7089 ], [ 13.3262, 32.6941 ], [ 13.3256, 32.691 ], [ 13.3301, 32.6894 ], [ 13.334, 32.6794 ], [ 13.3451, 32.6776 ], [ 13.3494, 32.6705 ], [ 13.3597, 32.667 ], [ 13.3683, 32.6501 ], [ 13.371, 32.6512 ], [ 13.3736, 32.6478 ], [ 13.3704, 32.6424 ], [ 13.3772, 32.6393 ], [ 13.3775, 32.6348 ], [ 13.3824, 32.6349 ], [ 13.3944, 32.6253 ], [ 13.4197, 32.6327 ], [ 13.4692, 32.6564 ], [ 13.4794, 32.6669 ], [ 13.5105, 32.6861 ], [ 13.53, 32.7043 ], [ 13.5326, 32.7136 ], [ 13.5393, 32.7199 ], [ 13.5365, 32.7233 ], [ 13.5562, 32.7375 ], [ 13.5559, 32.7418 ], [ 13.5626, 32.747 ], [ 13.5815, 32.7521 ], [ 13.5799, 32.7571 ], [ 13.573, 32.7597 ], [ 13.5708, 32.7681 ], [ 13.577, 32.7726 ], [ 13.5767, 32.7758 ], [ 13.5825, 32.7726 ], [ 13.5872, 32.7822 ], [ 13.5945, 32.7828 ], [ 13.5977, 32.7871 ], [ 13.5943, 32.789 ], [ 13.5983, 32.7927 ] ] ] } },
{ "type": "Feature", "properties": { "iso3": "LBY", "unit_id": "82343102B5744065148838", "unit_name": "Aljfara" }, "geometry": { "type": "Polygon", "coordinates": [ [ [ 13.361, 32.662 ], [ 13.3597, 32.667 ], [ 13.3494, 32.6705 ], [ 13.3451, 32.6776 ], [ 13.334, 32.6794 ], [ 13.3301, 32.6894 ], [ 13.3256, 32.691 ], [ 13.3262, 32.6941 ], [ 13.3149, 32.7089 ], [ 13.3104, 32.7321 ], [ 13.2982, 32.7591 ], [ 13.2503, 32.7593 ], [ 13.2513, 32.7758 ], [ 13.2101, 32.7769 ], [ 13.1979, 32.7583 ], [ 13.2013, 32.7474 ], [ 13.201, 32.7257 ], [ 13.1972, 32.7153 ], [ 13.1924, 32.7221 ], [ 13.1933, 32.7268 ], [ 13.1703, 32.7277 ], [ 13.1458, 32.7122 ], [ 13.1457, 32.7401 ], [ 13.1376, 32.772 ], [ 13.1077, 32.779 ], [ 13.1102, 32.7897 ], [ 13.0819, 32.7892 ], [ 13.0817, 32.8403 ], [ 13.0762, 32.8388 ], [ 13.0722, 32.851 ], [ 13.0686, 32.8488 ], [ 13.0655, 32.8571 ], [ 12.9919, 32.8322 ], [ 12.9584, 32.8241 ], [ 12.9537, 32.8255 ], [ 12.9532, 32.8223 ], [ 12.8878, 32.8087 ], [ 12.828, 32.8004 ], [ 12.828, 32.79 ], [ 12.8132, 32.7855 ], [ 12.8141, 32.7533 ], [ 12.8018, 32.741 ], [ 12.8351, 32.6957 ], [ 12.8215, 32.6885 ], [ 12.8037, 32.6849 ], [ 12.8034, 32.5962 ], [ 12.8004, 32.5912 ], [ 12.7856, 32.5876 ], [ 12.7679, 32.5538 ], [ 12.7773, 32.5272 ], [ 12.7779, 32.4998 ], [ 12.7974, 32.4895 ], [ 12.792, 32.4133 ], [ 12.8799, 32.4039 ], [ 12.959, 32.4057 ], [ 12.9624, 32.3438 ], [ 12.9673, 32.3227 ], [ 12.9836, 32.2884 ], [ 12.9959, 32.2805 ], [ 13.0353, 32.2795 ], [ 13.1223, 32.2595 ], [ 13.1632, 32.2612 ], [ 13.2133, 32.2702 ], [ 13.2823, 32.2907 ], [ 13.2759, 32.318 ], [ 13.2773, 32.3354 ], [ 13.2823, 32.3537 ], [ 13.3003, 32.3908 ], [ 13.2962, 32.4048 ], [ 13.2979, 32.4113 ], [ 13.3203, 32.4201 ], [ 13.3381, 32.4204 ], [ 13.3538, 32.4139 ], [ 13.3701, 32.4009 ], [ 13.3703, 32.4089 ], [ 13.3601, 32.4245 ], [ 13.3681, 32.4428 ], [ 13.357, 32.4472 ], [ 13.3725, 32.4914 ], [ 13.3735, 32.5061 ], [ 13.3665, 32.529 ], [ 13.3709, 32.5541 ], [ 13.3652, 32.5992 ], [ 13.3675, 32.6315 ], [ 13.3648, 32.6487 ], [ 13.3586, 32.6617 ], [ 13.361, 32.662 ] ] ] } },
{ "type": "Feature", "properties": { "iso3": "LBY", "unit_id": "82343102B62733049581531", "unit_name": "Azzawya" }, "geometry": { "type": "Polygon", "coordinates": [ [ [ 12.828, 32.8004 ], [ 12.7395, 32.793 ], [ 12.6613, 32.7917 ], [ 12.5586, 32.796 ], [ 12.5544, 32.7991 ], [ 12.5469, 32.7622 ], [ 12.5478, 32.7534 ], [ 12.5235, 32.7512 ], [ 12.5185, 32.7437 ], [ 12.5215, 32.7318 ], [ 12.4864, 32.7327 ], [ 12.4833, 32.7226 ], [ 12.4894, 32.7134 ], [ 12.489, 32.7064 ], [ 12.4867, 32.7011 ], [ 12.4741, 32.6997 ], [ 12.4677, 32.6884 ], [ 12.4626, 32.6598 ], [ 12.45, 32.6323 ], [ 12.3687, 32.5783 ], [ 12.3497, 32.5621 ], [ 12.3365, 32.5396 ], [ 12.3171, 32.5263 ], [ 12.3106, 32.5158 ], [ 12.2777, 32.4954 ], [ 12.2739, 32.4888 ], [ 12.2566, 32.4751 ], [ 12.2299, 32.4641 ], [ 12.2073, 32.4487 ], [ 12.086, 32.3458 ], [ 12.1326, 32.285 ], [ 12.1602, 32.2679 ], [ 12.1845, 32.286 ], [ 12.2524, 32.2969 ], [ 12.3829, 32.311 ], [ 12.3903, 32.274 ], [ 12.6045, 32.1921 ], [ 12.7684, 32.22 ], [ 12.7964, 32.313 ], [ 12.792, 32.4133 ], [ 12.7974, 32.4895 ], [ 12.7779, 32.4998 ], [ 12.7773, 32.5272 ], [ 12.7679, 32.5538 ], [ 12.7856, 32.5876 ], [ 12.8004, 32.5912 ], [ 12.8034, 32.5962 ], [ 12.8037, 32.6849 ], [ 12.8215, 32.6885 ], [ 12.8351, 32.6957 ], [ 12.8018, 32.741 ], [ 12.8141, 32.7533 ], [ 12.8132, 32.7855 ], [ 12.828, 32.79 ], [ 12.828, 32.8004 ] ] ] } },
{ "type": "Feature", "properties": { "iso3": "LBY", "unit_id": "82343102B63950538382343", "unit_name": "Misrata" }, "geometry": { "type": "Polygon", "coordinates": [ [ [ 15.6799, 31.4362 ], [ 15.6535, 31.4543 ], [ 15.6138, 31.4966 ], [ 15.5672, 31.5631 ], [ 15.5269, 31.6051 ], [ 15.4816, 31.6804 ], [ 15.446, 31.7619 ], [ 15.4007, 31.8468 ], [ 15.3748, 31.913 ], [ 15.3522, 31.9996 ], [ 15.3564, 32.0103 ], [ 15.3559, 32.021 ], [ 15.3482, 32.076 ], [ 15.3551, 32.0916 ], [ 15.3528, 32.1029 ], [ 15.3597, 32.1343 ], [ 15.3556, 32.1678 ], [ 15.317, 32.2134 ], [ 15.2977, 32.2617 ], [ 15.298, 32.2687 ], [ 15.2713, 32.3135 ], [ 15.2712, 32.3189 ], [ 15.2415, 32.3372 ], [ 15.2558, 32.3471 ], [ 15.2532, 32.3496 ], [ 15.2419, 32.3496 ], [ 15.2344, 32.3437 ], [ 15.23, 32.3466 ], [ 15.2217, 32.3558 ], [ 15.2254, 32.3596 ], [ 15.2274, 32.3732 ], [ 15.2139, 32.3741 ], [ 15.1911, 32.3854 ], [ 15.0974, 32.4112 ], [ 15.036, 32.4108 ], [ 15.0092, 32.416 ], [ 15.0051, 32.4192 ], [ 14.9992, 32.4158 ], [ 14.9658, 32.4191 ], [ 14.9526, 32.4281 ], [ 14.896, 32.44 ], [ 14.8756, 32.4394 ], [ 14.8627, 32.4424 ], [ 14.8413, 32.4371 ], [ 14.8145, 32.4396 ], [ 14.7903, 32.4368 ], [ 14.7572, 32.4381 ], [ 14.6994, 32.4546 ], [ 14.6542, 32.4811 ], [ 14.6156, 32.491 ], [ 14.6058, 32.4968 ], [ 14.5812, 32.4966 ], [ 14.5728, 32.5009 ], [ 14.5589, 32.4984 ], [ 14.5429, 32.5033 ], [ 14.4935, 32.5078 ], [ 14.4691, 32.5153 ], [ 14.4462, 32.53 ], [ 14.4427, 32.5139 ], [ 14.4449, 32.507 ], [ 14.4408, 32.5027 ], [ 14.4461, 32.5 ], [ 14.4473, 32.4886 ], [ 14.4322, 32.4801 ], [ 14.4261, 32.4647 ], [ 14.4211, 32.4619 ], [ 14.4191, 32.4532 ], [ 14.4046, 32.4488 ], [ 14.3966, 32.4428 ], [ 14.384, 32.4424 ], [ 14.331, 32.4006 ], [ 14.3244, 32.3829 ], [ 14.293, 32.342 ], [ 14.2978, 32.3262 ], [ 14.2825, 32.3121 ], [ 14.2754, 32.3126 ], [ 14.2665, 32.2967 ], [ 14.254, 32.2541 ], [ 14.252, 32.178 ], [ 14.2222, 32.11 ], [ 14.213, 32.08 ], [ 14.1926, 32.0914 ], [ 14.1841, 32.087 ], [ 14.1554, 32.0861 ], [ 14.1365, 32.0804 ], [ 14.1122, 32.0844 ], [ 14.0969, 32.0809 ], [ 14.076, 32.0699 ], [ 14.0585, 32.0661 ], [ 14.0198, 32.0682 ], [ 14.0097, 32.065 ], [ 13.962, 32.0626 ], [ 13.9297, 32.0523 ], [ 13.9037, 32.0484 ], [ 13.8924, 32.0397 ], [ 13.8628, 32.0286 ], [ 13.849, 32.0313 ], [ 13.8408, 32.0264 ], [ 13.7808, 32.01 ], [ 13.7591, 32.0254 ], [ 13.7239, 32.0612 ], [ 13.7023, 32.0504 ], [ 13.6354, 32.0465 ], [ 13.6157, 32.0293 ], [ 13.5835, 32.0117 ], [ 13.5678, 32.0257 ], [ 13.5126, 32.032 ], [ 13.4758, 32.0456 ], [ 13.4667, 32.0547 ], [ 13.4672, 32.0601 ], [ 13.4583, 32.0763 ], [ 13.4408, 32.079 ], [ 13.431, 32.0846 ], [ 13.4409, 32.0917 ], [ 13.4567, 32.0971 ], [ 13.4583, 32.1104 ], [ 13.4262, 32.1257 ], [ 13.4052, 32.1294 ], [ 13.4015, 32.1642 ], [ 13.3939, 32.165 ], [ 13.3813, 32.1598 ], [ 13.3722, 32.1455 ], [ 13.3633, 32.1442 ], [ 13.3505, 32.1289 ], [ 13.3329, 32.1183 ], [ 13.326, 32.1004 ], [ 13.3288, 32.0965 ], [ 13.3278, 32.0843 ], [ 13.3405, 32.0526 ], [ 13.3312, 32.0468 ], [ 13.3308, 32.0417 ], [ 13.3259, 32.037 ], [ 13.3058, 32.0309 ], [ 13.3151, 31.9393 ], [ 13.3231, 31.8117 ], [ 13.3201, 31.7532 ], [ 13.3223, 31.7266 ], [ 13.3401, 31.7008 ], [ 13.3709, 31.6738 ], [ 13.4196, 31.5563 ], [ 13.4285, 31.5103 ], [ 13.5869, 31.3524 ], [ 13.6104, 31.3235 ], [ 13.6268, 31.2859 ], [ 13.6596, 31.0637 ], [ 13.6897, 30.9313 ], [ 13.7278, 30.8281 ], [ 13.7604, 30.7659 ], [ 14.5055, 30.3913 ], [ 14.552, 30.3917 ], [ 14.5628, 30.4202 ], [ 14.5943, 30.56 ], [ 14.5981, 30.626 ], [ 14.5945, 30.7221 ], [ 14.6002, 30.8 ], [ 14.6535, 30.859 ], [ 14.7184, 30.9092 ], [ 14.8088, 30.9464 ], [ 14.8836, 30.9711 ], [ 14.946, 31.0211 ], [ 14.9712, 31.0975 ], [ 14.9835, 31.1639 ], [ 15.0084, 31.2026 ], [ 15.0594, 31.2191 ], [ 15.0823, 31.246 ], [ 15.0912, 31.2793 ], [ 15.0822, 31.3106 ], [ 15.2694, 31.3279 ], [ 15.3188, 31.3655 ], [ 15.4429, 31.362 ], [ 15.5227, 31.3746 ], [ 15.5698, 31.3657 ], [ 15.5751, 31.3713 ], [ 15.5836, 31.3983 ], [ 15.6799, 31.4362 ] ] ] } },
{ "type": "Feature", "properties": { "iso3": "LBY", "unit_id": "82343102B25620682360878", "unit_name": "Zwara" }, "geometry": { "type": "Polygon", "coordinates": [ [ [ 11.6063, 32.268 ], [ 11.9884, 32.2898 ], [ 12.0051, 32.3276 ], [ 12.086, 32.3458 ], [ 12.2073, 32.4487 ], [ 12.2299, 32.4641 ], [ 12.2566, 32.4751 ], [ 12.2739, 32.4888 ], [ 12.2777, 32.4954 ], [ 12.3106, 32.5158 ], [ 12.3171, 32.5263 ], [ 12.3365, 32.5396 ], [ 12.3497, 32.5621 ], [ 12.3687, 32.5783 ], [ 12.45, 32.6323 ], [ 12.4626, 32.6598 ], [ 12.4677, 32.6884 ], [ 12.4741, 32.6997 ], [ 12.4867, 32.7011 ], [ 12.489, 32.7064 ], [ 12.4894, 32.7134 ], [ 12.4833, 32.7226 ], [ 12.4864, 32.7327 ], [ 12.5215, 32.7318 ], [ 12.5185, 32.7437 ], [ 12.5235, 32.7512 ], [ 12.5478, 32.7534 ], [ 12.5469, 32.7622 ], [ 12.5544, 32.7991 ], [ 12.4795, 32.8078 ], [ 12.4685, 32.8131 ], [ 12.4604, 32.8108 ], [ 12.4479, 32.8158 ], [ 12.4432, 32.814 ], [ 12.4208, 32.8183 ], [ 12.4152, 32.8153 ], [ 12.3979, 32.8161 ], [ 12.37, 32.8197 ], [ 12.3022, 32.8358 ], [ 12.2637, 32.8484 ], [ 12.2452, 32.8585 ], [ 12.2417, 32.8637 ], [ 12.2359, 32.8637 ], [ 12.2449, 32.8819 ], [ 12.2357, 32.8638 ], [ 12.2082, 32.8716 ], [ 12.1922, 32.8881 ], [ 12.1504, 32.9017 ], [ 12.1243, 32.9148 ], [ 12.1208, 32.9195 ], [ 12.126, 32.9232 ], [ 12.111, 32.9267 ], [ 12.1041, 32.9325 ], [ 12.0981, 32.9327 ], [ 12.0609, 32.9509 ], [ 12.0241, 32.9786 ], [ 11.9752, 33.0036 ], [ 11.9101, 33.0446 ], [ 11.8821, 33.058 ], [ 11.8559, 33.0682 ], [ 11.8165, 33.0773 ], [ 11.7786, 33.0951 ], [ 11.7188, 33.114 ], [ 11.6896, 33.1267 ], [ 11.6893, 33.1224 ], [ 11.6932, 33.1239 ], [ 11.7059, 33.1181 ], [ 11.6961, 33.1193 ], [ 11.7075, 33.1133 ], [ 11.7157, 33.1045 ], [ 11.7279, 33.1076 ], [ 11.7575, 33.1012 ], [ 11.7643, 33.0936 ], [ 11.7694, 33.0965 ], [ 11.7696, 33.0933 ], [ 11.7745, 33.0939 ], [ 11.7801, 33.0885 ], [ 11.7859, 33.0906 ], [ 11.8049, 33.0814 ], [ 11.8045, 33.075 ], [ 11.8099, 33.0716 ], [ 11.7413, 33.0784 ], [ 11.7373, 33.0814 ], [ 11.7312, 33.0793 ], [ 11.651, 33.0947 ], [ 11.6392, 33.1021 ], [ 11.6361, 33.1116 ], [ 11.6162, 33.1127 ], [ 11.6104, 33.1164 ], [ 11.6082, 33.1263 ], [ 11.5644, 33.1652 ], [ 11.5509, 33.1145 ], [ 11.532, 33.0861 ], [ 11.5289, 33.0744 ], [ 11.5213, 33.0064 ], [ 11.5283, 33.0018 ], [ 11.5298, 32.9896 ], [ 11.5169, 32.9769 ], [ 11.4892, 32.8928 ], [ 11.5077, 32.8432 ], [ 11.4958, 32.8053 ], [ 11.4888, 32.7659 ], [ 11.4986, 32.7189 ], [ 11.4888, 32.6677 ], [ 11.4947, 32.6431 ], [ 11.5085, 32.6134 ], [ 11.542, 32.5912 ], [ 11.5647, 32.5648 ], [ 11.577, 32.5563 ], [ 11.5983, 32.5236 ], [ 11.5273, 32.4028 ], [ 11.4634, 32.3608 ], [ 11.4498, 32.3561 ], [ 11.4254, 32.354 ], [ 11.475, 32.3121 ], [ 11.5426, 32.2713 ], [ 11.6063, 32.268 ] ] ] } },
{ "type": "Feature", "properties": { "iso3": "LBY", "unit_id": "82343102B61935071036088", "unit_name": "Al Jabal Al Gharbi" }, "geometry": { "type": "Polygon", "coordinates": [ [ [ 14.5628, 30.4202 ], [ 14.552, 30.3917 ], [ 14.5055, 30.3913 ], [ 13.7604, 30.7659 ], [ 13.7278, 30.8281 ], [ 13.6897, 30.9313 ], [ 13.6596, 31.0637 ], [ 13.6268, 31.2859 ], [ 13.6104, 31.3235 ], [ 13.5869, 31.3524 ], [ 13.4285, 31.5103 ], [ 13.4196, 31.5563 ], [ 13.3709, 31.6738 ], [ 13.3401, 31.7008 ], [ 13.3223, 31.7266 ], [ 13.3201, 31.7532 ], [ 13.3231, 31.8117 ], [ 13.3151, 31.9393 ], [ 13.3058, 32.0309 ], [ 13.3259, 32.037 ], [ 13.3308, 32.0417 ], [ 13.3312, 32.0468 ], [ 13.3405, 32.0526 ], [ 13.3278, 32.0843 ], [ 13.3288, 32.0965 ], [ 13.326, 32.1004 ], [ 13.3329, 32.1183 ], [ 13.3505, 32.1289 ], [ 13.3633, 32.1442 ], [ 13.3722, 32.1455 ], [ 13.3813, 32.1598 ], [ 13.3939, 32.165 ], [ 13.4015, 32.1642 ], [ 13.3985, 32.1747 ], [ 13.3508, 32.2038 ], [ 13.3431, 32.204 ], [ 13.33, 32.2232 ], [ 13.3225, 32.2577 ], [ 13.3033, 32.2735 ], [ 13.2907, 32.2792 ], [ 13.2823, 32.2907 ], [ 13.2133, 32.2702 ], [ 13.1632, 32.2612 ], [ 13.1223, 32.2595 ], [ 13.0353, 32.2795 ], [ 12.9959, 32.2805 ], [ 12.9836, 32.2884 ], [ 12.9673, 32.3227 ], [ 12.9624, 32.3438 ], [ 12.959, 32.4057 ], [ 12.8799, 32.4039 ], [ 12.792, 32.4133 ], [ 12.7964, 32.313 ], [ 12.7684, 32.22 ], [ 12.6045, 32.1921 ], [ 12.3903, 32.274 ], [ 12.3829, 32.311 ], [ 12.2524, 32.2969 ], [ 12.1845, 32.286 ], [ 12.1602, 32.2679 ], [ 12.1326, 32.285 ], [ 12.086, 32.3458 ], [ 12.0051, 32.3276 ], [ 11.9884, 32.2898 ], [ 11.781, 32.2787 ], [ 11.7288, 32.1891 ], [ 11.7055, 32.1363 ], [ 11.71, 32.0922 ], [ 11.7221, 32.0242 ], [ 11.746, 31.9171 ], [ 11.728, 31.8624 ], [ 11.7297, 31.8203 ], [ 11.7386, 31.7832 ], [ 11.7665, 31.7386 ], [ 11.7562, 31.7112 ], [ 11.7593, 31.6803 ], [ 11.7388, 31.6255 ], [ 11.725, 31.5556 ], [ 11.7397, 31.4856 ], [ 11.7582, 31.3514 ], [ 11.7372, 31.301 ], [ 11.7384, 31.2367 ], [ 11.7309, 31.2073 ], [ 11.8234, 31.0806 ], [ 11.8292, 31.0552 ], [ 11.8954, 31.0447 ], [ 11.9324, 31.0482 ], [ 11.9381, 30.9893 ], [ 11.9467, 28.9652 ], [ 14.3318, 28.9698 ], [ 14.3138, 29.0398 ], [ 14.3822, 29.1323 ], [ 14.46, 29.1836 ], [ 14.5451, 29.2293 ], [ 14.612, 29.3513 ], [ 14.6711, 29.4907 ], [ 14.6484, 29.851 ], [ 14.6544, 29.9708 ], [ 14.7413, 30.0701 ], [ 14.7153, 30.1078 ], [ 14.6472, 30.3239 ], [ 14.6045, 30.3977 ], [ 14.5628, 30.4202 ] ] ] } },
{ "type": "Feature", "properties": { "iso3": "LBY", "unit_id": "82343102B87229769684950", "unit_name": "Aljufra" }, "geometry": { "type": "Polygon", "coordinates": [ [ [ 18.4993, 28.5022 ], [ 18.4993, 28.4847 ], [ 18.3846, 28.5175 ], [ 18.2255, 28.5554 ], [ 18.0878, 28.6397 ], [ 17.9821, 28.7331 ], [ 17.9404, 28.873 ], [ 17.8985, 28.9848 ], [ 17.8137, 29.0781 ], [ 17.7287, 29.1619 ], [ 17.6864, 29.255 ], [ 17.6654, 29.3295 ], [ 17.5802, 29.3946 ], [ 17.5053, 29.3946 ], [ 17.4303, 29.3572 ], [ 17.3339, 29.2826 ], [ 17.2378, 29.3104 ], [ 17.0881, 29.3472 ], [ 16.9812, 29.4306 ], [ 16.8528, 29.4394 ], [ 16.7459, 29.4016 ], [ 16.5534, 29.3913 ], [ 16.4357, 29.4185 ], [ 16.4186, 29.4089 ], [ 16.3714, 29.4367 ], [ 16.1357, 29.5 ], [ 16.0395, 29.4713 ], [ 15.9435, 29.4239 ], [ 15.8797, 29.3768 ], [ 15.7405, 29.394 ], [ 15.665, 29.4677 ], [ 15.5999, 29.56 ], [ 15.5675, 29.5876 ], [ 15.503, 29.6147 ], [ 15.3852, 29.6133 ], [ 15.2992, 29.6402 ], [ 15.2025, 29.6575 ], [ 15.0519, 29.702 ], [ 14.9759, 29.7753 ], [ 14.8999, 29.8393 ], [ 14.6544, 29.9708 ], [ 14.6484, 29.851 ], [ 14.6711, 29.4907 ], [ 14.612, 29.3513 ], [ 14.5451, 29.2293 ], [ 14.46, 29.1836 ], [ 14.3822, 29.1323 ], [ 14.3138, 29.0398 ], [ 14.3318, 28.9698 ], [ 14.4225, 28.8786 ], [ 14.4693, 28.7989 ], [ 14.527, 28.7195 ], [ 14.6599, 28.6221 ], [ 14.8398, 28.5205 ], [ 14.9587, 28.4078 ], [ 14.9919, 28.296 ], [ 14.9938, 28.2178 ], [ 15.0177, 28.1449 ], [ 15.1228, 28.1296 ], [ 15.2493, 28.1414 ], [ 15.3803, 28.207 ], [ 15.5069, 28.2186 ], [ 15.5897, 28.2149 ], [ 15.7201, 28.1751 ], [ 15.7921, 28.1564 ], [ 15.8789, 28.0793 ], [ 15.8941, 27.9963 ], [ 15.8707, 27.9154 ], [ 15.7967, 27.7434 ], [ 15.7948, 27.692 ], [ 15.9632, 27.4666 ], [ 15.9919, 27.3838 ], [ 16.0232, 27.3059 ], [ 16.0621, 27.2721 ], [ 16.1282, 27.2385 ], [ 16.1919, 27.1854 ], [ 16.258, 27.1518 ], [ 16.2807, 27.0835 ], [ 16.2709, 27.0027 ], [ 16.2691, 26.9293 ], [ 16.2784, 26.8463 ], [ 16.3227, 26.7929 ], [ 16.372, 26.7737 ], [ 16.5199, 26.7015 ], [ 16.5751, 26.631 ], [ 16.5681, 26.5282 ], [ 16.6208, 26.4258 ], [ 16.7277, 26.3262 ], [ 16.804, 26.2851 ], [ 16.8831, 26.2341 ], [ 16.9406, 26.1635 ], [ 17.2634, 26.101 ], [ 17.4098, 26.0523 ], [ 17.4936, 26.0842 ], [ 17.5667, 26.1258 ], [ 17.6967, 26.1356 ], [ 17.778, 26.1575 ], [ 17.9081, 26.2429 ], [ 17.9542, 26.2942 ], [ 18.0629, 26.3452 ], [ 18.2041, 26.3765 ], [ 18.3206, 26.3295 ], [ 18.4124, 26.2336 ], [ 18.515, 26.1498 ], [ 18.6152, 26.1394 ], [ 18.7288, 26.1141 ], [ 18.8856, 26.0858 ], [ 19.0208, 26.0552 ], [ 19.126, 26.0223 ], [ 19.1681, 26.0038 ], [ 19.1722, 28.3475 ], [ 19.0043, 28.3583 ], [ 18.7186, 28.4367 ], [ 18.4993, 28.5022 ] ] ] } },
{ "type": "Feature", "properties": { "iso3": "LBY", "unit_id": "82343102B42805810352807", "unit_name": "Wadi Ashshati" }, "geometry": { "type": "Polygon", "coordinates": [ [ [ 9.8969, 28.8408 ], [ 9.906, 28.7629 ], [ 9.8371, 28.2864 ], [ 9.9628, 27.8807 ], [ 9.9625, 27.8584 ], [ 9.9495, 27.8501 ], [ 9.946, 27.8442 ], [ 9.9433, 27.813 ], [ 10.0787, 27.7435 ], [ 10.2726, 27.6671 ], [ 10.6576, 27.5697 ], [ 10.8918, 27.5315 ], [ 11.0203, 27.4894 ], [ 11.1069, 27.4363 ], [ 11.164, 27.3259 ], [ 11.1942, 27.0928 ], [ 11.2207, 26.9532 ], [ 11.2602, 26.7483 ], [ 11.3226, 26.4879 ], [ 11.359, 26.3578 ], [ 11.3747, 26.2175 ], [ 11.7441, 26.4362 ], [ 12.3099, 26.7911 ], [ 12.7738, 27.1132 ], [ 13.0124, 27.2504 ], [ 13.1906, 27.2922 ], [ 13.3494, 27.2679 ], [ 13.6253, 27.1899 ], [ 13.9831, 27.129 ], [ 14.4212, 27.1728 ], [ 14.4836, 27.2206 ], [ 14.5248, 27.2775 ], [ 14.6188, 27.3352 ], [ 14.849, 27.4605 ], [ 14.9213, 27.5738 ], [ 15.0685, 27.6321 ], [ 15.3535, 27.6639 ], [ 15.4166, 27.6927 ], [ 15.5642, 27.7412 ], [ 15.7959, 27.7212 ], [ 15.7967, 27.7434 ], [ 15.8707, 27.9154 ], [ 15.8941, 27.9963 ], [ 15.8789, 28.0793 ], [ 15.7921, 28.1564 ], [ 15.7201, 28.1751 ], [ 15.5897, 28.2149 ], [ 15.5069, 28.2186 ], [ 15.3803, 28.207 ], [ 15.2493, 28.1414 ], [ 15.1228, 28.1296 ], [ 15.0177, 28.1449 ], [ 14.9938, 28.2178 ], [ 14.9919, 28.296 ], [ 14.9587, 28.4078 ], [ 14.8398, 28.5205 ], [ 14.6599, 28.6221 ], [ 14.527, 28.7195 ], [ 14.4693, 28.7989 ], [ 14.4225, 28.8786 ], [ 14.3318, 28.9698 ], [ 11.9467, 28.9652 ], [ 10.8849, 28.8893 ], [ 10.3823, 28.8638 ], [ 10.0316, 28.8521 ], [ 9.8969, 28.8408 ] ] ] } },
{ "type": "Feature", "properties": { "iso3": "LBY", "unit_id": "82343102B21294427934131", "unit_name": "Sebha" }, "geometry": { "type": "Polygon", "coordinates": [ [ [ 15.7959, 27.7212 ], [ 15.5642, 27.7412 ], [ 15.4166, 27.6927 ], [ 15.3535, 27.6639 ], [ 15.0685, 27.6321 ], [ 14.9213, 27.5738 ], [ 14.849, 27.4605 ], [ 14.6188, 27.3352 ], [ 14.5248, 27.2775 ], [ 14.4836, 27.2206 ], [ 14.4212, 27.1728 ], [ 13.9831, 27.129 ], [ 14.0225, 27.0904 ], [ 14.0455, 26.9879 ], [ 14.0376, 26.8566 ], [ 14.0811, 26.7824 ], [ 14.1347, 26.7272 ], [ 14.1463, 26.6712 ], [ 14.0855, 26.5576 ], [ 13.972, 26.4616 ], [ 13.9324, 26.3482 ], [ 13.9345, 26.2451 ], [ 14.133, 26.2678 ], [ 14.2475, 26.3074 ], [ 14.4244, 26.3763 ], [ 14.5379, 26.4814 ], [ 14.6412, 26.5863 ], [ 14.8276, 26.758 ], [ 14.974, 26.807 ], [ 15.278, 26.8768 ], [ 15.4671, 26.8979 ], [ 15.7611, 26.948 ], [ 16.2797, 27.0752 ], [ 16.2807, 27.0835 ], [ 16.258, 27.1518 ], [ 16.1919, 27.1854 ], [ 16.1282, 27.2385 ], [ 16.0621, 27.2721 ], [ 16.0232, 27.3059 ], [ 15.9919, 27.3838 ], [ 15.9632, 27.4666 ], [ 15.7948, 27.692 ], [ 15.7959, 27.7212 ] ] ] } },
{ "type": "Feature", "properties": { "iso3": "LBY", "unit_id": "82343102B52022745505479", "unit_name": "Ubari" }, "geometry": { "type": "Polygon", "coordinates": [ [ [ 11.3747, 26.2175 ], [ 11.2905, 25.9597 ], [ 11.309, 25.7736 ], [ 11.3996, 25.5515 ], [ 11.5941, 25.652 ], [ 11.7742, 25.5733 ], [ 11.8585, 25.5478 ], [ 12.0456, 25.5631 ], [ 12.1599, 25.576 ], [ 12.3637, 25.7323 ], [ 12.5001, 25.708 ], [ 12.625, 25.7209 ], [ 12.7068, 25.7795 ], [ 12.9656, 25.8614 ], [ 13.2055, 25.8768 ], [ 13.3083, 25.945 ], [ 13.4101, 26.0601 ], [ 13.4819, 26.118 ], [ 13.6693, 26.1597 ], [ 13.9344, 26.2469 ], [ 13.9324, 26.3482 ], [ 13.972, 26.4616 ], [ 14.0855, 26.5576 ], [ 14.1463, 26.6712 ], [ 14.1347, 26.7272 ], [ 14.0811, 26.7824 ], [ 14.0376, 26.8566 ], [ 14.0455, 26.9879 ], [ 14.0225, 27.0904 ], [ 13.9831, 27.129 ], [ 13.6253, 27.1899 ], [ 13.3494, 27.2679 ], [ 13.1906, 27.2922 ], [ 13.0124, 27.2504 ], [ 12.7738, 27.1132 ], [ 12.3099, 26.7911 ], [ 11.7441, 26.4362 ], [ 11.3747, 26.2175 ] ] ] } },
{ "type": "Feature", "properties": { "iso3": "LBY", "unit_id": "82343102B54824787948925", "unit_name": "Ghat" }, "geometry": { "type": "Polygon", "coordinates": [ [ [ 9.9433, 27.813 ], [ 9.9403, 27.7687 ], [ 9.9417, 27.7376 ], [ 9.9248, 27.6977 ], [ 9.9166, 27.6663 ], [ 9.8894, 27.6122 ], [ 9.8789, 27.5997 ], [ 9.867, 27.5917 ], [ 9.8636, 27.5848 ], [ 9.8337, 27.5753 ], [ 9.8305, 27.5718 ], [ 9.8312, 27.5635 ], [ 9.8368, 27.5616 ], [ 9.8773, 27.5604 ], [ 9.8623, 27.528 ], [ 9.8577, 27.4993 ], [ 9.8308, 27.4834 ], [ 9.8247, 27.47 ], [ 9.8142, 27.4577 ], [ 9.8178, 27.4454 ], [ 9.8087, 27.4346 ], [ 9.8085, 27.4104 ], [ 9.7976, 27.3966 ], [ 9.7895, 27.3767 ], [ 9.7908, 27.3687 ], [ 9.7808, 27.3495 ], [ 9.7922, 27.3489 ], [ 9.7814, 27.2754 ], [ 9.789, 27.2648 ], [ 9.7938, 27.248 ], [ 9.8084, 27.2208 ], [ 9.8147, 27.1887 ], [ 9.8298, 27.1515 ], [ 9.833, 27.129 ], [ 9.8313, 27.1178 ], [ 9.8379, 27.1062 ], [ 9.8468, 27.0644 ], [ 9.8451, 27.0243 ], [ 9.8645, 26.9543 ], [ 9.8765, 26.9301 ], [ 9.8799, 26.9076 ], [ 9.8903, 26.9009 ], [ 9.9116, 26.8725 ], [ 9.9288, 26.8631 ], [ 9.9026, 26.7445 ], [ 9.918, 26.6485 ], [ 9.8656, 26.5219 ], [ 9.5246, 26.3836 ], [ 9.4999, 26.3383 ], [ 9.4677, 26.2936 ], [ 9.4474, 26.2484 ], [ 9.3965, 26.2022 ], [ 10.0262, 25.3348 ], [ 10.0369, 24.9595 ], [ 10.0544, 24.8381 ], [ 10.2183, 24.7511 ], [ 10.2522, 24.6058 ], [ 10.4222, 24.4781 ], [ 10.48, 24.4781 ], [ 10.7153, 24.5672 ], [ 10.8325, 24.5203 ], [ 10.9669, 24.4733 ], [ 11.0077, 24.4719 ], [ 11.0298, 24.4603 ], [ 11.0446, 24.435 ], [ 11.132, 24.3929 ], [ 11.271, 24.3034 ], [ 11.4258, 24.1981 ], [ 11.4301, 24.1998 ], [ 11.4658, 24.3119 ], [ 11.481, 24.463 ], [ 11.4555, 24.594 ], [ 11.334, 24.7968 ], [ 11.34, 25.1922 ], [ 11.3326, 25.3894 ], [ 11.3996, 25.5515 ], [ 11.309, 25.7736 ], [ 11.2905, 25.9597 ], [ 11.3747, 26.2175 ], [ 11.359, 26.3578 ], [ 11.3226, 26.4879 ], [ 11.2602, 26.7483 ], [ 11.2207, 26.9532 ], [ 11.1942, 27.0928 ], [ 11.164, 27.3259 ], [ 11.1069, 27.4363 ], [ 11.0203, 27.4894 ], [ 10.8918, 27.5315 ], [ 10.6576, 27.5697 ], [ 10.2726, 27.6671 ], [ 10.0787, 27.7435 ], [ 9.9433, 27.813 ] ] ] } },
{ "type": "Feature", "properties": { "iso3": "LBY", "unit_id": "82343102B7497561757046", "unit_name": "Murzuq" }, "geometry": { "type": "Polygon", "coordinates": [ [ [ 19.1681, 26.0038 ], [ 19.126, 26.0223 ], [ 19.0208, 26.0552 ], [ 18.8856, 26.0858 ], [ 18.7288, 26.1141 ], [ 18.6152, 26.1394 ], [ 18.515, 26.1498 ], [ 18.4124, 26.2336 ], [ 18.3206, 26.3295 ], [ 18.2041, 26.3765 ], [ 18.0629, 26.3452 ], [ 17.9542, 26.2942 ], [ 17.9081, 26.2429 ], [ 17.778, 26.1575 ], [ 17.6967, 26.1356 ], [ 17.5667, 26.1258 ], [ 17.4936, 26.0842 ], [ 17.4098, 26.0523 ], [ 17.2634, 26.101 ], [ 16.9406, 26.1635 ], [ 16.8831, 26.2341 ], [ 16.804, 26.2851 ], [ 16.7277, 26.3262 ], [ 16.6208, 26.4258 ], [ 16.5681, 26.5282 ], [ 16.5751, 26.631 ], [ 16.5199, 26.7015 ], [ 16.372, 26.7737 ], [ 16.3227, 26.7929 ], [ 16.2784, 26.8463 ], [ 16.2691, 26.9293 ], [ 16.2709, 27.0027 ], [ 16.2797, 27.0752 ], [ 15.7611, 26.948 ], [ 15.4671, 26.8979 ], [ 15.278, 26.8768 ], [ 15.0998, 26.8369 ], [ 14.974, 26.807 ], [ 14.8276, 26.758 ], [ 14.6412, 26.5863 ], [ 14.5379, 26.4814 ], [ 14.4244, 26.3763 ], [ 14.2475, 26.3074 ], [ 14.133, 26.2678 ], [ 13.9344, 26.2469 ], [ 13.6693, 26.1597 ], [ 13.4819, 26.118 ], [ 13.4101, 26.0601 ], [ 13.3083, 25.945 ], [ 13.2055, 25.8768 ], [ 12.9656, 25.8614 ], [ 12.7068, 25.7795 ], [ 12.625, 25.7209 ], [ 12.5001, 25.708 ], [ 12.3637, 25.7323 ], [ 12.1599, 25.576 ], [ 12.0456, 25.5631 ], [ 11.8585, 25.5478 ], [ 11.7742, 25.5733 ], [ 11.5941, 25.652 ], [ 11.3996, 25.5515 ], [ 11.3326, 25.3894 ], [ 11.34, 25.1922 ], [ 11.334, 24.7968 ], [ 11.4555, 24.594 ], [ 11.481, 24.463 ], [ 11.4658, 24.3119 ], [ 11.4301, 24.1998 ], [ 11.4679, 24.215 ], [ 11.5058, 24.2234 ], [ 11.5616, 24.2518 ], [ 11.5916, 24.2524 ], [ 11.6066, 24.2617 ], [ 11.6098, 24.2603 ], [ 11.998, 23.516 ], [ 12.1096, 23.4902 ], [ 12.3848, 23.435 ], [ 12.4348, 23.4221 ], [ 12.7451, 23.3577 ], [ 12.7664, 23.3519 ], [ 12.7695, 23.3484 ], [ 12.7897, 23.3471 ], [ 13.1881, 23.2607 ], [ 13.2415, 23.2515 ], [ 13.3833, 23.2178 ], [ 13.398, 23.2175 ], [ 13.4116, 23.2101 ], [ 13.4806, 23.1861 ], [ 13.5447, 23.157 ], [ 13.6318, 23.1055 ], [ 13.6804, 23.0722 ], [ 13.9222, 22.8669 ], [ 14.1517, 22.6756 ], [ 14.1615, 22.6707 ], [ 14.1893, 22.6445 ], [ 14.8614, 22.9441 ], [ 14.8976, 22.9564 ], [ 14.9015, 22.9606 ], [ 14.9725, 22.993 ], [ 15.6537, 23.3012 ], [ 15.6648, 23.3034 ], [ 15.7282, 23.3303 ], [ 15.8566, 23.388 ], [ 15.8612, 23.3933 ], [ 15.8808, 23.3986 ], [ 15.9982, 23.4504 ], [ 16.2331, 23.3451 ], [ 16.2633, 23.328 ], [ 16.3784, 23.2782 ], [ 16.5667, 23.1901 ], [ 16.5802, 23.1813 ], [ 16.9819, 22.9972 ], [ 17.0096, 22.9804 ], [ 17.2284, 22.8803 ], [ 17.2689, 22.8587 ], [ 17.7356, 22.6394 ], [ 18.0877, 22.469 ], [ 18.2264, 22.4067 ], [ 18.2439, 22.3959 ], [ 18.5134, 22.2696 ], [ 19.1859, 21.9426 ], [ 19.1681, 26.0038 ] ] ] } }
]
}
