{
"type": "FeatureCollection",
"name": "NER",
"crs": { "type": "name", "properties": { "name": "urn:ogc:def:crs:OGC:1.3:CRS84" } },
"xy_coordinate_resolution": 0.0001,
"features": [
{ "type": "Feature", "properties": { "iso3": "NER", "unit_id": "23599985B18164013569517", "unit_name": "Bankilaré" }, "geometry": { "type": "Polygon", "coordinates": [ [ [ 0.3591, 14.1483 ], [ 0.3939, 14.1731 ], [ 0.3919, 14.2307 ], [ 0.4183, 14.2429 ], [ 0.4461, 14.2435 ], [ 0.4969, 14.2889 ], [ 0.5383, 14.3067 ], [ 0.6427, 14.3249 ], [ 0.6983, 14.3961 ], [ 0.7159, 14.4321 ], [ 0.7675, 14.4781 ], [ 0.8021, 14.4991 ], [ 0.8489, 14.4991 ], [ 0.8759, 14.4755 ], [ 0.9105, 14.4999 ], [ 0.9627, 14.5235 ], [ 0.8759, 14.6267 ], [ 0.8543, 14.6389 ], [ 0.8413, 14.6619 ], [ 0.8387, 14.7025 ], [ 0.8427, 14.7107 ], [ 0.8427, 14.7263 ], [ 0.8197, 14.7601 ], [ 0.7675, 14.7575 ], [ 0.7485, 14.7229 ], [ 0.7213, 14.7093 ], [ 0.6915, 14.7235 ], [ 0.6589, 14.6769 ], [ 0.6271, 14.6557 ], [ 0.5749, 14.5643 ], [ 0.5369, 14.4673 ], [ 0.5261, 14.4199 ], [ 0.4719, 14.3567 ], [ 0.3825, 14.3467 ], [ 0.3743, 14.4137 ], [ 0.3343, 14.4421 ], [ 0.3071, 14.4421 ], [ 0.3025, 14.4253 ], [ 0.3391, 14.3839 ], [ 0.3423, 14.3419 ], [ 0.3279, 14.3231 ], [ 0.3683, 14.2943 ], [ 0.3825, 14.2515 ], [ 0.3689, 14.2049 ], [ 0.3531, 14.1717 ], [ 0.3591, 14.1483 ] ] ] } },
{ "type": "Feature", "properties": { "iso3": "NER", "unit_id": "23599985B66518443893936", "unit_name": "Ayérou" }, "geometry": { "type": "Polygon", "coordinates": [ [ [ 0.8829, 14.6615 ], [ 0.9093, 14.6741 ], [ 0.9797, 14.6351 ], [ 1.0915, 14.6317 ], [ 1.1305, 14.6105 ], [ 1.1593, 14.6359 ], [ 1.2145, 14.6291 ], [ 1.2585, 14.6605 ], [ 1.2601, 14.6851 ], [ 1.2289, 14.7199 ], [ 1.2331, 14.7783 ], [ 1.3177, 14.7809 ], [ 1.3305, 14.7935 ], [ 1.3339, 14.8749 ], [ 1.4051, 14.9469 ], [ 1.4865, 15.0045 ], [ 1.4915, 15.2689 ], [ 1.3043, 15.2529 ], [ 1.2491, 15.2021 ], [ 1.1465, 15.1299 ], [ 1.1237, 15.1045 ], [ 0.9535, 14.9655 ], [ 0.7145, 14.9521 ], [ 0.6779, 14.9455 ], [ 0.7313, 14.9349 ], [ 0.7933, 14.9031 ], [ 0.8361, 14.8943 ], [ 0.8613, 14.8429 ], [ 0.8553, 14.8021 ], [ 0.8545, 14.7615 ], [ 0.8807, 14.7371 ], [ 0.8855, 14.7187 ], [ 0.8617, 14.7019 ], [ 0.8719, 14.6779 ], [ 0.8829, 14.6615 ] ] ] } },
{ "type": "Feature", "properties": { "iso3": "NER", "unit_id": "23599985B14211003047249", "unit_name": "Téra" }, "geometry": { "type": "Polygon", "coordinates": [ [ [ 0.3591, 14.1483 ], [ 0.3639, 14.1215 ], [ 0.3851, 14.0909 ], [ 0.3845, 14.0363 ], [ 0.3929, 14.0207 ], [ 0.4705, 13.9363 ], [ 0.4809, 13.8915 ], [ 0.5301, 13.8311 ], [ 0.5751, 13.8079 ], [ 0.5793, 13.7777 ], [ 0.6113, 13.7785 ], [ 0.6227, 13.7567 ], [ 0.5893, 13.7249 ], [ 0.6003, 13.6995 ], [ 0.6237, 13.6791 ], [ 0.7807, 13.6801 ], [ 0.7779, 13.6345 ], [ 0.8089, 13.6219 ], [ 0.8919, 13.6251 ], [ 0.8957, 13.7169 ], [ 0.9789, 13.7895 ], [ 1.0427, 13.7939 ], [ 1.0917, 13.7293 ], [ 1.1625, 13.7317 ], [ 1.1825, 13.7517 ], [ 1.2551, 13.7479 ], [ 1.2905, 13.7399 ], [ 1.3257, 13.7635 ], [ 1.3239, 13.7963 ], [ 1.2711, 13.8113 ], [ 1.2377, 13.8367 ], [ 1.1129, 13.8305 ], [ 1.0677, 13.8199 ], [ 0.9975, 13.8169 ], [ 1.0235, 13.8529 ], [ 1.0155, 13.9397 ], [ 1.0577, 13.9789 ], [ 1.0539, 14.0347 ], [ 1.1719, 14.1315 ], [ 1.1123, 14.1719 ], [ 1.1589, 14.1731 ], [ 1.1607, 14.2165 ], [ 1.2115, 14.1607 ], [ 1.2275, 14.1683 ], [ 1.2699, 14.2061 ], [ 1.3275, 14.2395 ], [ 1.2925, 14.2637 ], [ 1.2653, 14.2879 ], [ 1.2275, 14.3335 ], [ 1.1865, 14.3335 ], [ 1.1699, 14.3471 ], [ 1.1153, 14.4183 ], [ 1.0865, 14.4471 ], [ 1.0699, 14.4849 ], [ 0.9941, 14.5257 ], [ 0.9825, 14.5907 ], [ 0.9583, 14.5937 ], [ 0.9029, 14.6315 ], [ 0.8719, 14.6779 ], [ 0.8617, 14.7019 ], [ 0.8855, 14.7187 ], [ 0.8807, 14.7371 ], [ 0.8545, 14.7615 ], [ 0.8553, 14.8021 ], [ 0.8613, 14.8429 ], [ 0.8361, 14.8943 ], [ 0.7933, 14.9031 ], [ 0.7313, 14.9349 ], [ 0.6217, 14.9563 ], [ 0.4975, 14.9863 ], [ 0.4005, 14.9573 ], [ 0.3627, 14.9601 ], [ 0.2997, 14.9805 ], [ 0.2211, 14.9845 ], [ 0.2251, 14.8719 ], [ 0.1989, 14.8487 ], [ 0.1901, 14.8157 ], [ 0.2337, 14.7507 ], [ 0.2309, 14.7101 ], [ 0.1755, 14.6053 ], [ 0.1601, 14.5161 ], [ 0.1863, 14.4423 ], [ 0.3279, 14.3231 ], [ 0.3423, 14.3419 ], [ 0.3391, 14.3839 ], [ 0.3025, 14.4253 ], [ 0.3071, 14.4421 ], [ 0.3343, 14.4421 ], [ 0.3743, 14.4137 ], [ 0.3825, 14.3467 ], [ 0.4719, 14.3567 ], [ 0.5261, 14.4199 ], [ 0.5369, 14.4673 ], [ 0.5749, 14.5643 ], [ 0.6271, 14.6557 ], [ 0.6589, 14.6769 ], [ 0.6915, 14.7235 ], [ 0.7213, 14.7093 ], [ 0.7485, 14.7229 ], [ 0.7675, 14.7575 ], [ 0.8197, 14.7601 ], [ 0.8427, 14.7263 ], [ 0.8427, 14.7107 ], [ 0.8387, 14.7025 ], [ 0.8413, 14.6619 ], [ 0.8543, 14.6389 ], [ 0.8759, 14.6267 ], [ 0.9627, 14.5235 ], [ 0.9105, 14.4999 ], [ 0.8759, 14.4755 ], [ 0.8489, 14.4991 ], [ 0.8021, 14.4991 ], [ 0.7675, 14.4781 ], [ 0.7159, 14.4321 ], [ 0.6983, 14.3961 ], [ 0.6427, 14.3249 ], [ 0.5383, 14.3067 ], [ 0.4969, 14.2889 ], [ 0.4461, 14.2435 ], [ 0.4183, 14.2429 ], [ 0.3919, 14.2307 ], [ 0.3939, 14.1731 ], [ 0.3591, 14.1483 ] ] ] } },
{ "type": "Feature", "properties": { "iso3": "NER", "unit_id": "23599985B45975933186230", "unit_name": "Tillabéri" }, "geometry": { "type": "Polygon", "coordinates": [ [ [ 0.8829, 14.6615 ], [ 0.9029, 14.6315 ], [ 0.9583, 14.5937 ], [ 0.9825, 14.5907 ], [ 0.9941, 14.5257 ], [ 1.0699, 14.4849 ], [ 1.0865, 14.4471 ], [ 1.1153, 14.4183 ], [ 1.1699, 14.3471 ], [ 1.1865, 14.3335 ], [ 1.2275, 14.3335 ], [ 1.2653, 14.2879 ], [ 1.2925, 14.2637 ], [ 1.3275, 14.2395 ], [ 1.3619, 14.2225 ], [ 1.4169, 14.2157 ], [ 1.4355, 14.1833 ], [ 1.4399, 14.1571 ], [ 1.3567, 14.1191 ], [ 1.3611, 14.1113 ], [ 1.4211, 14.1181 ], [ 1.4465, 14.1055 ], [ 1.4465, 14.0885 ], [ 1.4865, 14.0275 ], [ 1.4891, 13.9859 ], [ 1.5169, 13.9809 ], [ 1.5245, 13.9563 ], [ 1.5475, 13.9165 ], [ 1.5415, 13.8801 ], [ 1.5643, 13.8749 ], [ 1.6051, 13.7843 ], [ 1.6551, 13.7759 ], [ 1.6711, 13.7547 ], [ 1.6991, 13.7537 ], [ 1.7373, 13.7691 ], [ 1.7577, 13.8199 ], [ 1.7907, 13.8639 ], [ 1.8585, 13.8801 ], [ 1.8711, 13.9081 ], [ 1.8653, 14.0479 ], [ 1.7831, 14.0767 ], [ 1.7551, 14.1071 ], [ 1.7297, 14.1597 ], [ 1.6789, 14.4207 ], [ 1.6229, 14.4927 ], [ 1.6229, 14.5113 ], [ 1.5287, 14.6935 ], [ 1.4897, 14.7113 ], [ 1.4907, 14.9511 ], [ 1.4813, 14.9545 ], [ 1.4865, 15.0045 ], [ 1.4051, 14.9469 ], [ 1.3339, 14.8749 ], [ 1.3305, 14.7935 ], [ 1.3177, 14.7809 ], [ 1.2331, 14.7783 ], [ 1.2289, 14.7199 ], [ 1.2601, 14.6851 ], [ 1.2585, 14.6605 ], [ 1.2145, 14.6291 ], [ 1.1593, 14.6359 ], [ 1.1305, 14.6105 ], [ 1.0915, 14.6317 ], [ 0.9797, 14.6351 ], [ 0.9093, 14.6741 ], [ 0.8829, 14.6615 ] ] ] } },
{ "type": "Feature", "properties": { "iso3": "NER", "unit_id": "23599985B45142923275636", "unit_name": "Gothèye" }, "geometry": { "type": "Polygon", "coordinates": [ [ [ 0.8919, 13.6251 ], [ 0.9657, 13.5677 ], [ 0.9917, 13.5653 ], [ 1.0089, 13.5497 ], [ 1.0065, 13.4831 ], [ 1.0589, 13.4745 ], [ 1.1527, 13.4067 ], [ 1.2033, 13.3875 ], [ 1.2403, 13.3907 ], [ 1.2793, 13.3499 ], [ 1.3181, 13.3629 ], [ 1.2911, 13.3795 ], [ 1.2935, 13.4301 ], [ 1.3255, 13.4511 ], [ 1.3051, 13.4831 ], [ 1.3113, 13.5097 ], [ 1.3687, 13.4845 ], [ 1.3867, 13.5061 ], [ 1.3853, 13.5351 ], [ 1.3631, 13.5585 ], [ 1.3699, 13.5819 ], [ 1.4297, 13.5707 ], [ 1.4507, 13.5985 ], [ 1.4581, 13.6141 ], [ 1.4915, 13.6035 ], [ 1.4909, 13.6535 ], [ 1.5335, 13.6627 ], [ 1.5715, 13.7017 ], [ 1.6551, 13.7759 ], [ 1.6051, 13.7843 ], [ 1.5643, 13.8749 ], [ 1.5415, 13.8801 ], [ 1.5475, 13.9165 ], [ 1.5245, 13.9563 ], [ 1.5169, 13.9809 ], [ 1.4891, 13.9859 ], [ 1.4865, 14.0275 ], [ 1.4465, 14.0885 ], [ 1.4465, 14.1055 ], [ 1.4211, 14.1181 ], [ 1.3611, 14.1113 ], [ 1.3567, 14.1191 ], [ 1.4399, 14.1571 ], [ 1.4355, 14.1833 ], [ 1.4169, 14.2157 ], [ 1.3619, 14.2225 ], [ 1.3275, 14.2395 ], [ 1.2699, 14.2061 ], [ 1.2275, 14.1683 ], [ 1.2115, 14.1607 ], [ 1.1607, 14.2165 ], [ 1.1589, 14.1731 ], [ 1.1123, 14.1719 ], [ 1.1719, 14.1315 ], [ 1.0539, 14.0347 ], [ 1.0577, 13.9789 ], [ 1.0155, 13.9397 ], [ 1.0235, 13.8529 ], [ 0.9975, 13.8169 ], [ 1.0677, 13.8199 ], [ 1.1129, 13.8305 ], [ 1.2377, 13.8367 ], [ 1.2711, 13.8113 ], [ 1.3239, 13.7963 ], [ 1.3257, 13.7635 ], [ 1.2905, 13.7399 ], [ 1.2551, 13.7479 ], [ 1.1825, 13.7517 ], [ 1.1625, 13.7317 ], [ 1.0917, 13.7293 ], [ 1.0427, 13.7939 ], [ 0.9789, 13.7895 ], [ 0.8957, 13.7169 ], [ 0.8919, 13.6251 ] ] ] } },
{ "type": "Feature", "properties": { "iso3": "NER", "unit_id": "23599985B58853598919637", "unit_name": "Torodi" }, "geometry": { "type": "Polygon", "coordinates": [ [ [ 1.2793, 13.3499 ], [ 1.2513, 13.3365 ], [ 1.2369, 13.3399 ], [ 1.2181, 13.3649 ], [ 1.2029, 13.3633 ], [ 1.1885, 13.3099 ], [ 1.1237, 13.3333 ], [ 1.0379, 13.3709 ], [ 0.9861, 13.3677 ], [ 0.9887, 13.0567 ], [ 1.0521, 13.0605 ], [ 1.1133, 12.9981 ], [ 1.1275, 12.9981 ], [ 1.1855, 12.9475 ], [ 1.1879, 12.9347 ], [ 1.2669, 12.8831 ], [ 1.3227, 12.8289 ], [ 1.4163, 12.7607 ], [ 1.5019, 12.6863 ], [ 1.5193, 12.6855 ], [ 1.5397, 12.6665 ], [ 1.5727, 12.6265 ], [ 1.8529, 12.6153 ], [ 1.7701, 12.6525 ], [ 1.7475, 12.6847 ], [ 1.7833, 12.7537 ], [ 1.7861, 12.8021 ], [ 1.8037, 12.8143 ], [ 1.8055, 12.8449 ], [ 1.8333, 12.8521 ], [ 1.8261, 12.8929 ], [ 1.8369, 12.9239 ], [ 1.8541, 12.9443 ], [ 1.8535, 13.0041 ], [ 1.9253, 13.0821 ], [ 1.9417, 13.1205 ], [ 1.9659, 13.1313 ], [ 1.9659, 13.1461 ], [ 1.9351, 13.1749 ], [ 1.8787, 13.2073 ], [ 1.9039, 13.2237 ], [ 1.8889, 13.2477 ], [ 1.9035, 13.2603 ], [ 1.8749, 13.2705 ], [ 1.8647, 13.3279 ], [ 1.8141, 13.4053 ], [ 1.7925, 13.4129 ], [ 1.7839, 13.4519 ], [ 1.7453, 13.4901 ], [ 1.6901, 13.5081 ], [ 1.6429, 13.5131 ], [ 1.6141, 13.5401 ], [ 1.5579, 13.5383 ], [ 1.5067, 13.5769 ], [ 1.4915, 13.6035 ], [ 1.4581, 13.6141 ], [ 1.4507, 13.5985 ], [ 1.4297, 13.5707 ], [ 1.3699, 13.5819 ], [ 1.3631, 13.5585 ], [ 1.3853, 13.5351 ], [ 1.3867, 13.5061 ], [ 1.3687, 13.4845 ], [ 1.3113, 13.5097 ], [ 1.3051, 13.4831 ], [ 1.3255, 13.4511 ], [ 1.2935, 13.4301 ], [ 1.2911, 13.3795 ], [ 1.3181, 13.3629 ], [ 1.2793, 13.3499 ] ] ] } },
{ "type": "Feature", "properties": { "iso3": "NER", "unit_id": "23599985B18642698649368", "unit_name": "Ouallam" }, "geometry": { "type": "Polygon", "coordinates": [ [ [ 1.4865, 15.0045 ], [ 1.4813, 14.9545 ], [ 1.4907, 14.9511 ], [ 1.4897, 14.7113 ], [ 1.5287, 14.6935 ], [ 1.6229, 14.5113 ], [ 1.6229, 14.4927 ], [ 1.6789, 14.4207 ], [ 1.7297, 14.1597 ], [ 1.7551, 14.1071 ], [ 1.7831, 14.0767 ], [ 1.8653, 14.0479 ], [ 1.8711, 13.9081 ], [ 1.8585, 13.8801 ], [ 1.9319, 13.8809 ], [ 1.9617, 13.8553 ], [ 2.0515, 13.8595 ], [ 2.0685, 13.8763 ], [ 2.1561, 13.8805 ], [ 2.2235, 13.8397 ], [ 2.2917, 13.8755 ], [ 2.4013, 13.8749 ], [ 2.5275, 13.8651 ], [ 2.5493, 13.8755 ], [ 2.6021, 13.8763 ], [ 2.6147, 13.8945 ], [ 2.6063, 13.9205 ], [ 2.5621, 13.9211 ], [ 2.5557, 13.9577 ], [ 2.5965, 13.9795 ], [ 2.5993, 13.9999 ], [ 2.5683, 14.0353 ], [ 2.5697, 14.0637 ], [ 2.6175, 14.0847 ], [ 2.6483, 14.1205 ], [ 2.6673, 14.1045 ], [ 2.7727, 14.1073 ], [ 2.7453, 14.1487 ], [ 2.7495, 14.1613 ], [ 2.8099, 14.1669 ], [ 2.8085, 14.2077 ], [ 2.7683, 14.2399 ], [ 2.7783, 14.2981 ], [ 2.8309, 14.4153 ], [ 2.8041, 14.4599 ], [ 2.7941, 14.4951 ], [ 2.8117, 14.6157 ], [ 2.8095, 14.6761 ], [ 2.8041, 14.7253 ], [ 2.8007, 14.8801 ], [ 2.7601, 14.8571 ], [ 2.7283, 14.8527 ], [ 2.6933, 14.8801 ], [ 2.6877, 14.9153 ], [ 2.6691, 14.9207 ], [ 2.6549, 14.9021 ], [ 2.6463, 14.8971 ], [ 2.6507, 14.8661 ], [ 2.6755, 14.8055 ], [ 2.6915, 14.7995 ], [ 2.7083, 14.8091 ], [ 2.7209, 14.8091 ], [ 2.7235, 14.7317 ], [ 2.6993, 14.7075 ], [ 2.6261, 14.7133 ], [ 2.5347, 14.7451 ], [ 2.4157, 14.7511 ], [ 2.3583, 14.8309 ], [ 2.3551, 14.8503 ], [ 2.3029, 14.9047 ], [ 2.2661, 14.9353 ], [ 2.2419, 14.9627 ], [ 2.2401, 14.9887 ], [ 2.2013, 14.9851 ], [ 2.1263, 14.9649 ], [ 2.0967, 14.9623 ], [ 2.0359, 14.9847 ], [ 1.9299, 15.0045 ], [ 1.8585, 15.0395 ], [ 1.8037, 15.1061 ], [ 1.8047, 15.2915 ], [ 1.4915, 15.2689 ], [ 1.4865, 15.0045 ] ] ] } },
{ "type": "Feature", "properties": { "iso3": "NER", "unit_id": "23599985B31350615327928", "unit_name": "Banibangou" }, "geometry": { "type": "Polygon", "coordinates": [ [ [ 2.8007, 14.8801 ], [ 2.8127, 14.8971 ], [ 2.8611, 14.9161 ], [ 2.9679, 14.9737 ], [ 2.9949, 14.9821 ], [ 3.0433, 15.0325 ], [ 3.0619, 15.0567 ], [ 3.0665, 15.1081 ], [ 3.0391, 15.1835 ], [ 3.0305, 15.2933 ], [ 3.0203, 15.3465 ], [ 2.6741, 15.3653 ], [ 2.5917, 15.3653 ], [ 2.3483, 15.3429 ], [ 2.0929, 15.3241 ], [ 1.8047, 15.2915 ], [ 1.8037, 15.1061 ], [ 1.8585, 15.0395 ], [ 1.9299, 15.0045 ], [ 2.0359, 14.9847 ], [ 2.0967, 14.9623 ], [ 2.1263, 14.9649 ], [ 2.2013, 14.9851 ], [ 2.2401, 14.9887 ], [ 2.2419, 14.9627 ], [ 2.2661, 14.9353 ], [ 2.3029, 14.9047 ], [ 2.3551, 14.8503 ], [ 2.3583, 14.8309 ], [ 2.4157, 14.7511 ], [ 2.5347, 14.7451 ], [ 2.6261, 14.7133 ], [ 2.6993, 14.7075 ], [ 2.7235, 14.7317 ], [ 2.7209, 14.8091 ], [ 2.7083, 14.8091 ], [ 2.6915, 14.7995 ], [ 2.6755, 14.8055 ], [ 2.6507, 14.8661 ], [ 2.6463, 14.8971 ], [ 2.6549, 14.9021 ], [ 2.6691, 14.9207 ], [ 2.6877, 14.9153 ], [ 2.6933, 14.8801 ], [ 2.7283, 14.8527 ], [ 2.7601, 14.8571 ], [ 2.8007, 14.8801 ] ] ] } },
{ "type": "Feature", "properties": { "iso3": "NER", "unit_id": "23599985B37846693808008", "unit_name": "Niamey" }, "geometry": { "type": "Polygon", "coordinates": [ [ [ 1.9799, 13.5919 ], [ 2.0431, 13.5323 ], [ 2.0305, 13.5217 ], [ 2.0229, 13.4867 ], [ 1.9779, 13.4811 ], [ 1.9695, 13.4705 ], [ 1.9659, 13.4381 ], [ 1.9911, 13.4101 ], [ 2.0235, 13.4017 ], [ 2.0543, 13.4207 ], [ 2.0959, 13.4221 ], [ 2.1253, 13.4031 ], [ 2.1373, 13.4361 ], [ 2.1457, 13.4487 ], [ 2.2109, 13.4529 ], [ 2.2291, 13.4697 ], [ 2.2257, 13.5237 ], [ 2.2545, 13.5975 ], [ 2.2551, 13.6347 ], [ 2.1885, 13.6333 ], [ 2.1505, 13.6271 ], [ 2.0895, 13.6241 ], [ 2.0613, 13.6473 ], [ 2.0431, 13.6467 ], [ 2.0115, 13.5919 ], [ 1.9799, 13.5919 ] ] ] } },
{ "type": "Feature", "properties": { "iso3": "NER", "unit_id": "23599985B29201413246391", "unit_name": "Kollo" }, "geometry": { "type": "Polygon", "coordinates": [ [ [ 1.6551, 13.7759 ], [ 1.5715, 13.7017 ], [ 1.5335, 13.6627 ], [ 1.4909, 13.6535 ], [ 1.4915, 13.6035 ], [ 1.5067, 13.5769 ], [ 1.5579, 13.5383 ], [ 1.6141, 13.5401 ], [ 1.6429, 13.5131 ], [ 1.6901, 13.5081 ], [ 1.7453, 13.4901 ], [ 1.7839, 13.4519 ], [ 1.7925, 13.4129 ], [ 1.8141, 13.4053 ], [ 1.8647, 13.3279 ], [ 1.8749, 13.2705 ], [ 1.9035, 13.2603 ], [ 1.8889, 13.2477 ], [ 1.9039, 13.2237 ], [ 1.8787, 13.2073 ], [ 1.9351, 13.1749 ], [ 1.9659, 13.1461 ], [ 2.0109, 13.1883 ], [ 2.0097, 13.2245 ], [ 2.0645, 13.2357 ], [ 2.1529, 13.1599 ], [ 2.2263, 13.1671 ], [ 2.3223, 13.1847 ], [ 2.3573, 13.2127 ], [ 2.3575, 13.2415 ], [ 2.3351, 13.2671 ], [ 2.3397, 13.2849 ], [ 2.3683, 13.2607 ], [ 2.3735, 13.1447 ], [ 2.3887, 13.0669 ], [ 2.3747, 13.0497 ], [ 2.3731, 13.0153 ], [ 2.3857, 12.9187 ], [ 2.4043, 12.8407 ], [ 2.4621, 12.8047 ], [ 2.5027, 12.7251 ], [ 2.4807, 12.6845 ], [ 2.5057, 12.6643 ], [ 2.5245, 12.6627 ], [ 2.5369, 12.6097 ], [ 2.5151, 12.5801 ], [ 2.5619, 12.5035 ], [ 2.6375, 12.5659 ], [ 2.6275, 12.6425 ], [ 2.6369, 12.6595 ], [ 2.5931, 12.7859 ], [ 2.6197, 12.8671 ], [ 2.6883, 12.9109 ], [ 2.7087, 12.9109 ], [ 2.7055, 12.9499 ], [ 2.6439, 12.9661 ], [ 2.5823, 12.9655 ], [ 2.5151, 13.0247 ], [ 2.5089, 13.0575 ], [ 2.4605, 13.1215 ], [ 2.4823, 13.1761 ], [ 2.5229, 13.2025 ], [ 2.6197, 13.1839 ], [ 2.6971, 13.2547 ], [ 2.8129, 13.2715 ], [ 2.8179, 13.3425 ], [ 2.8469, 13.3495 ], [ 2.8609, 13.3765 ], [ 2.8519, 13.4553 ], [ 2.8989, 13.5219 ], [ 2.8425, 13.5955 ], [ 2.8387, 13.6351 ], [ 2.7561, 13.6531 ], [ 2.7325, 13.6521 ], [ 2.6557, 13.6933 ], [ 2.6547, 13.7277 ], [ 2.6591, 13.7731 ], [ 2.6361, 13.7949 ], [ 2.6337, 13.8083 ], [ 2.5621, 13.8757 ], [ 2.5493, 13.8755 ], [ 2.5275, 13.8651 ], [ 2.4013, 13.8749 ], [ 2.2917, 13.8755 ], [ 2.2235, 13.8397 ], [ 2.1561, 13.8805 ], [ 2.0685, 13.8763 ], [ 2.0515, 13.8595 ], [ 1.9617, 13.8553 ], [ 1.9319, 13.8809 ], [ 1.8585, 13.8801 ], [ 1.7907, 13.8639 ], [ 1.7577, 13.8199 ], [ 1.7373, 13.7691 ], [ 1.6991, 13.7537 ], [ 1.6711, 13.7547 ], [ 1.6551, 13.7759 ] ], [ [ 1.9799, 13.5919 ], [ 2.0115, 13.5919 ], [ 2.0431, 13.6467 ], [ 2.0613, 13.6473 ], [ 2.0895, 13.6241 ], [ 2.1505, 13.6271 ], [ 2.1885, 13.6333 ], [ 2.2551, 13.6347 ], [ 2.2545, 13.5975 ], [ 2.2257, 13.5237 ], [ 2.2291, 13.4697 ], [ 2.2109, 13.4529 ], [ 2.1457, 13.4487 ], [ 2.1373, 13.4361 ], [ 2.1253, 13.4031 ], [ 2.0959, 13.4221 ], [ 2.0543, 13.4207 ], [ 2.0235, 13.4017 ], [ 1.9911, 13.4101 ], [ 1.9659, 13.4381 ], [ 1.9695, 13.4705 ], [ 1.9779, 13.4811 ], [ 2.0229, 13.4867 ], [ 2.0305, 13.5217 ], [ 2.0431, 13.5323 ], [ 1.9799, 13.5919 ] ] ] } },
{ "type": "Feature", "properties": { "iso3": "NER", "unit_id": "23599985B83200163093073", "unit_name": "Say" }, "geometry": { "type": "Polygon", "coordinates": [ [ [ 1.8529, 12.6153 ], [ 1.8783, 12.6165 ], [ 1.9421, 12.7045 ], [ 1.9521, 12.6885 ], [ 1.9841, 12.7313 ], [ 2.0869, 12.7195 ], [ 2.1089, 12.7195 ], [ 2.1669, 12.6725 ], [ 2.1589, 12.6375 ], [ 2.2507, 12.5905 ], [ 2.2517, 12.5077 ], [ 2.2847, 12.4757 ], [ 2.2767, 12.4149 ], [ 2.1739, 12.4089 ], [ 2.1269, 12.3869 ], [ 2.1219, 12.3759 ], [ 2.1005, 12.3951 ], [ 2.0751, 12.3859 ], [ 2.0801, 12.3499 ], [ 2.0699, 12.3439 ], [ 2.1079, 12.2981 ], [ 2.1209, 12.2751 ], [ 2.2087, 12.1693 ], [ 2.2927, 12.0445 ], [ 2.3317, 12.0105 ], [ 2.3337, 11.9915 ], [ 2.3975, 11.9245 ], [ 2.4135, 11.9025 ], [ 2.4065, 11.9315 ], [ 2.4205, 11.9455 ], [ 2.4315, 11.9435 ], [ 2.4425, 11.9665 ], [ 2.4605, 11.9635 ], [ 2.4675, 11.9985 ], [ 2.4485, 12.0175 ], [ 2.4377, 12.0479 ], [ 2.4083, 12.1011 ], [ 2.3959, 12.1539 ], [ 2.3845, 12.2243 ], [ 2.3915, 12.2479 ], [ 2.4495, 12.2509 ], [ 2.5101, 12.2659 ], [ 2.5321, 12.2753 ], [ 2.5665, 12.2717 ], [ 2.6079, 12.2979 ], [ 2.6491, 12.3035 ], [ 2.6785, 12.2999 ], [ 2.7011, 12.2835 ], [ 2.7195, 12.3121 ], [ 2.7269, 12.3499 ], [ 2.7669, 12.3473 ], [ 2.7959, 12.3843 ], [ 2.8355, 12.4125 ], [ 2.7985, 12.4331 ], [ 2.7717, 12.4383 ], [ 2.7467, 12.4529 ], [ 2.7467, 12.5219 ], [ 2.7251, 12.5641 ], [ 2.6917, 12.5091 ], [ 2.6395, 12.5157 ], [ 2.6419, 12.5411 ], [ 2.6375, 12.5659 ], [ 2.5619, 12.5035 ], [ 2.5151, 12.5801 ], [ 2.5369, 12.6097 ], [ 2.5245, 12.6627 ], [ 2.5057, 12.6643 ], [ 2.4807, 12.6845 ], [ 2.5027, 12.7251 ], [ 2.4621, 12.8047 ], [ 2.4043, 12.8407 ], [ 2.3857, 12.9187 ], [ 2.3731, 13.0153 ], [ 2.3747, 13.0497 ], [ 2.3887, 13.0669 ], [ 2.3735, 13.1447 ], [ 2.3683, 13.2607 ], [ 2.3397, 13.2849 ], [ 2.3351, 13.2671 ], [ 2.3575, 13.2415 ], [ 2.3573, 13.2127 ], [ 2.3223, 13.1847 ], [ 2.2263, 13.1671 ], [ 2.1529, 13.1599 ], [ 2.0645, 13.2357 ], [ 2.0097, 13.2245 ], [ 2.0109, 13.1883 ], [ 1.9659, 13.1461 ], [ 1.9659, 13.1313 ], [ 1.9417, 13.1205 ], [ 1.9253, 13.0821 ], [ 1.8535, 13.0041 ], [ 1.8541, 12.9443 ], [ 1.8369, 12.9239 ], [ 1.8261, 12.8929 ], [ 1.8333, 12.8521 ], [ 1.8055, 12.8449 ], [ 1.8037, 12.8143 ], [ 1.7861, 12.8021 ], [ 1.7833, 12.7537 ], [ 1.7475, 12.6847 ], [ 1.7701, 12.6525 ], [ 1.8529, 12.6153 ] ] ] } },
{ "type": "Feature", "properties": { "iso3": "NER", "unit_id": "23599985B42967903288320", "unit_name": "Falmèy" }, "geometry": { "type": "Polygon", "coordinates": [ [ [ 2.6275, 12.6425 ], [ 2.6419, 12.5411 ], [ 2.6395, 12.5157 ], [ 2.6917, 12.5091 ], [ 2.7251, 12.5641 ], [ 2.7467, 12.5219 ], [ 2.7467, 12.4529 ], [ 2.7717, 12.4383 ], [ 2.7985, 12.4331 ], [ 2.8355, 12.4125 ], [ 2.8857, 12.3909 ], [ 2.9747, 12.2841 ], [ 3.0017, 12.2841 ], [ 2.9967, 12.4049 ], [ 2.9777, 12.6765 ], [ 3.0027, 12.6975 ], [ 2.9797, 12.7145 ], [ 2.9767, 12.7413 ], [ 2.9317, 12.7263 ], [ 2.9217, 12.7463 ], [ 2.8959, 12.7813 ], [ 2.8229, 12.7863 ], [ 2.7499, 12.8043 ], [ 2.7161, 12.8173 ], [ 2.6701, 12.8173 ], [ 2.6113, 12.8417 ], [ 2.5931, 12.7859 ], [ 2.6369, 12.6595 ], [ 2.6275, 12.6425 ] ] ] } },
{ "type": "Feature", "properties": { "iso3": "NER", "unit_id": "23599985B30838539224942", "unit_name": "Boboye" }, "geometry": { "type": "Polygon", "coordinates": [ [ [ 2.6113, 12.8417 ], [ 2.6701, 12.8173 ], [ 2.7161, 12.8173 ], [ 2.7499, 12.8043 ], [ 2.8229, 12.7863 ], [ 2.8959, 12.7813 ], [ 2.9217, 12.7463 ], [ 2.9317, 12.7263 ], [ 2.9767, 12.7413 ], [ 2.9767, 12.8163 ], [ 2.9987, 12.8283 ], [ 2.9987, 12.8891 ], [ 2.9797, 12.8951 ], [ 3.0087, 12.9511 ], [ 2.9947, 12.9811 ], [ 2.9937, 12.9961 ], [ 3.0021, 13.0035 ], [ 3.0053, 13.1097 ], [ 3.0115, 13.1359 ], [ 2.9809, 13.1789 ], [ 2.9805, 13.1993 ], [ 3.0185, 13.2349 ], [ 2.9981, 13.2737 ], [ 3.0043, 13.3833 ], [ 3.0721, 13.4865 ], [ 3.1091, 13.5207 ], [ 3.1193, 13.5961 ], [ 3.0395, 13.5993 ], [ 3.0139, 13.6255 ], [ 2.9985, 13.6229 ], [ 2.9857, 13.5961 ], [ 2.9327, 13.5271 ], [ 2.8989, 13.5219 ], [ 2.8519, 13.4553 ], [ 2.8609, 13.3765 ], [ 2.8469, 13.3495 ], [ 2.8179, 13.3425 ], [ 2.8129, 13.2715 ], [ 2.6971, 13.2547 ], [ 2.6197, 13.1839 ], [ 2.5229, 13.2025 ], [ 2.4823, 13.1761 ], [ 2.4605, 13.1215 ], [ 2.5089, 13.0575 ], [ 2.5151, 13.0247 ], [ 2.5823, 12.9655 ], [ 2.6439, 12.9661 ], [ 2.7055, 12.9499 ], [ 2.7087, 12.9109 ], [ 2.6883, 12.9109 ], [ 2.6197, 12.8671 ], [ 2.6113, 12.8417 ] ] ] } },
{ "type": "Feature", "properties": { "iso3": "NER", "unit_id": "23599985B53989443832132", "unit_name": "Balléyara" }, "geometry": { "type": "Polygon", "coordinates": [ [ [ 2.5621, 13.8757 ], [ 2.6337, 13.8083 ], [ 2.6361, 13.7949 ], [ 2.6591, 13.7731 ], [ 2.6547, 13.7277 ], [ 2.6557, 13.6933 ], [ 2.7325, 13.6521 ], [ 2.7561, 13.6531 ], [ 2.8387, 13.6351 ], [ 2.8425, 13.5955 ], [ 2.8989, 13.5219 ], [ 2.9327, 13.5271 ], [ 2.9857, 13.5961 ], [ 2.9985, 13.6229 ], [ 3.0139, 13.6255 ], [ 3.0395, 13.5993 ], [ 3.1193, 13.5961 ], [ 3.1475, 13.7609 ], [ 3.1145, 13.7709 ], [ 3.0425, 13.7759 ], [ 3.0317, 13.7899 ], [ 3.0447, 13.8287 ], [ 2.9297, 13.8497 ], [ 2.8869, 13.8787 ], [ 2.8149, 13.8727 ], [ 2.7521, 13.8807 ], [ 2.6931, 13.8667 ], [ 2.6247, 13.8615 ], [ 2.5891, 13.8761 ], [ 2.5621, 13.8757 ] ] ] } },
{ "type": "Feature", "properties": { "iso3": "NER", "unit_id": "23599985B13950466033624", "unit_name": "Dosso" }, "geometry": { "type": "Polygon", "coordinates": [ [ [ 3.0017, 12.2841 ], [ 3.0323, 12.2469 ], [ 3.0549, 12.2041 ], [ 3.0785, 12.1765 ], [ 3.1795, 12.1133 ], [ 3.2155, 12.1235 ], [ 3.2721, 12.1247 ], [ 3.2973, 12.1499 ], [ 3.2985, 12.1741 ], [ 3.3069, 12.2071 ], [ 3.3015, 12.2865 ], [ 3.4081, 12.4195 ], [ 3.4219, 12.4783 ], [ 3.4141, 12.5271 ], [ 3.4057, 12.6401 ], [ 3.4243, 12.6515 ], [ 3.5271, 12.6499 ], [ 3.5583, 12.7365 ], [ 3.5573, 12.8031 ], [ 3.5229, 12.8489 ], [ 3.5397, 12.8801 ], [ 3.5891, 12.8929 ], [ 3.6385, 12.9385 ], [ 3.7227, 13.0747 ], [ 3.7301, 13.0935 ], [ 3.7345, 13.2593 ], [ 3.7921, 13.2593 ], [ 3.7883, 13.2845 ], [ 3.7625, 13.2893 ], [ 3.7467, 13.2985 ], [ 3.7463, 13.3077 ], [ 3.8019, 13.3099 ], [ 3.8517, 13.3437 ], [ 3.8933, 13.3611 ], [ 3.8929, 13.3739 ], [ 3.8453, 13.4079 ], [ 3.8443, 13.4723 ], [ 3.8967, 13.4765 ], [ 3.9253, 13.5489 ], [ 3.7281, 13.5519 ], [ 3.6291, 13.4421 ], [ 3.6257, 13.3629 ], [ 3.5939, 13.3317 ], [ 3.5591, 13.3223 ], [ 3.5267, 13.3423 ], [ 3.4985, 13.3423 ], [ 3.4477, 13.3051 ], [ 3.4247, 13.3099 ], [ 3.4289, 13.3565 ], [ 3.4707, 13.4625 ], [ 3.4971, 13.4855 ], [ 3.5331, 13.4865 ], [ 3.5441, 13.4995 ], [ 3.5451, 13.5603 ], [ 3.4647, 13.5693 ], [ 3.4507, 13.5791 ], [ 3.4097, 13.5779 ], [ 3.4323, 13.5577 ], [ 3.4217, 13.5483 ], [ 3.3949, 13.5497 ], [ 3.3847, 13.5569 ], [ 3.3375, 13.5351 ], [ 3.3063, 13.5345 ], [ 3.2975, 13.5403 ], [ 3.2591, 13.5109 ], [ 3.2391, 13.4637 ], [ 3.2303, 13.4513 ], [ 3.2349, 13.4077 ], [ 3.2757, 13.3705 ], [ 3.2791, 13.3589 ], [ 3.2403, 13.3517 ], [ 3.2255, 13.3435 ], [ 3.2079, 13.3429 ], [ 3.2053, 13.3295 ], [ 3.1395, 13.3547 ], [ 3.1147, 13.3847 ], [ 3.1089, 13.4301 ], [ 3.0935, 13.4573 ], [ 3.0843, 13.4979 ], [ 3.0721, 13.4865 ], [ 3.0043, 13.3833 ], [ 2.9981, 13.2737 ], [ 3.0185, 13.2349 ], [ 2.9805, 13.1993 ], [ 2.9809, 13.1789 ], [ 3.0115, 13.1359 ], [ 3.0053, 13.1097 ], [ 3.0021, 13.0035 ], [ 2.9937, 12.9961 ], [ 2.9947, 12.9811 ], [ 3.0087, 12.9511 ], [ 2.9797, 12.8951 ], [ 2.9987, 12.8891 ], [ 2.9987, 12.8283 ], [ 2.9767, 12.8163 ], [ 2.9767, 12.7413 ], [ 2.9797, 12.7145 ], [ 3.0027, 12.6975 ], [ 2.9777, 12.6765 ], [ 2.9967, 12.4049 ], [ 3.0017, 12.2841 ] ] ] } },
{ "type": "Feature", "properties": { "iso3": "NER", "unit_id": "23599985B94426243670688", "unit_name": "Gaya" }, "geometry": { "type": "Polygon", "coordinates": [ [ [ 3.1795, 12.1133 ], [ 3.1943, 12.0803 ], [ 3.2803, 12.0125 ], [ 3.2627, 11.9841 ], [ 3.3151, 11.9183 ], [ 3.3215, 11.8875 ], [ 3.3335, 11.8757 ], [ 3.4065, 11.8805 ], [ 3.4203, 11.8721 ], [ 3.4533, 11.8725 ], [ 3.4869, 11.8597 ], [ 3.5289, 11.8163 ], [ 3.5333, 11.7801 ], [ 3.5635, 11.7755 ], [ 3.5693, 11.7619 ], [ 3.5489, 11.7441 ], [ 3.5635, 11.7265 ], [ 3.5885, 11.7193 ], [ 3.6133, 11.6895 ], [ 3.6819, 11.7567 ], [ 3.6843, 11.7777 ], [ 3.6333, 11.8359 ], [ 3.6277, 11.8465 ], [ 3.6269, 11.9295 ], [ 3.6823, 11.9731 ], [ 3.6793, 12.0057 ], [ 3.6525, 12.0385 ], [ 3.6379, 12.1131 ], [ 3.6439, 12.2165 ], [ 3.6653, 12.2671 ], [ 3.6541, 12.3667 ], [ 3.6197, 12.3807 ], [ 3.5971, 12.3669 ], [ 3.5055, 12.3829 ], [ 3.4737, 12.4007 ], [ 3.4019, 12.4117 ], [ 3.3015, 12.2865 ], [ 3.3069, 12.2071 ], [ 3.2985, 12.1741 ], [ 3.2973, 12.1499 ], [ 3.2721, 12.1247 ], [ 3.2155, 12.1235 ], [ 3.1795, 12.1133 ] ] ] } },
{ "type": "Feature", "properties": { "iso3": "NER", "unit_id": "23599985B87103937584190", "unit_name": "Dioundiou" }, "geometry": { "type": "Polygon", "coordinates": [ [ [ 3.4019, 12.4117 ], [ 3.4737, 12.4007 ], [ 3.5055, 12.3829 ], [ 3.5971, 12.3669 ], [ 3.6197, 12.3807 ], [ 3.6541, 12.3667 ], [ 3.6503, 12.5281 ], [ 3.7091, 12.5733 ], [ 3.7419, 12.6059 ], [ 3.7715, 12.6199 ], [ 3.8125, 12.6515 ], [ 3.8445, 12.6885 ], [ 3.7615, 12.7827 ], [ 3.7409, 12.8247 ], [ 3.7303, 12.8597 ], [ 3.6885, 12.9001 ], [ 3.639, 12.9392 ], [ 3.5891, 12.8929 ], [ 3.5397, 12.8801 ], [ 3.5229, 12.8489 ], [ 3.5573, 12.8031 ], [ 3.5583, 12.7365 ], [ 3.5271, 12.6499 ], [ 3.4243, 12.6515 ], [ 3.4057, 12.6401 ], [ 3.4141, 12.5271 ], [ 3.4219, 12.4783 ], [ 3.4081, 12.4195 ], [ 3.4019, 12.4117 ] ] ] } },
{ "type": "Feature", "properties": { "iso3": "NER", "unit_id": "23599985B22885280076406", "unit_name": "Tibiri" }, "geometry": { "type": "Polygon", "coordinates": [ [ [ 3.639, 12.9392 ], [ 3.6885, 12.9001 ], [ 3.7303, 12.8597 ], [ 3.7409, 12.8247 ], [ 3.7615, 12.7827 ], [ 3.8445, 12.6885 ], [ 3.8945, 12.7199 ], [ 3.9577, 12.7865 ], [ 4.0349, 12.9025 ], [ 4.0519, 12.9343 ], [ 4.1109, 12.9993 ], [ 4.1209, 13.0829 ], [ 4.1379, 13.1459 ], [ 4.1357, 13.3211 ], [ 4.1031, 13.3157 ], [ 4.0721, 13.3193 ], [ 4.0159, 13.3711 ], [ 4.0331, 13.3989 ], [ 3.9947, 13.4183 ], [ 3.9253, 13.4219 ], [ 3.9235, 13.4885 ], [ 3.9061, 13.5001 ], [ 3.8967, 13.4765 ], [ 3.8443, 13.4723 ], [ 3.8453, 13.4079 ], [ 3.8929, 13.3739 ], [ 3.8933, 13.3611 ], [ 3.8517, 13.3437 ], [ 3.8019, 13.3099 ], [ 3.7463, 13.3077 ], [ 3.7467, 13.2985 ], [ 3.7625, 13.2893 ], [ 3.7883, 13.2845 ], [ 3.7921, 13.2593 ], [ 3.7345, 13.2593 ], [ 3.7301, 13.0935 ], [ 3.7227, 13.0747 ], [ 3.639, 12.9392 ] ] ] } },
{ "type": "Feature", "properties": { "iso3": "NER", "unit_id": "23599985B16490635358595", "unit_name": "Loga" }, "geometry": { "type": "Polygon", "coordinates": [ [ [ 3.0843, 13.4978 ], [ 3.0935, 13.4573 ], [ 3.1089, 13.4301 ], [ 3.1147, 13.3847 ], [ 3.1395, 13.3547 ], [ 3.2053, 13.3295 ], [ 3.2079, 13.3429 ], [ 3.2255, 13.3435 ], [ 3.2403, 13.3517 ], [ 3.2791, 13.3589 ], [ 3.2757, 13.3705 ], [ 3.2349, 13.4077 ], [ 3.2303, 13.4513 ], [ 3.2391, 13.4637 ], [ 3.2591, 13.5109 ], [ 3.2975, 13.5403 ], [ 3.3063, 13.5345 ], [ 3.3375, 13.5351 ], [ 3.3847, 13.5569 ], [ 3.3949, 13.5497 ], [ 3.4217, 13.5483 ], [ 3.4323, 13.5577 ], [ 3.4097, 13.5779 ], [ 3.4507, 13.5791 ], [ 3.4647, 13.5693 ], [ 3.5451, 13.5603 ], [ 3.5441, 13.4995 ], [ 3.5331, 13.4865 ], [ 3.4971, 13.4855 ], [ 3.4707, 13.4625 ], [ 3.4289, 13.3565 ], [ 3.4247, 13.3099 ], [ 3.4477, 13.3051 ], [ 3.4985, 13.3423 ], [ 3.5267, 13.3423 ], [ 3.5591, 13.3223 ], [ 3.5939, 13.3317 ], [ 3.6257, 13.3629 ], [ 3.6291, 13.4421 ], [ 3.7281, 13.5519 ], [ 3.7915, 13.5863 ], [ 3.7955, 13.7277 ], [ 3.7467, 13.7649 ], [ 3.6779, 13.9527 ], [ 3.6737, 13.9479 ], [ 3.6405, 13.9361 ], [ 3.6039, 13.8883 ], [ 3.4965, 13.8039 ], [ 3.4477, 13.7831 ], [ 3.3345, 13.7423 ], [ 3.1821, 13.8019 ], [ 3.1475, 13.7609 ], [ 3.1091, 13.5207 ], [ 3.0843, 13.4978 ] ] ] } },
{ "type": "Feature", "properties": { "iso3": "NER", "unit_id": "23599985B71800364259973", "unit_name": "Dogondoutchi" }, "geometry": { "type": "Polygon", "coordinates": [ [ [ 3.9061, 13.5001 ], [ 3.9235, 13.4885 ], [ 3.9253, 13.4219 ], [ 3.9947, 13.4183 ], [ 4.0331, 13.3989 ], [ 4.0159, 13.3711 ], [ 4.0721, 13.3193 ], [ 4.1031, 13.3157 ], [ 4.1359, 13.3219 ], [ 4.1327, 13.4585 ], [ 4.1433, 13.4737 ], [ 4.2111, 13.4791 ], [ 4.3425, 13.6005 ], [ 4.3649, 13.6035 ], [ 4.3755, 13.6205 ], [ 4.4675, 13.7013 ], [ 4.5063, 13.7177 ], [ 4.6077, 13.7491 ], [ 4.6089, 13.7855 ], [ 4.5989, 13.8297 ], [ 4.5701, 13.8905 ], [ 4.5653, 13.9147 ], [ 4.4993, 13.9801 ], [ 4.4763, 14.0591 ], [ 4.4481, 14.2265 ], [ 4.4257, 14.2625 ], [ 4.4251, 14.3833 ], [ 4.4383, 14.4371 ], [ 4.3605, 14.5967 ], [ 4.2801, 14.6343 ], [ 4.2753, 14.5323 ], [ 4.1869, 14.5051 ], [ 4.1785, 14.4441 ], [ 4.0789, 14.4121 ], [ 3.9887, 14.3961 ], [ 3.9267, 14.3971 ], [ 3.9275, 14.3811 ], [ 3.8683, 14.3171 ], [ 3.8129, 14.2411 ], [ 3.7715, 14.1649 ], [ 3.7537, 14.0973 ], [ 3.7499, 14.0483 ], [ 3.7265, 14.0079 ], [ 3.6779, 13.9527 ], [ 3.7467, 13.7649 ], [ 3.7955, 13.7277 ], [ 3.7915, 13.5863 ], [ 3.7281, 13.5519 ], [ 3.9253, 13.5489 ], [ 3.9061, 13.5001 ] ] ] } },
{ "type": "Feature", "properties": { "iso3": "NER", "unit_id": "23599985B22646074094064", "unit_name": "Filingué" }, "geometry": { "type": "Polygon", "coordinates": [ [ [ 2.5891, 13.8761 ], [ 2.6247, 13.8615 ], [ 2.6931, 13.8667 ], [ 2.7521, 13.8807 ], [ 2.8149, 13.8727 ], [ 2.8869, 13.8787 ], [ 2.9297, 13.8497 ], [ 3.0447, 13.8287 ], [ 3.0317, 13.7899 ], [ 3.0425, 13.7759 ], [ 3.1145, 13.7709 ], [ 3.1475, 13.7609 ], [ 3.1821, 13.8019 ], [ 3.3345, 13.7423 ], [ 3.4477, 13.7831 ], [ 3.4965, 13.8039 ], [ 3.6039, 13.8883 ], [ 3.6405, 13.9361 ], [ 3.6737, 13.9479 ], [ 3.7265, 14.0079 ], [ 3.7499, 14.0483 ], [ 3.7537, 14.0973 ], [ 3.7715, 14.1649 ], [ 3.8129, 14.2411 ], [ 3.8683, 14.3171 ], [ 3.9275, 14.3811 ], [ 3.9267, 14.3971 ], [ 3.8891, 14.5259 ], [ 3.8703, 14.5409 ], [ 3.8165, 14.4449 ], [ 3.8335, 14.4009 ], [ 3.8395, 14.3531 ], [ 3.8285, 14.3281 ], [ 3.7315, 14.3719 ], [ 3.6837, 14.5067 ], [ 3.6687, 14.5227 ], [ 3.6047, 14.4977 ], [ 3.5917, 14.4589 ], [ 3.5509, 14.4209 ], [ 3.4689, 14.4279 ], [ 3.4141, 14.4459 ], [ 3.4091, 14.4817 ], [ 3.4459, 14.5079 ], [ 3.4251, 14.5357 ], [ 3.3831, 14.5397 ], [ 3.3781, 14.5757 ], [ 3.4091, 14.6107 ], [ 3.3901, 14.6635 ], [ 3.3511, 14.6825 ], [ 3.3481, 14.7305 ], [ 3.3023, 14.7315 ], [ 3.2813, 14.7715 ], [ 3.2313, 14.7803 ], [ 2.8007, 14.8801 ], [ 2.8041, 14.7253 ], [ 2.8095, 14.6761 ], [ 2.8117, 14.6157 ], [ 2.7941, 14.4951 ], [ 2.8041, 14.4599 ], [ 2.8309, 14.4153 ], [ 2.7783, 14.2981 ], [ 2.7683, 14.2399 ], [ 2.8085, 14.2077 ], [ 2.8099, 14.1669 ], [ 2.7495, 14.1613 ], [ 2.7453, 14.1487 ], [ 2.7727, 14.1073 ], [ 2.6673, 14.1045 ], [ 2.6483, 14.1205 ], [ 2.6175, 14.0847 ], [ 2.5697, 14.0637 ], [ 2.5683, 14.0353 ], [ 2.5993, 13.9999 ], [ 2.5965, 13.9795 ], [ 2.5557, 13.9577 ], [ 2.5621, 13.9211 ], [ 2.6063, 13.9205 ], [ 2.6147, 13.8945 ], [ 2.6021, 13.8763 ], [ 2.5891, 13.8761 ] ] ] } },
{ "type": "Feature", "properties": { "iso3": "NER", "unit_id": "23599985B53990886897515", "unit_name": "Bagaroua" }, "geometry": { "type": "Polygon", "coordinates": [ [ [ 4.4699, 14.0991 ], [ 4.7251, 14.0763 ], [ 4.9339, 14.0495 ], [ 4.9209, 14.1807 ], [ 4.8909, 14.2123 ], [ 4.8821, 14.2585 ], [ 4.8813, 14.2915 ], [ 4.9121, 14.3231 ], [ 4.9201, 14.3539 ], [ 4.9095, 14.3709 ], [ 4.9047, 14.5061 ], [ 4.8763, 14.4955 ], [ 4.5947, 14.5919 ], [ 4.5033, 14.7053 ], [ 4.2159, 14.7005 ], [ 4.2575, 14.6499 ], [ 4.2801, 14.6343 ], [ 4.3605, 14.5967 ], [ 4.4383, 14.4371 ], [ 4.4251, 14.3833 ], [ 4.4257, 14.2625 ], [ 4.4481, 14.2265 ], [ 4.4699, 14.0991 ] ] ] } },
{ "type": "Feature", "properties": { "iso3": "NER", "unit_id": "23599985B96366222257755", "unit_name": "Abala" }, "geometry": { "type": "Polygon", "coordinates": [ [ [ 2.8007, 14.8801 ], [ 3.2313, 14.7803 ], [ 3.2813, 14.7715 ], [ 3.3023, 14.7315 ], [ 3.3481, 14.7305 ], [ 3.3511, 14.6825 ], [ 3.3901, 14.6635 ], [ 3.4091, 14.6107 ], [ 3.3781, 14.5757 ], [ 3.3831, 14.5397 ], [ 3.4251, 14.5357 ], [ 3.4459, 14.5079 ], [ 3.4091, 14.4817 ], [ 3.4141, 14.4459 ], [ 3.4689, 14.4279 ], [ 3.5509, 14.4209 ], [ 3.5917, 14.4589 ], [ 3.6047, 14.4977 ], [ 3.6687, 14.5227 ], [ 3.6837, 14.5067 ], [ 3.7315, 14.3719 ], [ 3.8285, 14.3281 ], [ 3.8395, 14.3531 ], [ 3.8335, 14.4009 ], [ 3.8165, 14.4449 ], [ 3.8703, 14.5409 ], [ 3.8891, 14.5259 ], [ 3.9267, 14.3971 ], [ 3.9887, 14.3961 ], [ 4.0789, 14.4121 ], [ 4.1785, 14.4441 ], [ 4.1869, 14.5051 ], [ 4.2753, 14.5323 ], [ 4.2801, 14.6343 ], [ 4.2575, 14.6499 ], [ 4.2227, 14.6931 ], [ 4.1361, 14.7843 ], [ 4.1419, 15.0605 ], [ 4.1231, 15.1875 ], [ 4.0497, 15.3397 ], [ 3.9707, 15.5259 ], [ 3.9577, 15.5371 ], [ 3.9237, 15.6367 ], [ 3.8865, 15.7059 ], [ 3.8323, 15.6601 ], [ 3.7367, 15.6613 ], [ 3.6039, 15.5203 ], [ 3.5659, 15.5139 ], [ 3.5389, 15.4823 ], [ 3.5439, 15.4233 ], [ 3.5385, 15.3931 ], [ 3.5381, 15.3431 ], [ 3.0203, 15.3465 ], [ 3.0305, 15.2933 ], [ 3.0391, 15.1835 ], [ 3.0665, 15.1081 ], [ 3.0619, 15.0567 ], [ 3.0433, 15.0325 ], [ 2.9949, 14.9821 ], [ 2.9679, 14.9737 ], [ 2.8611, 14.9161 ], [ 2.8127, 14.8971 ], [ 2.8007, 14.8801 ] ] ] } },
{ "type": "Feature", "properties": { "iso3": "NER", "unit_id": "23599985B40327375212482", "unit_name": "Tillia" }, "geometry": { "type": "Polygon", "coordinates": [ [ [ 4.1231, 15.1875 ], [ 4.3555, 15.1825 ], [ 4.4009, 15.2011 ], [ 4.4971, 15.1983 ], [ 4.5591, 15.2371 ], [ 4.5907, 15.2357 ], [ 4.6539, 15.2935 ], [ 4.7037, 15.3285 ], [ 4.8833, 15.3911 ], [ 5.0077, 15.3985 ], [ 5.0859, 15.4197 ], [ 5.1715, 15.4805 ], [ 5.0353, 15.6379 ], [ 5.0297, 15.6657 ], [ 5.0315, 15.7531 ], [ 5.0629, 15.7827 ], [ 5.1053, 15.7439 ], [ 5.1651, 15.7393 ], [ 5.2305, 15.8415 ], [ 5.3419, 15.9861 ], [ 5.3761, 16.0239 ], [ 5.3687, 16.2109 ], [ 5.3327, 16.3545 ], [ 5.1229, 16.3077 ], [ 5.0837, 16.3001 ], [ 5.0593, 16.3009 ], [ 5.0205, 16.3179 ], [ 4.9645, 16.3503 ], [ 4.9423, 16.3705 ], [ 4.9051, 16.3873 ], [ 4.8163, 16.4535 ], [ 4.6871, 16.5433 ], [ 4.6511, 16.5651 ], [ 4.5489, 16.5829 ], [ 4.3991, 16.6153 ], [ 4.2217, 16.6131 ], [ 4.1551, 16.6043 ], [ 4.0861, 16.6049 ], [ 4.0937, 16.3157 ], [ 4.0561, 16.2459 ], [ 4.0401, 16.1899 ], [ 3.9977, 16.0785 ], [ 4.0009, 16.0561 ], [ 4.0169, 16.0111 ], [ 4.0065, 15.9807 ], [ 3.9677, 15.9493 ], [ 3.9513, 15.9459 ], [ 3.9341, 15.9187 ], [ 3.9153, 15.7779 ], [ 3.8865, 15.7059 ], [ 3.9237, 15.6367 ], [ 3.9577, 15.5371 ], [ 3.9707, 15.5259 ], [ 4.0497, 15.3397 ], [ 4.1231, 15.1875 ] ] ] } },
{ "type": "Feature", "properties": { "iso3": "NER", "unit_id": "23599985B25077979802367", "unit_name": "Tahoua Ville" }, "geometry": { "type": "Polygon", "coordinates": [ [ [ 5.2589, 15.0149 ], [ 5.2363, 15.0461 ], [ 5.1147, 14.9923 ], [ 5.1105, 14.9247 ], [ 5.1037, 14.9057 ], [ 5.1207, 14.8321 ], [ 5.1943, 14.7661 ], [ 5.2141, 14.7519 ], [ 5.2719, 14.7799 ], [ 5.3161, 14.7803 ], [ 5.3613, 14.7677 ], [ 5.3807, 14.7787 ], [ 5.3755, 14.8621 ], [ 5.3849, 14.8951 ], [ 5.3779, 14.9667 ], [ 5.3245, 15.0243 ], [ 5.2877, 15.0097 ], [ 5.2589, 15.0149 ] ] ] } },
{ "type": "Feature", "properties": { "iso3": "NER", "unit_id": "23599985B93785804329420", "unit_name": "Illéla" }, "geometry": { "type": "Polygon", "coordinates": [ [ [ 4.9339, 14.0495 ], [ 5.0149, 14.0811 ], [ 5.0925, 14.1215 ], [ 5.2679, 14.0159 ], [ 5.3243, 14.0991 ], [ 5.3909, 14.1581 ], [ 5.6893, 14.2681 ], [ 5.6623, 14.4043 ], [ 5.6845, 14.4643 ], [ 5.6873, 14.4989 ], [ 5.5985, 14.4845 ], [ 5.5483, 14.4623 ], [ 5.4933, 14.4709 ], [ 5.4913, 14.5357 ], [ 5.3985, 14.5781 ], [ 5.3353, 14.5727 ], [ 5.3013, 14.5491 ], [ 5.1845, 14.5461 ], [ 5.1463, 14.5275 ], [ 5.0795, 14.5157 ], [ 5.0541, 14.4897 ], [ 5.0041, 14.4905 ], [ 4.9701, 14.4997 ], [ 4.9047, 14.5061 ], [ 4.9095, 14.3709 ], [ 4.9201, 14.3539 ], [ 4.9121, 14.3231 ], [ 4.8813, 14.2915 ], [ 4.8821, 14.2585 ], [ 4.8909, 14.2123 ], [ 4.9209, 14.1807 ], [ 4.9339, 14.0495 ] ] ] } },
{ "type": "Feature", "properties": { "iso3": "NER", "unit_id": "23599985B12101722290167", "unit_name": "Birni-N'Konni" }, "geometry": { "type": "Polygon", "coordinates": [ [ [ 4.6077, 13.7491 ], [ 4.8683, 13.7823 ], [ 4.8927, 13.7817 ], [ 4.9347, 13.7541 ], [ 5.2877, 13.7589 ], [ 5.3693, 13.8617 ], [ 5.5151, 13.8917 ], [ 5.5555, 13.8949 ], [ 5.5589, 13.9355 ], [ 5.5435, 13.9767 ], [ 5.4949, 13.9557 ], [ 5.4611, 13.9479 ], [ 5.3879, 13.9475 ], [ 5.3807, 14.0221 ], [ 5.3427, 14.0317 ], [ 5.3103, 13.9937 ], [ 5.2679, 14.0159 ], [ 5.0925, 14.1215 ], [ 5.0149, 14.0811 ], [ 4.9339, 14.0495 ], [ 4.7251, 14.0763 ], [ 4.4699, 14.0991 ], [ 4.4763, 14.0591 ], [ 4.4993, 13.9801 ], [ 4.5653, 13.9147 ], [ 4.5701, 13.8905 ], [ 4.5989, 13.8297 ], [ 4.6089, 13.7855 ], [ 4.6077, 13.7491 ] ] ] } },
{ "type": "Feature", "properties": { "iso3": "NER", "unit_id": "23599985B4654450212041", "unit_name": "Malbaza" }, "geometry": { "type": "Polygon", "coordinates": [ [ [ 5.2679, 14.0159 ], [ 5.3103, 13.9937 ], [ 5.3427, 14.0317 ], [ 5.3807, 14.0221 ], [ 5.3879, 13.9475 ], [ 5.4611, 13.9479 ], [ 5.4949, 13.9557 ], [ 5.5435, 13.9767 ], [ 5.5589, 13.9355 ], [ 5.5555, 13.8949 ], [ 5.7581, 13.8117 ], [ 5.7593, 14.0009 ], [ 5.7457, 14.0021 ], [ 5.7395, 14.1919 ], [ 5.7145, 14.2101 ], [ 5.6893, 14.2681 ], [ 5.3909, 14.1581 ], [ 5.3243, 14.0991 ], [ 5.2679, 14.0159 ] ] ] } },
{ "type": "Feature", "properties": { "iso3": "NER", "unit_id": "23599985B43997741220428", "unit_name": "Tassara" }, "geometry": { "type": "Polygon", "coordinates": [ [ [ 5.3327, 16.3545 ], [ 5.6343, 16.4565 ], [ 5.9761, 16.4885 ], [ 6.1201, 16.5193 ], [ 6.2427, 16.6033 ], [ 6.2379, 16.6363 ], [ 6.2369, 16.6787 ], [ 6.1655, 16.7163 ], [ 6.0921, 16.7801 ], [ 6.0109, 16.9713 ], [ 5.9665, 17.0195 ], [ 5.8661, 17.0901 ], [ 5.7279, 17.1779 ], [ 5.7067, 17.2147 ], [ 5.6275, 17.2591 ], [ 5.5011, 17.3393 ], [ 5.3069, 17.4339 ], [ 5.2345, 17.4851 ], [ 5.1669, 17.6193 ], [ 5.1379, 17.6463 ], [ 4.9641, 17.7835 ], [ 4.9061, 17.8211 ], [ 4.8907, 17.9419 ], [ 4.7593, 17.9545 ], [ 4.7305, 18.0169 ], [ 4.7593, 18.0801 ], [ 4.7689, 18.1679 ], [ 4.7603, 18.2509 ], [ 4.7333, 18.2741 ], [ 4.7795, 18.4421 ], [ 4.7757, 18.5203 ], [ 4.8327, 18.5697 ], [ 4.8645, 18.6209 ], [ 4.8741, 18.6739 ], [ 4.2403, 18.6783 ], [ 4.2541, 16.9897 ], [ 4.0837, 16.9149 ], [ 4.0861, 16.6049 ], [ 4.1551, 16.6043 ], [ 4.2217, 16.6131 ], [ 4.3991, 16.6153 ], [ 4.5489, 16.5829 ], [ 4.6511, 16.5651 ], [ 4.6871, 16.5433 ], [ 4.8163, 16.4535 ], [ 4.9051, 16.3873 ], [ 4.9423, 16.3705 ], [ 4.9645, 16.3503 ], [ 5.0205, 16.3179 ], [ 5.0593, 16.3009 ], [ 5.0837, 16.3001 ], [ 5.1229, 16.3077 ], [ 5.3327, 16.3545 ] ] ] } },
{ "type": "Feature", "properties": { "iso3": "NER", "unit_id": "23599985B71026362524800", "unit_name": "Tahoua" }, "geometry": { "type": "Polygon", "coordinates": [ [ [ 4.9047, 14.5061 ], [ 4.9701, 14.4997 ], [ 5.0041, 14.4905 ], [ 5.0541, 14.4897 ], [ 5.0795, 14.5157 ], [ 5.1463, 14.5275 ], [ 5.1845, 14.5461 ], [ 5.3013, 14.5491 ], [ 5.3353, 14.5727 ], [ 5.3985, 14.5781 ], [ 5.4863, 14.6407 ], [ 5.5773, 14.6877 ], [ 5.5773, 14.7269 ], [ 5.6307, 14.7871 ], [ 5.6271, 14.7997 ], [ 5.6037, 14.8219 ], [ 5.6235, 14.8543 ], [ 5.6639, 14.8823 ], [ 5.6703, 14.9065 ], [ 5.6545, 14.9327 ], [ 5.6711, 14.9543 ], [ 5.6737, 15.0181 ], [ 5.6651, 15.0631 ], [ 5.6283, 15.1347 ], [ 5.5421, 15.1869 ], [ 5.5405, 15.2629 ], [ 5.5247, 15.2703 ], [ 5.5017, 15.2527 ], [ 5.4791, 15.2511 ], [ 5.4261, 15.2723 ], [ 5.3253, 15.3251 ], [ 5.2759, 15.3859 ], [ 5.2585, 15.4305 ], [ 5.1715, 15.4805 ], [ 5.0859, 15.4197 ], [ 5.0077, 15.3985 ], [ 4.8833, 15.3911 ], [ 4.7037, 15.3285 ], [ 4.6539, 15.2935 ], [ 4.5907, 15.2357 ], [ 4.5591, 15.2371 ], [ 4.4971, 15.1983 ], [ 4.4009, 15.2011 ], [ 4.3555, 15.1825 ], [ 4.1231, 15.1875 ], [ 4.1419, 15.0605 ], [ 4.1361, 14.7843 ], [ 4.2159, 14.7005 ], [ 4.5033, 14.7053 ], [ 4.5947, 14.5919 ], [ 4.8763, 14.4955 ], [ 4.9047, 14.5061 ] ], [ [ 5.2589, 15.0149 ], [ 5.2877, 15.0097 ], [ 5.3245, 15.0243 ], [ 5.3779, 14.9667 ], [ 5.3849, 14.8951 ], [ 5.3755, 14.8621 ], [ 5.3807, 14.7787 ], [ 5.3613, 14.7677 ], [ 5.3161, 14.7803 ], [ 5.2719, 14.7799 ], [ 5.2141, 14.7519 ], [ 5.1943, 14.7661 ], [ 5.1207, 14.8321 ], [ 5.1037, 14.9057 ], [ 5.1105, 14.9247 ], [ 5.1147, 14.9923 ], [ 5.2363, 15.0461 ], [ 5.2589, 15.0149 ] ] ] } },
{ "type": "Feature", "properties": { "iso3": "NER", "unit_id": "23599985B37880443282078", "unit_name": "Tchintabaraden" }, "geometry": { "type": "Polygon", "coordinates": [ [ [ 5.1715, 15.4805 ], [ 5.2585, 15.4305 ], [ 5.2759, 15.3859 ], [ 5.3253, 15.3251 ], [ 5.4261, 15.2723 ], [ 5.4791, 15.2511 ], [ 5.5017, 15.2527 ], [ 5.5247, 15.2703 ], [ 5.5405, 15.2629 ], [ 5.5421, 15.1869 ], [ 5.6179, 15.2783 ], [ 5.6479, 15.2783 ], [ 5.6759, 15.2967 ], [ 5.6807, 15.3247 ], [ 5.7047, 15.3527 ], [ 5.7569, 15.3961 ], [ 5.7869, 15.4571 ], [ 5.8053, 15.5333 ], [ 5.8573, 15.5757 ], [ 5.8631, 15.7293 ], [ 5.8959, 15.8037 ], [ 5.9413, 15.8559 ], [ 5.9395, 15.9099 ], [ 5.9917, 15.9939 ], [ 6.0187, 16.0113 ], [ 6.0707, 16.1051 ], [ 6.1123, 16.1349 ], [ 6.2969, 16.1977 ], [ 6.2813, 16.2335 ], [ 6.2833, 16.2963 ], [ 6.3083, 16.3329 ], [ 6.3799, 16.2905 ], [ 6.4261, 16.2925 ], [ 6.4851, 16.3571 ], [ 6.5565, 16.3639 ], [ 6.5179, 16.3987 ], [ 6.4793, 16.4277 ], [ 6.4561, 16.4517 ], [ 6.3895, 16.4943 ], [ 6.3287, 16.6275 ], [ 6.2369, 16.6787 ], [ 6.2379, 16.6363 ], [ 6.2427, 16.6033 ], [ 6.1201, 16.5193 ], [ 5.9761, 16.4885 ], [ 5.6343, 16.4565 ], [ 5.3327, 16.3545 ], [ 5.3687, 16.2109 ], [ 5.3761, 16.0239 ], [ 5.3419, 15.9861 ], [ 5.2305, 15.8415 ], [ 5.1651, 15.7393 ], [ 5.1053, 15.7439 ], [ 5.0629, 15.7827 ], [ 5.0315, 15.7531 ], [ 5.0297, 15.6657 ], [ 5.0353, 15.6379 ], [ 5.1715, 15.4805 ] ] ] } },
{ "type": "Feature", "properties": { "iso3": "NER", "unit_id": "23599985B73397103622086", "unit_name": "Abalak" }, "geometry": { "type": "Polygon", "coordinates": [ [ [ 5.6651, 15.0631 ], [ 5.6897, 15.0879 ], [ 5.7699, 15.0957 ], [ 5.8721, 15.0385 ], [ 5.9425, 15.0407 ], [ 5.9743, 15.0231 ], [ 6.0315, 15.0055 ], [ 6.0513, 15.0231 ], [ 6.1029, 15.0099 ], [ 6.1557, 14.9517 ], [ 6.1677, 14.9033 ], [ 6.1655, 14.8439 ], [ 6.1907, 14.8155 ], [ 6.2271, 14.8111 ], [ 6.2391, 14.8505 ], [ 6.2599, 14.8593 ], [ 6.3799, 14.8627 ], [ 6.4391, 14.7935 ], [ 6.2545, 14.7769 ], [ 6.2215, 14.7221 ], [ 6.2753, 14.6627 ], [ 6.3293, 14.6593 ], [ 6.3579, 14.6451 ], [ 6.4863, 14.6461 ], [ 6.5425, 14.8307 ], [ 6.5665, 14.8297 ], [ 6.5797, 15.0253 ], [ 6.6239, 15.1683 ], [ 6.6393, 15.2639 ], [ 6.7061, 15.3709 ], [ 6.7449, 15.4439 ], [ 6.7579, 15.7297 ], [ 6.7621, 16.0383 ], [ 6.7017, 16.1207 ], [ 6.6751, 16.1483 ], [ 6.6229, 16.2905 ], [ 6.5565, 16.3639 ], [ 6.4851, 16.3571 ], [ 6.4261, 16.2925 ], [ 6.3799, 16.2905 ], [ 6.3083, 16.3329 ], [ 6.2833, 16.2963 ], [ 6.2813, 16.2335 ], [ 6.2969, 16.1977 ], [ 6.1123, 16.1349 ], [ 6.0707, 16.1051 ], [ 6.0187, 16.0113 ], [ 5.9917, 15.9939 ], [ 5.9395, 15.9099 ], [ 5.9413, 15.8559 ], [ 5.8959, 15.8037 ], [ 5.8631, 15.7293 ], [ 5.8573, 15.5757 ], [ 5.8053, 15.5333 ], [ 5.7869, 15.4571 ], [ 5.7569, 15.3961 ], [ 5.7047, 15.3527 ], [ 5.6807, 15.3247 ], [ 5.6759, 15.2967 ], [ 5.6479, 15.2783 ], [ 5.6179, 15.2783 ], [ 5.5421, 15.1869 ], [ 5.6283, 15.1347 ], [ 5.6651, 15.0631 ] ] ] } },
{ "type": "Feature", "properties": { "iso3": "NER", "unit_id": "23599985B44584919101761", "unit_name": "Keita" }, "geometry": { "type": "Polygon", "coordinates": [ [ [ 5.6873, 14.4989 ], [ 5.7325, 14.5209 ], [ 5.8777, 14.5505 ], [ 5.9105, 14.5275 ], [ 5.9709, 14.5363 ], [ 5.9699, 14.5879 ], [ 6.0019, 14.6439 ], [ 6.0589, 14.6483 ], [ 6.1105, 14.6451 ], [ 6.1193, 14.7055 ], [ 6.1303, 14.7161 ], [ 6.1647, 14.7097 ], [ 6.1893, 14.7231 ], [ 6.2215, 14.7221 ], [ 6.2545, 14.7769 ], [ 6.4391, 14.7935 ], [ 6.3799, 14.8627 ], [ 6.2599, 14.8593 ], [ 6.2391, 14.8505 ], [ 6.2271, 14.8111 ], [ 6.1907, 14.8155 ], [ 6.1655, 14.8439 ], [ 6.1677, 14.9033 ], [ 6.1557, 14.9517 ], [ 6.1029, 15.0099 ], [ 6.0513, 15.0231 ], [ 6.0315, 15.0055 ], [ 5.9743, 15.0231 ], [ 5.9425, 15.0407 ], [ 5.8721, 15.0385 ], [ 5.7699, 15.0957 ], [ 5.6897, 15.0879 ], [ 5.6651, 15.0631 ], [ 5.6737, 15.0181 ], [ 5.6711, 14.9543 ], [ 5.6545, 14.9327 ], [ 5.6703, 14.9065 ], [ 5.6639, 14.8823 ], [ 5.6235, 14.8543 ], [ 5.6037, 14.8219 ], [ 5.6271, 14.7997 ], [ 5.6307, 14.7871 ], [ 5.5773, 14.7269 ], [ 5.5773, 14.6877 ], [ 5.4863, 14.6407 ], [ 5.3985, 14.5781 ], [ 5.4913, 14.5357 ], [ 5.4933, 14.4709 ], [ 5.5483, 14.4623 ], [ 5.5985, 14.4845 ], [ 5.6873, 14.4989 ] ] ] } },
{ "type": "Feature", "properties": { "iso3": "NER", "unit_id": "23599985B24942158565256", "unit_name": "Bouza" }, "geometry": { "type": "Polygon", "coordinates": [ [ [ 5.6893, 14.2681 ], [ 5.7145, 14.2101 ], [ 5.7395, 14.1919 ], [ 5.8279, 14.2183 ], [ 5.9165, 14.2359 ], [ 6.0501, 14.2751 ], [ 6.0957, 14.2717 ], [ 6.1597, 14.2521 ], [ 6.1971, 14.2647 ], [ 6.2393, 14.2675 ], [ 6.2723, 14.2527 ], [ 6.3799, 14.2729 ], [ 6.4997, 14.3705 ], [ 6.4893, 14.4317 ], [ 6.4955, 14.5379 ], [ 6.5473, 14.6985 ], [ 6.5665, 14.8297 ], [ 6.5425, 14.8307 ], [ 6.4863, 14.6461 ], [ 6.3579, 14.6451 ], [ 6.3293, 14.6593 ], [ 6.2753, 14.6627 ], [ 6.2215, 14.7221 ], [ 6.1893, 14.7231 ], [ 6.1647, 14.7097 ], [ 6.1303, 14.7161 ], [ 6.1193, 14.7055 ], [ 6.1105, 14.6451 ], [ 6.0589, 14.6483 ], [ 6.0019, 14.6439 ], [ 5.9699, 14.5879 ], [ 5.9709, 14.5363 ], [ 5.9105, 14.5275 ], [ 5.8777, 14.5505 ], [ 5.7325, 14.5209 ], [ 5.6873, 14.4989 ], [ 5.6845, 14.4643 ], [ 5.6623, 14.4043 ], [ 5.6893, 14.2681 ] ] ] } },
{ "type": "Feature", "properties": { "iso3": "NER", "unit_id": "23599985B88186704259068", "unit_name": "Madaoua" }, "geometry": { "type": "Polygon", "coordinates": [ [ [ 5.7581, 13.8117 ], [ 5.8025, 13.7865 ], [ 5.8869, 13.7689 ], [ 6.1175, 13.6837 ], [ 6.1647, 13.6501 ], [ 6.2131, 13.6753 ], [ 6.3005, 13.6761 ], [ 6.2885, 13.7605 ], [ 6.3109, 13.7865 ], [ 6.3749, 13.8145 ], [ 6.3729, 13.8279 ], [ 6.3503, 13.8623 ], [ 6.3531, 13.9447 ], [ 6.4313, 13.9925 ], [ 6.4333, 14.0207 ], [ 6.4959, 14.0297 ], [ 6.5473, 14.0537 ], [ 6.5501, 14.0825 ], [ 6.5445, 14.1373 ], [ 6.5535, 14.1543 ], [ 6.5557, 14.2921 ], [ 6.5093, 14.3349 ], [ 6.4997, 14.3705 ], [ 6.3799, 14.2729 ], [ 6.2723, 14.2527 ], [ 6.2393, 14.2675 ], [ 6.1971, 14.2647 ], [ 6.1597, 14.2521 ], [ 6.0957, 14.2717 ], [ 6.0501, 14.2751 ], [ 5.9165, 14.2359 ], [ 5.8279, 14.2183 ], [ 5.7395, 14.1919 ], [ 5.7457, 14.0021 ], [ 5.7593, 14.0009 ], [ 5.7581, 13.8117 ] ] ] } },
{ "type": "Feature", "properties": { "iso3": "NER", "unit_id": "23599985B37435064601183", "unit_name": "Guidan-Roumdji" }, "geometry": { "type": "Polygon", "coordinates": [ [ [ 6.3005, 13.6761 ], [ 6.338, 13.6634 ], [ 6.3906, 13.6395 ], [ 6.5256, 13.5324 ], [ 6.6004, 13.4582 ], [ 6.6922, 13.3534 ], [ 6.7412, 13.2786 ], [ 6.7556, 13.2475 ], [ 6.7745, 13.2664 ], [ 6.7759, 13.2952 ], [ 6.8267, 13.347 ], [ 6.8785, 13.3907 ], [ 6.9208, 13.4037 ], [ 6.9145, 13.4744 ], [ 6.9208, 13.4834 ], [ 6.9627, 13.4892 ], [ 7.0234, 13.527 ], [ 7.0932, 13.5279 ], [ 7.1215, 13.541 ], [ 7.1549, 13.5369 ], [ 7.1625, 13.5603 ], [ 7.3267, 13.5495 ], [ 7.3566, 13.5395 ], [ 7.4305, 13.5445 ], [ 7.4691, 13.5789 ], [ 7.4895, 13.6071 ], [ 7.4931, 13.6507 ], [ 7.4839, 13.6788 ], [ 7.4642, 13.7146 ], [ 7.4445, 13.7336 ], [ 7.4108, 13.7379 ], [ 7.4002, 13.7533 ], [ 7.3728, 13.7786 ], [ 7.3496, 13.7618 ], [ 7.3243, 13.7695 ], [ 7.3158, 13.759 ], [ 7.287, 13.7435 ], [ 7.2617, 13.7456 ], [ 7.1738, 13.7934 ], [ 7.1478, 13.8237 ], [ 7.1224, 13.818 ], [ 7.1084, 13.7934 ], [ 7.0838, 13.7772 ], [ 7.0873, 13.8166 ], [ 7.0985, 13.8455 ], [ 7.043, 13.8447 ], [ 7.0233, 13.8841 ], [ 6.9684, 13.9003 ], [ 6.9347, 13.9151 ], [ 6.8215, 13.9116 ], [ 6.7645, 13.8989 ], [ 6.6386, 13.8279 ], [ 6.6161, 13.8272 ], [ 6.5275, 13.8539 ], [ 6.4825, 13.8539 ], [ 6.4424, 13.8237 ], [ 6.3507, 13.8751 ], [ 6.3503, 13.8623 ], [ 6.3729, 13.8279 ], [ 6.3749, 13.8145 ], [ 6.3109, 13.7865 ], [ 6.2885, 13.7605 ], [ 6.3005, 13.6761 ] ] ] } },
{ "type": "Feature", "properties": { "iso3": "NER", "unit_id": "23599985B7432037800977", "unit_name": "Dakoro" }, "geometry": { "type": "Polygon", "coordinates": [ [ [ 6.4997, 14.3705 ], [ 6.5093, 14.3349 ], [ 6.5557, 14.2921 ], [ 6.5535, 14.1543 ], [ 6.5445, 14.1373 ], [ 6.5501, 14.0825 ], [ 6.5473, 14.0537 ], [ 6.4959, 14.0297 ], [ 6.4333, 14.0207 ], [ 6.4313, 13.9925 ], [ 6.3531, 13.9447 ], [ 6.3507, 13.8751 ], [ 6.4424, 13.8237 ], [ 6.4825, 13.8539 ], [ 6.5275, 13.8539 ], [ 6.6161, 13.8272 ], [ 6.6386, 13.8279 ], [ 6.7645, 13.8989 ], [ 6.8215, 13.9116 ], [ 6.9347, 13.9151 ], [ 6.9684, 13.9003 ], [ 7.0233, 13.8841 ], [ 7.043, 13.8447 ], [ 7.0985, 13.8455 ], [ 7.0873, 13.8166 ], [ 7.0838, 13.7772 ], [ 7.1084, 13.7934 ], [ 7.1224, 13.818 ], [ 7.1478, 13.8237 ], [ 7.1738, 13.7934 ], [ 7.2617, 13.7456 ], [ 7.287, 13.7435 ], [ 7.3158, 13.759 ], [ 7.3243, 13.7695 ], [ 7.3496, 13.7618 ], [ 7.3728, 13.7786 ], [ 7.3371, 13.8245 ], [ 7.3259, 13.9055 ], [ 7.2975, 13.9339 ], [ 7.2705, 13.942 ], [ 7.2696, 13.9595 ], [ 7.3065, 14.0041 ], [ 7.2638, 14.0221 ], [ 7.2624, 14.1094 ], [ 7.2368, 14.1252 ], [ 7.235, 14.1729 ], [ 7.2272, 14.1791 ], [ 7.204, 14.2428 ], [ 7.2138, 14.285 ], [ 7.1977, 14.3126 ], [ 7.1873, 14.3444 ], [ 7.1843, 14.38 ], [ 7.1706, 14.4236 ], [ 7.2084, 14.474 ], [ 7.2345, 14.5019 ], [ 7.2381, 14.5239 ], [ 7.3583, 14.5262 ], [ 7.3695, 14.5055 ], [ 7.4564, 14.4969 ], [ 7.5073, 14.4303 ], [ 7.5586, 14.4015 ], [ 7.6441, 14.3669 ], [ 7.7089, 14.3588 ], [ 7.7679, 14.4294 ], [ 7.7616, 14.4389 ], [ 7.7066, 14.4861 ], [ 7.7043, 14.5464 ], [ 7.7111, 14.5622 ], [ 7.7134, 14.6522 ], [ 7.6661, 14.6725 ], [ 7.6013, 14.7139 ], [ 7.5644, 14.7161 ], [ 7.549, 14.7304 ], [ 7.5561, 14.7901 ], [ 7.5532, 14.7973 ], [ 7.523, 14.8279 ], [ 7.5019, 14.9932 ], [ 7.4944, 15.0301 ], [ 7.4829, 15.0514 ], [ 7.4607, 15.0281 ], [ 7.4259, 15.0021 ], [ 7.3599, 14.9624 ], [ 7.3458, 14.9411 ], [ 7.2603, 14.9039 ], [ 7.2084, 14.8947 ], [ 7.1537, 14.903 ], [ 7.1433, 14.8935 ], [ 7.1499, 14.8616 ], [ 7.1442, 14.8431 ], [ 7.1327, 14.842 ], [ 7.0946, 14.8803 ], [ 7.0592, 14.8757 ], [ 6.8564, 14.8828 ], [ 6.8398, 14.8644 ], [ 6.8361, 14.8423 ], [ 6.8514, 14.8156 ], [ 6.8515, 14.8048 ], [ 6.8063, 14.7829 ], [ 6.764, 14.7717 ], [ 6.7, 14.7633 ], [ 6.7014, 14.7449 ], [ 6.7735, 14.7291 ], [ 6.78, 14.7168 ], [ 6.7801, 14.6458 ], [ 6.715, 14.5954 ], [ 6.6951, 14.5911 ], [ 6.6689, 14.5704 ], [ 6.6677, 14.6078 ], [ 6.6617, 14.6216 ], [ 6.6329, 14.6421 ], [ 6.6026, 14.6524 ], [ 6.5831, 14.6657 ], [ 6.5473, 14.6985 ], [ 6.4955, 14.5379 ], [ 6.4893, 14.4317 ], [ 6.4997, 14.3705 ] ] ] } },
{ "type": "Feature", "properties": { "iso3": "NER", "unit_id": "23599985B15241034776795", "unit_name": "Bérmo" }, "geometry": { "type": "Polygon", "coordinates": [ [ [ 6.5665, 14.8297 ], [ 6.5473, 14.6985 ], [ 6.5831, 14.6657 ], [ 6.6026, 14.6524 ], [ 6.6329, 14.6421 ], [ 6.6617, 14.6216 ], [ 6.6677, 14.6078 ], [ 6.6689, 14.5704 ], [ 6.6951, 14.5911 ], [ 6.715, 14.5954 ], [ 6.7801, 14.6458 ], [ 6.78, 14.7168 ], [ 6.7735, 14.7291 ], [ 6.7014, 14.7449 ], [ 6.7, 14.7633 ], [ 6.764, 14.7717 ], [ 6.8063, 14.7829 ], [ 6.8515, 14.8048 ], [ 6.8514, 14.8156 ], [ 6.8361, 14.8423 ], [ 6.8398, 14.8644 ], [ 6.8564, 14.8828 ], [ 7.0592, 14.8757 ], [ 7.0946, 14.8803 ], [ 7.1327, 14.842 ], [ 7.1442, 14.8431 ], [ 7.1499, 14.8616 ], [ 7.1433, 14.8935 ], [ 7.1537, 14.903 ], [ 7.2084, 14.8947 ], [ 7.2603, 14.9039 ], [ 7.3458, 14.9411 ], [ 7.3599, 14.9624 ], [ 7.4259, 15.0021 ], [ 7.4607, 15.0281 ], [ 7.4829, 15.0514 ], [ 7.4213, 15.1549 ], [ 7.419, 15.1739 ], [ 7.4267, 15.2135 ], [ 7.4316, 15.2787 ], [ 7.4375, 15.2999 ], [ 7.3412, 15.344 ], [ 7.1877, 15.3953 ], [ 7.0423, 15.4547 ], [ 6.7449, 15.4439 ], [ 6.7061, 15.3709 ], [ 6.6393, 15.2639 ], [ 6.6239, 15.1683 ], [ 6.5797, 15.0253 ], [ 6.5665, 14.8297 ] ] ] } },
{ "type": "Feature", "properties": { "iso3": "NER", "unit_id": "23599985B91742674817727", "unit_name": "Ingall" }, "geometry": { "type": "Polygon", "coordinates": [ [ [ 7.5553, 17.3102 ], [ 7.5438, 17.2986 ], [ 7.5051, 17.2685 ], [ 7.4535, 17.2455 ], [ 7.3759, 17.1979 ], [ 7.3792, 17.1899 ], [ 7.4394, 17.14 ], [ 7.495, 17.1196 ], [ 7.5593, 17.0732 ], [ 7.5204, 16.9686 ], [ 7.5613, 16.8081 ], [ 7.5311, 16.7901 ], [ 7.5032, 16.7599 ], [ 7.4695, 16.7005 ], [ 7.4465, 16.5925 ], [ 7.4199, 16.5421 ], [ 7.3857, 16.5047 ], [ 7.3493, 16.4543 ], [ 7.3457, 16.4359 ], [ 7.2935, 16.3949 ], [ 7.2759, 16.3918 ], [ 7.2584, 16.3017 ], [ 7.2507, 16.1555 ], [ 7.2908, 16.0582 ], [ 7.208, 16.0159 ], [ 7.1544, 15.9948 ], [ 7.1269, 15.9664 ], [ 7.0693, 15.9358 ], [ 7.0297, 15.9106 ], [ 7.0648, 15.8665 ], [ 7.1071, 15.8292 ], [ 7.1076, 15.7828 ], [ 7.0774, 15.763 ], [ 7.018, 15.7486 ], [ 6.9667, 15.7481 ], [ 6.96, 15.7234 ], [ 6.9519, 15.677 ], [ 6.9753, 15.5371 ], [ 7.0181, 15.4535 ], [ 6.7449, 15.4439 ], [ 6.7579, 15.7297 ], [ 6.7621, 16.0383 ], [ 6.7017, 16.1207 ], [ 6.6751, 16.1483 ], [ 6.6229, 16.2905 ], [ 6.5565, 16.3639 ], [ 6.5179, 16.3987 ], [ 6.4793, 16.4277 ], [ 6.4561, 16.4517 ], [ 6.3895, 16.4943 ], [ 6.3287, 16.6275 ], [ 6.1655, 16.7163 ], [ 6.0921, 16.7801 ], [ 6.0109, 16.9713 ], [ 5.9665, 17.0195 ], [ 5.8661, 17.0901 ], [ 5.7279, 17.1779 ], [ 5.7067, 17.2147 ], [ 5.6275, 17.2591 ], [ 5.5011, 17.3393 ], [ 5.3069, 17.4339 ], [ 5.2345, 17.4851 ], [ 5.1669, 17.6193 ], [ 5.1379, 17.6463 ], [ 4.9641, 17.7835 ], [ 4.9061, 17.8211 ], [ 4.8907, 17.9419 ], [ 4.7593, 17.9545 ], [ 4.7305, 18.0169 ], [ 4.7593, 18.0801 ], [ 4.7689, 18.1679 ], [ 4.7603, 18.2509 ], [ 4.7333, 18.2741 ], [ 4.7795, 18.4421 ], [ 4.7757, 18.5203 ], [ 4.8327, 18.5697 ], [ 4.8645, 18.6209 ], [ 4.8741, 18.6739 ], [ 4.2403, 18.6783 ], [ 4.2406, 19.1258 ], [ 4.5078, 19.1838 ], [ 5.7518, 19.4159 ], [ 5.7883, 19.3917 ], [ 5.7894, 19.3465 ], [ 5.8002, 19.3119 ], [ 5.8589, 19.2899 ], [ 5.8861, 19.2579 ], [ 5.887, 19.1156 ], [ 5.9342, 19.0756 ], [ 5.9734, 19.0134 ], [ 6.0207, 18.959 ], [ 6.0949, 18.8496 ], [ 6.1048, 18.738 ], [ 6.0805, 18.6826 ], [ 6.0823, 18.5409 ], [ 6.0931, 18.5169 ], [ 6.0905, 18.476 ], [ 6.0747, 18.3343 ], [ 6.0679, 18.2317 ], [ 6.0535, 18.1648 ], [ 6.0359, 18.1155 ], [ 6.0352, 18.086 ], [ 6.0535, 17.9876 ], [ 6.0584, 17.9067 ], [ 6.6288, 17.9095 ], [ 6.998, 17.9243 ], [ 7.7551, 17.9466 ], [ 8.0458, 17.9494 ], [ 8.0276, 17.9232 ], [ 7.9997, 17.9051 ], [ 7.9461, 17.882 ], [ 7.8652, 17.861 ], [ 7.7874, 17.8596 ], [ 7.709, 17.8218 ], [ 7.6673, 17.808 ], [ 7.4919, 17.7066 ], [ 7.4766, 17.7055 ], [ 7.463, 17.6827 ], [ 7.4579, 17.6464 ], [ 7.4498, 17.6294 ], [ 7.4492, 17.6159 ], [ 7.4872, 17.5649 ], [ 7.5469, 17.4439 ], [ 7.5685, 17.3927 ], [ 7.5665, 17.3694 ], [ 7.5553, 17.3102 ] ] ] } },
{ "type": "Feature", "properties": { "iso3": "NER", "unit_id": "23599985B10786712449018", "unit_name": "Madarounfa" }, "geometry": { "type": "Polygon", "coordinates": [ [ [ 7.1549, 13.5369 ], [ 7.1843, 13.5109 ], [ 7.1893, 13.4611 ], [ 7.1474, 13.4611 ], [ 7.0827, 13.4853 ], [ 7.0932, 13.5279 ], [ 7.0234, 13.527 ], [ 6.9627, 13.4892 ], [ 6.9208, 13.4834 ], [ 6.9145, 13.4744 ], [ 6.9208, 13.4037 ], [ 6.8785, 13.3907 ], [ 6.8267, 13.347 ], [ 6.7759, 13.2952 ], [ 6.7745, 13.2664 ], [ 6.7556, 13.2475 ], [ 6.7579, 13.2381 ], [ 6.7696, 13.2187 ], [ 6.8083, 13.1661 ], [ 6.8312, 13.1242 ], [ 6.9406, 13.0009 ], [ 7.0234, 13.0027 ], [ 7.0837, 13.0099 ], [ 7.1517, 13.036 ], [ 7.2323, 13.1152 ], [ 7.266, 13.117 ], [ 7.4064, 13.1076 ], [ 7.4762, 13.1391 ], [ 7.4942, 13.1593 ], [ 7.6252, 13.2291 ], [ 7.5968, 13.2984 ], [ 7.595, 13.3348 ], [ 7.5473, 13.3744 ], [ 7.528, 13.3785 ], [ 7.5068, 13.3974 ], [ 7.474, 13.3785 ], [ 7.4352, 13.3726 ], [ 7.4199, 13.3812 ], [ 7.4213, 13.4127 ], [ 7.4361, 13.4321 ], [ 7.4371, 13.4622 ], [ 7.4271, 13.4735 ], [ 7.4321, 13.5081 ], [ 7.4305, 13.5445 ], [ 7.3566, 13.5395 ], [ 7.3267, 13.5495 ], [ 7.1625, 13.5603 ], [ 7.1549, 13.5369 ] ] ] } },
{ "type": "Feature", "properties": { "iso3": "NER", "unit_id": "23599985B59469969297601", "unit_name": "Aguié" }, "geometry": { "type": "Polygon", "coordinates": [ [ [ 7.4305, 13.5445 ], [ 7.4321, 13.5081 ], [ 7.4271, 13.4735 ], [ 7.4371, 13.4622 ], [ 7.4361, 13.4321 ], [ 7.4213, 13.4127 ], [ 7.4199, 13.3812 ], [ 7.4352, 13.3726 ], [ 7.474, 13.3785 ], [ 7.5068, 13.3974 ], [ 7.528, 13.3785 ], [ 7.5473, 13.3744 ], [ 7.595, 13.3348 ], [ 7.5968, 13.2984 ], [ 7.6252, 13.2291 ], [ 7.7102, 13.2868 ], [ 7.7162, 13.33 ], [ 7.7128, 13.3686 ], [ 7.7485, 13.4136 ], [ 7.7373, 13.4316 ], [ 7.7368, 13.4631 ], [ 7.7638, 13.4615 ], [ 7.7933, 13.4516 ], [ 7.8053, 13.4573 ], [ 7.8475, 13.4924 ], [ 7.8538, 13.5107 ], [ 7.8398, 13.5381 ], [ 7.8376, 13.5571 ], [ 7.8538, 13.5663 ], [ 7.8707, 13.5838 ], [ 7.8623, 13.6071 ], [ 7.858, 13.6633 ], [ 7.8348, 13.6753 ], [ 7.7962, 13.7118 ], [ 7.7955, 13.7259 ], [ 7.7744, 13.7505 ], [ 7.7322, 13.7632 ], [ 7.6963, 13.7639 ], [ 7.6527, 13.7505 ], [ 7.5957, 13.721 ], [ 7.5275, 13.7224 ], [ 7.4445, 13.7336 ], [ 7.4642, 13.7146 ], [ 7.4839, 13.6788 ], [ 7.4931, 13.6507 ], [ 7.4895, 13.6071 ], [ 7.4691, 13.5789 ], [ 7.4305, 13.5445 ] ] ] } },
{ "type": "Feature", "properties": { "iso3": "NER", "unit_id": "23599985B75774451533542", "unit_name": "Gazaoua" }, "geometry": { "type": "Polygon", "coordinates": [ [ [ 7.7102, 13.2868 ], [ 7.7402, 13.3037 ], [ 7.7866, 13.3229 ], [ 7.8154, 13.3496 ], [ 7.8216, 13.3501 ], [ 7.8875, 13.3479 ], [ 7.9249, 13.3398 ], [ 7.9582, 13.3401 ], [ 8.0913, 13.3044 ], [ 8.1025, 13.3251 ], [ 8.1109, 13.3637 ], [ 8.1512, 13.3836 ], [ 8.1518, 13.4089 ], [ 8.1431, 13.4475 ], [ 8.1434, 13.4642 ], [ 8.163, 13.4997 ], [ 8.1221, 13.5135 ], [ 8.1042, 13.5348 ], [ 8.0809, 13.5452 ], [ 8.0561, 13.5481 ], [ 8.0484, 13.5685 ], [ 8.0066, 13.5893 ], [ 8.0011, 13.5734 ], [ 7.9893, 13.5596 ], [ 7.951, 13.5432 ], [ 7.9403, 13.5561 ], [ 7.8764, 13.5587 ], [ 7.8707, 13.5838 ], [ 7.8538, 13.5663 ], [ 7.8376, 13.5571 ], [ 7.8398, 13.5381 ], [ 7.8538, 13.5107 ], [ 7.8475, 13.4924 ], [ 7.8053, 13.4573 ], [ 7.7933, 13.4516 ], [ 7.7638, 13.4615 ], [ 7.7368, 13.4631 ], [ 7.7373, 13.4316 ], [ 7.7485, 13.4136 ], [ 7.7128, 13.3686 ], [ 7.7162, 13.33 ], [ 7.7102, 13.2868 ] ] ] } },
{ "type": "Feature", "properties": { "iso3": "NER", "unit_id": "23599985B12759501052009", "unit_name": "Mayahi" }, "geometry": { "type": "Polygon", "coordinates": [ [ [ 7.4108, 13.7379 ], [ 7.5275, 13.7224 ], [ 7.5957, 13.721 ], [ 7.6527, 13.7505 ], [ 7.6963, 13.7639 ], [ 7.7322, 13.7632 ], [ 7.7744, 13.7505 ], [ 7.8142, 13.7702 ], [ 7.8827, 13.7733 ], [ 7.902, 13.782 ], [ 7.9066, 13.8039 ], [ 7.9187, 13.8306 ], [ 7.951, 13.8753 ], [ 8.0158, 13.8753 ], [ 8.0717, 13.9355 ], [ 8.0717, 13.9827 ], [ 8.0993, 14.0032 ], [ 8.0979, 14.0205 ], [ 8.0475, 14.0233 ], [ 8.0564, 14.0435 ], [ 8.0697, 14.0545 ], [ 8.0711, 14.0674 ], [ 8.0253, 14.0643 ], [ 8.0106, 14.0585 ], [ 8.0106, 14.1881 ], [ 8.0325, 14.2472 ], [ 8.0803, 14.3249 ], [ 8.0855, 14.4537 ], [ 8.0449, 14.4669 ], [ 8.0213, 14.4813 ], [ 8.0187, 14.5352 ], [ 7.9643, 14.5361 ], [ 7.9072, 14.4842 ], [ 7.8989, 14.4687 ], [ 7.8522, 14.433 ], [ 7.7679, 14.4294 ], [ 7.7089, 14.3588 ], [ 7.6441, 14.3669 ], [ 7.5586, 14.4015 ], [ 7.5073, 14.4303 ], [ 7.4564, 14.4969 ], [ 7.3695, 14.5055 ], [ 7.3583, 14.5262 ], [ 7.2381, 14.5239 ], [ 7.2345, 14.5019 ], [ 7.2084, 14.474 ], [ 7.1706, 14.4236 ], [ 7.1843, 14.38 ], [ 7.1873, 14.3444 ], [ 7.1977, 14.3126 ], [ 7.2138, 14.285 ], [ 7.204, 14.2428 ], [ 7.2272, 14.1791 ], [ 7.235, 14.1729 ], [ 7.2368, 14.1252 ], [ 7.2624, 14.1094 ], [ 7.2638, 14.0221 ], [ 7.3065, 14.0041 ], [ 7.2696, 13.9595 ], [ 7.2705, 13.942 ], [ 7.2975, 13.9339 ], [ 7.3259, 13.9055 ], [ 7.3371, 13.8245 ], [ 7.3728, 13.7786 ], [ 7.4002, 13.7533 ], [ 7.4108, 13.7379 ] ] ] } },
{ "type": "Feature", "properties": { "iso3": "NER", "unit_id": "23599985B35740417673211", "unit_name": "Arlit" }, "geometry": { "type": "Polygon", "coordinates": [ [ [ 8.0458, 17.9494 ], [ 8.4524, 17.9607 ], [ 8.4943, 17.9999 ], [ 8.4763, 18.0098 ], [ 8.3822, 18.0197 ], [ 8.3399, 18.0525 ], [ 8.33, 18.0957 ], [ 8.3102, 18.1164 ], [ 8.2746, 18.1308 ], [ 8.2517, 18.1543 ], [ 8.2238, 18.2033 ], [ 8.2206, 18.224 ], [ 8.2031, 18.2416 ], [ 8.1405, 18.2618 ], [ 8.0604, 18.2996 ], [ 8.0073, 18.337 ], [ 8.0086, 18.3743 ], [ 8.0307, 18.5134 ], [ 8.0456, 18.5544 ], [ 8.0591, 18.6061 ], [ 8.0817, 18.6352 ], [ 8.1133, 18.6929 ], [ 8.1696, 18.7801 ], [ 8.2103, 18.9347 ], [ 8.2203, 18.9865 ], [ 8.1422, 19.1425 ], [ 8.1027, 19.237 ], [ 8.0444, 19.3194 ], [ 7.9398, 21.1288 ], [ 7.8304, 21.0671 ], [ 7.7733, 21.023 ], [ 7.7458, 21.0145 ], [ 7.6769, 20.9699 ], [ 7.6648, 20.9708 ], [ 7.5766, 20.9065 ], [ 7.5554, 20.9033 ], [ 7.4798, 20.843 ], [ 7.4627, 20.8381 ], [ 7.3875, 20.7822 ], [ 7.3691, 20.7746 ], [ 7.2957, 20.7116 ], [ 7.2768, 20.7021 ], [ 7.253, 20.6837 ], [ 7.2449, 20.6688 ], [ 7.1972, 20.6265 ], [ 7.172, 20.6202 ], [ 7.1085, 20.555 ], [ 7.0756, 20.5392 ], [ 7.0039, 20.469 ], [ 6.9327, 20.4097 ], [ 6.9264, 20.3958 ], [ 6.8622, 20.3469 ], [ 6.7982, 20.2855 ], [ 6.7844, 20.2831 ], [ 6.6422, 20.1494 ], [ 6.5905, 20.1125 ], [ 6.5049, 20.0392 ], [ 6.1835, 19.7466 ], [ 6.0265, 19.6152 ], [ 6.0021, 19.6014 ], [ 5.9874, 19.5797 ], [ 5.9199, 19.5143 ], [ 5.8974, 19.5023 ], [ 5.8222, 19.4271 ], [ 5.7518, 19.4159 ], [ 5.7883, 19.3917 ], [ 5.7894, 19.3465 ], [ 5.8002, 19.3119 ], [ 5.8589, 19.2899 ], [ 5.8861, 19.2579 ], [ 5.887, 19.1156 ], [ 5.9342, 19.0756 ], [ 5.9734, 19.0134 ], [ 6.0207, 18.959 ], [ 6.0949, 18.8496 ], [ 6.1048, 18.738 ], [ 6.0805, 18.6826 ], [ 6.0823, 18.5409 ], [ 6.0931, 18.5169 ], [ 6.0905, 18.476 ], [ 6.0747, 18.3343 ], [ 6.0679, 18.2317 ], [ 6.0535, 18.1648 ], [ 6.0359, 18.1155 ], [ 6.0352, 18.086 ], [ 6.0535, 17.9876 ], [ 6.0584, 17.9067 ], [ 6.6288, 17.9095 ], [ 6.998, 17.9243 ], [ 7.7551, 17.9466 ], [ 8.0458, 17.9494 ] ] ] } },
{ "type": "Feature", "properties": { "iso3": "NER", "unit_id": "23599985B37162587774633", "unit_name": "Belbédji" }, "geometry": { "type": "Polygon", "coordinates": [ [ [ 7.7679, 14.4294 ], [ 7.8522, 14.433 ], [ 7.8989, 14.4687 ], [ 7.9072, 14.4842 ], [ 7.9643, 14.5361 ], [ 8.0187, 14.5352 ], [ 8.021, 14.5246 ], [ 8.0374, 14.5323 ], [ 8.0484, 14.5776 ], [ 8.0584, 14.5951 ], [ 8.0769, 14.5951 ], [ 8.0982, 14.6075 ], [ 8.1122, 14.6198 ], [ 8.1054, 14.6968 ], [ 8.0915, 14.7143 ], [ 8.0573, 14.7175 ], [ 8.0478, 14.7319 ], [ 8.055, 14.7472 ], [ 8.0856, 14.7503 ], [ 8.127, 14.7737 ], [ 8.1324, 14.7818 ], [ 8.1045, 14.8205 ], [ 8.109, 14.8277 ], [ 8.1302, 14.8421 ], [ 8.1203, 14.8714 ], [ 8.118, 14.9214 ], [ 8.1239, 14.9263 ], [ 8.145, 14.979 ], [ 8.1459, 15.0123 ], [ 8.1666, 15.024 ], [ 8.2076, 15.055 ], [ 8.253, 15.0586 ], [ 8.2593, 15.0694 ], [ 8.3597, 15.0915 ], [ 8.4187, 15.0901 ], [ 8.4119, 15.1554 ], [ 8.411, 15.2648 ], [ 8.4164, 15.272 ], [ 8.4137, 15.2918 ], [ 8.3741, 15.2801 ], [ 8.3453, 15.2846 ], [ 8.3205, 15.3165 ], [ 8.3214, 15.3296 ], [ 8.3318, 15.3548 ], [ 8.3557, 15.4709 ], [ 8.375, 15.538 ], [ 8.3732, 15.5803 ], [ 8.3169, 15.5647 ], [ 8.1302, 15.5637 ], [ 8.0422, 15.5439 ], [ 7.9994, 15.5296 ], [ 7.85, 15.534 ], [ 7.6379, 15.5757 ], [ 7.5038, 15.5834 ], [ 7.4906, 15.5713 ], [ 7.461, 15.5318 ], [ 7.3412, 15.344 ], [ 7.4375, 15.2999 ], [ 7.4316, 15.2787 ], [ 7.4267, 15.2135 ], [ 7.419, 15.1739 ], [ 7.4213, 15.1549 ], [ 7.4944, 15.0301 ], [ 7.507, 14.9612 ], [ 7.523, 14.8279 ], [ 7.5532, 14.7973 ], [ 7.5561, 14.7901 ], [ 7.549, 14.7304 ], [ 7.5644, 14.7161 ], [ 7.6013, 14.7139 ], [ 7.6661, 14.6725 ], [ 7.7134, 14.6522 ], [ 7.7111, 14.5622 ], [ 7.7043, 14.5464 ], [ 7.7066, 14.4861 ], [ 7.7616, 14.4389 ], [ 7.7679, 14.4294 ] ] ] } },
{ "type": "Feature", "properties": { "iso3": "NER", "unit_id": "23599985B9962986153255", "unit_name": "Tessaoua" }, "geometry": { "type": "Polygon", "coordinates": [ [ [ 7.8623, 13.6071 ], [ 7.8764, 13.5587 ], [ 7.9403, 13.5561 ], [ 7.951, 13.5432 ], [ 7.9893, 13.5596 ], [ 8.0011, 13.5734 ], [ 8.0066, 13.5893 ], [ 8.0484, 13.5685 ], [ 8.0561, 13.5481 ], [ 8.0809, 13.5452 ], [ 8.1042, 13.5348 ], [ 8.1221, 13.5135 ], [ 8.163, 13.4997 ], [ 8.1434, 13.4642 ], [ 8.1431, 13.4475 ], [ 8.1518, 13.4089 ], [ 8.1512, 13.3836 ], [ 8.1109, 13.3637 ], [ 8.1025, 13.3251 ], [ 8.0913, 13.3044 ], [ 8.1247, 13.2975 ], [ 8.1728, 13.2727 ], [ 8.2218, 13.2232 ], [ 8.2624, 13.2154 ], [ 8.2823, 13.2315 ], [ 8.2811, 13.252 ], [ 8.3416, 13.3018 ], [ 8.3422, 13.3217 ], [ 8.3298, 13.3459 ], [ 8.3364, 13.3611 ], [ 8.3592, 13.3767 ], [ 8.3505, 13.4081 ], [ 8.3378, 13.5524 ], [ 8.3566, 13.5924 ], [ 8.3139, 13.6353 ], [ 8.2347, 13.6794 ], [ 8.2339, 13.7278 ], [ 8.2848, 13.7563 ], [ 8.3433, 13.7975 ], [ 8.394, 13.8485 ], [ 8.4496, 13.8497 ], [ 8.5038, 13.86 ], [ 8.5303, 13.8805 ], [ 8.5386, 13.9414 ], [ 8.5491, 13.9675 ], [ 8.5519, 14.0282 ], [ 8.5271, 14.0674 ], [ 8.5267, 14.1621 ], [ 8.4741, 14.1838 ], [ 8.424, 14.2129 ], [ 8.4165, 14.2506 ], [ 8.3764, 14.3059 ], [ 8.2848, 14.3805 ], [ 8.2768, 14.3987 ], [ 8.2048, 14.4099 ], [ 8.1757, 14.4379 ], [ 8.1426, 14.441 ], [ 8.0855, 14.4537 ], [ 8.0803, 14.3249 ], [ 8.0325, 14.2472 ], [ 8.0106, 14.1881 ], [ 8.0106, 14.0585 ], [ 8.0253, 14.0643 ], [ 8.0711, 14.0674 ], [ 8.0697, 14.0545 ], [ 8.0564, 14.0435 ], [ 8.0475, 14.0233 ], [ 8.0979, 14.0205 ], [ 8.0993, 14.0032 ], [ 8.0717, 13.9827 ], [ 8.0717, 13.9355 ], [ 8.0158, 13.8753 ], [ 7.951, 13.8753 ], [ 7.9187, 13.8306 ], [ 7.9066, 13.8039 ], [ 7.902, 13.782 ], [ 7.8827, 13.7733 ], [ 7.8142, 13.7702 ], [ 7.7744, 13.7505 ], [ 7.7955, 13.7259 ], [ 7.7962, 13.7118 ], [ 7.8348, 13.6753 ], [ 7.858, 13.6633 ], [ 7.8623, 13.6071 ] ] ] } },
{ "type": "Feature", "properties": { "iso3": "NER", "unit_id": "23599985B81952569357883", "unit_name": "Kantché" }, "geometry": { "type": "Polygon", "coordinates": [ [ [ 8.2624, 13.2154 ], [ 8.3286, 13.1526 ], [ 8.3318, 13.1647 ], [ 8.353, 13.1697 ], [ 8.3566, 13.1971 ], [ 8.4821, 13.1976 ], [ 8.5159, 13.2138 ], [ 8.5501, 13.2151 ], [ 8.5937, 13.2214 ], [ 8.6293, 13.2039 ], [ 8.6595, 13.216 ], [ 8.691, 13.2718 ], [ 8.695, 13.3065 ], [ 8.7198, 13.3069 ], [ 8.7405, 13.2984 ], [ 8.7783, 13.2943 ], [ 8.8003, 13.3186 ], [ 8.7999, 13.3578 ], [ 8.7823, 13.3735 ], [ 8.7828, 13.4037 ], [ 8.794, 13.4244 ], [ 8.7931, 13.4879 ], [ 8.7481, 13.5239 ], [ 8.7405, 13.5225 ], [ 8.7076, 13.5045 ], [ 8.6923, 13.509 ], [ 8.6775, 13.5756 ], [ 8.6784, 13.6945 ], [ 8.6334, 13.699 ], [ 8.5631, 13.6584 ], [ 8.5307, 13.6526 ], [ 8.4565, 13.6566 ], [ 8.3827, 13.6562 ], [ 8.3041, 13.6408 ], [ 8.3139, 13.6353 ], [ 8.3566, 13.5924 ], [ 8.3378, 13.5524 ], [ 8.3505, 13.4081 ], [ 8.3592, 13.3767 ], [ 8.3364, 13.3611 ], [ 8.3298, 13.3459 ], [ 8.3422, 13.3217 ], [ 8.3416, 13.3018 ], [ 8.2811, 13.252 ], [ 8.2823, 13.2315 ], [ 8.2624, 13.2154 ] ] ] } },
{ "type": "Feature", "properties": { "iso3": "NER", "unit_id": "23599985B25575457251727", "unit_name": "Takeita" }, "geometry": { "type": "Polygon", "coordinates": [ [ [ 8.3041, 13.6408 ], [ 8.3827, 13.6562 ], [ 8.4565, 13.6566 ], [ 8.5307, 13.6526 ], [ 8.5631, 13.6584 ], [ 8.6334, 13.699 ], [ 8.6784, 13.6945 ], [ 8.8111, 13.6922 ], [ 8.8354, 13.7129 ], [ 8.8534, 13.744 ], [ 8.857, 13.7692 ], [ 8.8665, 13.7786 ], [ 8.8926, 13.7827 ], [ 8.8903, 13.7935 ], [ 8.8777, 13.7992 ], [ 8.869, 13.8082 ], [ 8.8811, 13.8243 ], [ 8.8883, 13.8505 ], [ 8.8808, 13.8609 ], [ 8.8906, 13.8759 ], [ 8.9062, 13.8834 ], [ 8.937, 13.8802 ], [ 8.9252, 13.9021 ], [ 8.9693, 13.9222 ], [ 9.0125, 13.928 ], [ 9.03, 13.9145 ], [ 9.0681, 13.9093 ], [ 9.0899, 13.8796 ], [ 9.1141, 13.8897 ], [ 9.1352, 13.9225 ], [ 9.1985, 13.9467 ], [ 9.2011, 13.9562 ], [ 9.1813, 13.9698 ], [ 9.179, 14.0115 ], [ 9.1715, 14.0167 ], [ 9.1274, 14.0317 ], [ 9.1104, 14.0579 ], [ 9.0871, 14.0743 ], [ 9.0865, 14.0804 ], [ 9.0943, 14.0957 ], [ 9.0922, 14.1449 ], [ 9.083, 14.1576 ], [ 9.0678, 14.1596 ], [ 9.0153, 14.2178 ], [ 9.011, 14.2598 ], [ 8.9851, 14.2604 ], [ 8.9721, 14.2293 ], [ 8.9384, 14.2264 ], [ 8.8736, 14.1881 ], [ 8.841, 14.1817 ], [ 8.759, 14.144 ], [ 8.7066, 14.1265 ], [ 8.6674, 14.1028 ], [ 8.6345, 14.1294 ], [ 8.5784, 14.2123 ], [ 8.5343, 14.2146 ], [ 8.5262, 14.2005 ], [ 8.5271, 14.0674 ], [ 8.5519, 14.0282 ], [ 8.5491, 13.9675 ], [ 8.5386, 13.9414 ], [ 8.5303, 13.8805 ], [ 8.5038, 13.86 ], [ 8.4496, 13.8497 ], [ 8.394, 13.8485 ], [ 8.3433, 13.7975 ], [ 8.2848, 13.7563 ], [ 8.2339, 13.7278 ], [ 8.2347, 13.6794 ], [ 8.3041, 13.6408 ] ] ] } },
{ "type": "Feature", "properties": { "iso3": "NER", "unit_id": "23599985B72934105448405", "unit_name": "Magaria" }, "geometry": { "type": "MultiPolygon", "coordinates": [ [ [ [ 8.3286, 13.1526 ], [ 8.4176, 13.0716 ], [ 8.4643, 13.078 ], [ 8.4695, 13.0834 ], [ 8.5029, 13.0829 ], [ 8.5671, 13.0532 ], [ 8.6449, 12.9717 ], [ 8.6631, 12.9432 ], [ 8.6858, 12.9305 ], [ 8.877, 12.8813 ], [ 8.9417, 12.8483 ], [ 8.9713, 12.8412 ], [ 9.1991, 12.8398 ], [ 9.1984, 12.8651 ], [ 9.1838, 12.8786 ], [ 9.1841, 12.9069 ], [ 9.1932, 12.9163 ], [ 9.1937, 12.9253 ], [ 9.2013, 12.937 ], [ 9.2022, 12.9676 ], [ 9.1604, 12.968 ], [ 9.1496, 12.9883 ], [ 9.1509, 13.0513 ], [ 9.1365, 13.0666 ], [ 9.1082, 13.0742 ], [ 9.078, 13.1017 ], [ 9.0776, 13.1242 ], [ 9.0708, 13.1337 ], [ 9.0686, 13.1805 ], [ 9.0938, 13.1818 ], [ 9.1077, 13.1877 ], [ 9.1068, 13.2282 ], [ 9.0983, 13.2403 ], [ 9.1005, 13.2853 ], [ 9.11, 13.2997 ], [ 9.083, 13.3006 ], [ 9.0659, 13.3047 ], [ 9.0159, 13.3047 ], [ 8.9858, 13.2894 ], [ 8.9056, 13.2894 ], [ 8.8917, 13.2808 ], [ 8.8651, 13.2817 ], [ 8.8579, 13.2885 ], [ 8.7405, 13.2984 ], [ 8.7198, 13.3069 ], [ 8.695, 13.3065 ], [ 8.691, 13.2718 ], [ 8.6595, 13.216 ], [ 8.6541, 13.2129 ], [ 8.6293, 13.2039 ], [ 8.5937, 13.2214 ], [ 8.5501, 13.2151 ], [ 8.5159, 13.2138 ], [ 8.4821, 13.1976 ], [ 8.3566, 13.1971 ], [ 8.353, 13.1697 ], [ 8.3318, 13.1647 ], [ 8.3286, 13.1526 ] ] ], [ [ [ 9.541, 13.58 ], [ 9.5405, 13.6069 ], [ 9.5077, 13.6079 ], [ 9.4468, 13.5979 ], [ 9.3679, 13.5903 ], [ 9.342, 13.5721 ], [ 9.328, 13.5729 ], [ 9.3032, 13.5897 ], [ 9.2658, 13.5907 ], [ 9.2497, 13.5667 ], [ 9.2493, 13.4095 ], [ 9.2208, 13.3845 ], [ 9.2014, 13.357 ], [ 9.1995, 13.3304 ], [ 9.1803, 13.3068 ], [ 9.1783, 13.2755 ], [ 9.193, 13.2565 ], [ 9.2301, 13.2565 ], [ 9.3157, 13.2643 ], [ 9.3323, 13.2721 ], [ 9.3582, 13.2711 ], [ 9.3763, 13.2472 ], [ 9.3802, 13.2125 ], [ 9.3943, 13.2061 ], [ 9.4129, 13.2125 ], [ 9.4408, 13.2379 ], [ 9.4471, 13.2579 ], [ 9.4388, 13.2716 ], [ 9.4134, 13.2907 ], [ 9.4114, 13.3063 ], [ 9.43, 13.3107 ], [ 9.4481, 13.3058 ], [ 9.497, 13.3396 ], [ 9.5204, 13.364 ], [ 9.5087, 13.3655 ], [ 9.4779, 13.4002 ], [ 9.4481, 13.4036 ], [ 9.4339, 13.4231 ], [ 9.4501, 13.4471 ], [ 9.4491, 13.4945 ], [ 9.4672, 13.5287 ], [ 9.4672, 13.5536 ], [ 9.4848, 13.5668 ], [ 9.5112, 13.5693 ], [ 9.541, 13.58 ] ] ] ] } },
{ "type": "Feature", "properties": { "iso3": "NER", "unit_id": "23599985B42361363165505", "unit_name": "Iférouane" }, "geometry": { "type": "Polygon", "coordinates": [ [ [ 8.4524, 17.9607 ], [ 9.024, 17.9897 ], [ 10.0628, 17.9983 ], [ 10.3512, 18.0034 ], [ 11.0002, 18.0069 ], [ 11.0204, 18.7303 ], [ 11.0191, 19.0439 ], [ 11.0071, 20.3401 ], [ 10.975, 22.9422 ], [ 10.8058, 22.8367 ], [ 9.8795, 22.2972 ], [ 8.5642, 21.5105 ], [ 7.9398, 21.1288 ], [ 8.0444, 19.3194 ], [ 8.1027, 19.237 ], [ 8.1422, 19.1425 ], [ 8.2203, 18.9865 ], [ 8.2103, 18.9347 ], [ 8.1696, 18.7801 ], [ 8.1133, 18.6929 ], [ 8.0817, 18.6352 ], [ 8.0591, 18.6061 ], [ 8.0456, 18.5544 ], [ 8.0307, 18.5134 ], [ 8.0086, 18.3743 ], [ 8.0073, 18.337 ], [ 8.0604, 18.2996 ], [ 8.1405, 18.2618 ], [ 8.2031, 18.2416 ], [ 8.2206, 18.224 ], [ 8.2238, 18.2033 ], [ 8.2517, 18.1543 ], [ 8.2746, 18.1308 ], [ 8.3102, 18.1164 ], [ 8.33, 18.0957 ], [ 8.3399, 18.0525 ], [ 8.3822, 18.0197 ], [ 8.4763, 18.0098 ], [ 8.4943, 17.9999 ], [ 8.4524, 17.9607 ] ] ] } },
{ "type": "Feature", "properties": { "iso3": "NER", "unit_id": "23599985B66307714151869", "unit_name": "Tchirozérine" }, "geometry": { "type": "Polygon", "coordinates": [ [ [ 7.5685, 17.3927 ], [ 7.5469, 17.4439 ], [ 7.4872, 17.5649 ], [ 7.4492, 17.6159 ], [ 7.4498, 17.6294 ], [ 7.4579, 17.6464 ], [ 7.463, 17.6827 ], [ 7.4766, 17.7055 ], [ 7.4919, 17.7066 ], [ 7.6673, 17.808 ], [ 7.709, 17.8218 ], [ 7.7874, 17.8596 ], [ 7.8652, 17.861 ], [ 7.9461, 17.882 ], [ 7.9997, 17.9051 ], [ 8.0276, 17.9232 ], [ 8.0458, 17.9494 ], [ 8.4524, 17.9607 ], [ 9.024, 17.9897 ], [ 10.0628, 17.9983 ], [ 10.3512, 18.0034 ], [ 11.0002, 18.0069 ], [ 10.988, 17.6593 ], [ 10.9086, 17.6425 ], [ 10.7768, 17.6421 ], [ 10.4413, 17.585 ], [ 10.3006, 17.5517 ], [ 10.0292, 17.5485 ], [ 9.9216, 17.5169 ], [ 9.8042, 17.4757 ], [ 9.7447, 17.4501 ], [ 9.5873, 17.4013 ], [ 9.4962, 17.3683 ], [ 9.1456, 17.2967 ], [ 9.0145, 17.2742 ], [ 8.9306, 17.2639 ], [ 8.8005, 17.2199 ], [ 8.9692, 17.1128 ], [ 9.0675, 17.0102 ], [ 9.0678, 16.9579 ], [ 9.0, 16.9281 ], [ 8.9762, 16.9074 ], [ 8.8183, 16.8534 ], [ 8.6916, 16.8213 ], [ 8.6396, 16.8241 ], [ 8.6142, 16.8358 ], [ 8.3413, 16.837 ], [ 8.2744, 16.8018 ], [ 8.1466, 16.7607 ], [ 8.1321, 16.7592 ], [ 8.041, 16.8487 ], [ 8.0175, 16.835 ], [ 7.9424, 16.837 ], [ 7.8525, 16.8444 ], [ 7.8396, 16.8499 ], [ 7.7106, 16.88 ], [ 7.684, 16.8515 ], [ 7.6605, 16.846 ], [ 7.6183, 16.8268 ], [ 7.5613, 16.8081 ], [ 7.5204, 16.9686 ], [ 7.5593, 17.0732 ], [ 7.495, 17.1196 ], [ 7.4394, 17.14 ], [ 7.3792, 17.1899 ], [ 7.3759, 17.1979 ], [ 7.4535, 17.2455 ], [ 7.5051, 17.2685 ], [ 7.5438, 17.2986 ], [ 7.5553, 17.3102 ], [ 7.5665, 17.3694 ], [ 7.5685, 17.3927 ] ] ] } },
{ "type": "Feature", "properties": { "iso3": "NER", "unit_id": "23599985B52241460380538", "unit_name": "Aderbissinat" }, "geometry": { "type": "Polygon", "coordinates": [ [ [ 7.3412, 15.344 ], [ 7.461, 15.5318 ], [ 7.4906, 15.5713 ], [ 7.5038, 15.5834 ], [ 7.6379, 15.5757 ], [ 7.85, 15.534 ], [ 7.9994, 15.5296 ], [ 8.0422, 15.5439 ], [ 8.1302, 15.5637 ], [ 8.3169, 15.5647 ], [ 8.4589, 15.6017 ], [ 8.6212, 15.6757 ], [ 8.7083, 15.7222 ], [ 9.0412, 15.8857 ], [ 9.1283, 15.9179 ], [ 9.1987, 15.9394 ], [ 9.2775, 15.9513 ], [ 9.3682, 15.9943 ], [ 9.4636, 16.0587 ], [ 9.5269, 16.116 ], [ 9.5675, 16.1351 ], [ 9.6283, 16.184 ], [ 9.8037, 16.2986 ], [ 9.9684, 16.4131 ], [ 10.1354, 16.5217 ], [ 10.5769, 16.8272 ], [ 10.8418, 16.9954 ], [ 11.0017, 17.1171 ], [ 10.988, 17.6593 ], [ 10.9086, 17.6425 ], [ 10.7768, 17.6421 ], [ 10.4413, 17.585 ], [ 10.3006, 17.5517 ], [ 10.0292, 17.5485 ], [ 9.9216, 17.5169 ], [ 9.8042, 17.4757 ], [ 9.7447, 17.4501 ], [ 9.5873, 17.4013 ], [ 9.4962, 17.3683 ], [ 9.1456, 17.2967 ], [ 9.0145, 17.2742 ], [ 8.9306, 17.2639 ], [ 8.8343, 17.2327 ], [ 8.8005, 17.2199 ], [ 8.9692, 17.1128 ], [ 9.0675, 17.0102 ], [ 9.0678, 16.9579 ], [ 9.0, 16.9281 ], [ 8.9762, 16.9074 ], [ 8.8183, 16.8534 ], [ 8.6916, 16.8213 ], [ 8.6396, 16.8241 ], [ 8.6142, 16.8358 ], [ 8.3413, 16.837 ], [ 8.2744, 16.8018 ], [ 8.1466, 16.7607 ], [ 8.1321, 16.7592 ], [ 8.041, 16.8487 ], [ 8.0175, 16.835 ], [ 7.9424, 16.837 ], [ 7.8525, 16.8444 ], [ 7.8396, 16.8499 ], [ 7.7106, 16.88 ], [ 7.684, 16.8515 ], [ 7.6605, 16.846 ], [ 7.6183, 16.8268 ], [ 7.5613, 16.8081 ], [ 7.5311, 16.7901 ], [ 7.5032, 16.7599 ], [ 7.4695, 16.7005 ], [ 7.4465, 16.5925 ], [ 7.4199, 16.5421 ], [ 7.3857, 16.5047 ], [ 7.3493, 16.4543 ], [ 7.3457, 16.4359 ], [ 7.2935, 16.3949 ], [ 7.2759, 16.3918 ], [ 7.2584, 16.3017 ], [ 7.2507, 16.1555 ], [ 7.2908, 16.0582 ], [ 7.208, 16.0159 ], [ 7.1544, 15.9948 ], [ 7.1269, 15.9664 ], [ 7.0693, 15.9358 ], [ 7.0297, 15.9106 ], [ 7.0648, 15.8665 ], [ 7.1071, 15.8292 ], [ 7.1076, 15.7828 ], [ 7.0774, 15.763 ], [ 7.018, 15.7486 ], [ 6.9667, 15.7481 ], [ 6.9519, 15.677 ], [ 6.9753, 15.5371 ], [ 7.0181, 15.4535 ], [ 7.0423, 15.4547 ], [ 7.1877, 15.3953 ], [ 7.3412, 15.344 ] ] ] } },
{ "type": "Feature", "properties": { "iso3": "NER", "unit_id": "23599985B69081741011402", "unit_name": "Tanout" }, "geometry": { "type": "Polygon", "coordinates": [ [ [ 8.0855, 14.4537 ], [ 8.1426, 14.441 ], [ 8.1757, 14.4379 ], [ 8.2048, 14.4099 ], [ 8.2768, 14.3987 ], [ 8.2848, 14.3805 ], [ 8.3764, 14.3059 ], [ 8.4165, 14.2506 ], [ 8.424, 14.2129 ], [ 8.4741, 14.1838 ], [ 8.5267, 14.1621 ], [ 8.5262, 14.2005 ], [ 8.5343, 14.2146 ], [ 8.5784, 14.2123 ], [ 8.6345, 14.1294 ], [ 8.6674, 14.1028 ], [ 8.7066, 14.1265 ], [ 8.759, 14.144 ], [ 8.841, 14.1817 ], [ 8.8736, 14.1881 ], [ 8.9384, 14.2264 ], [ 8.9721, 14.2293 ], [ 8.9851, 14.2604 ], [ 9.011, 14.2598 ], [ 9.0332, 14.2838 ], [ 9.063, 14.3366 ], [ 9.1084, 14.3826 ], [ 9.1544, 14.385 ], [ 9.2844, 14.4153 ], [ 9.3215, 14.4541 ], [ 9.3497, 14.4916 ], [ 9.3803, 14.5198 ], [ 9.3809, 14.7299 ], [ 9.5467, 14.8383 ], [ 9.6152, 14.9442 ], [ 9.6283, 16.184 ], [ 9.5675, 16.1351 ], [ 9.5269, 16.116 ], [ 9.4636, 16.0587 ], [ 9.3682, 15.9943 ], [ 9.2775, 15.9513 ], [ 9.1987, 15.9394 ], [ 9.1283, 15.9179 ], [ 9.0412, 15.8857 ], [ 8.7083, 15.7222 ], [ 8.6212, 15.6757 ], [ 8.4589, 15.6017 ], [ 8.3732, 15.5803 ], [ 8.375, 15.538 ], [ 8.3557, 15.4709 ], [ 8.3318, 15.3548 ], [ 8.3214, 15.3296 ], [ 8.3205, 15.3165 ], [ 8.3453, 15.2846 ], [ 8.3741, 15.2801 ], [ 8.4137, 15.2918 ], [ 8.4164, 15.272 ], [ 8.411, 15.2648 ], [ 8.4119, 15.1554 ], [ 8.4187, 15.0901 ], [ 8.3597, 15.0915 ], [ 8.2593, 15.0694 ], [ 8.253, 15.0586 ], [ 8.2076, 15.055 ], [ 8.1666, 15.024 ], [ 8.1459, 15.0123 ], [ 8.145, 14.979 ], [ 8.1239, 14.9263 ], [ 8.118, 14.9214 ], [ 8.1203, 14.8714 ], [ 8.1302, 14.8421 ], [ 8.109, 14.8277 ], [ 8.1045, 14.8205 ], [ 8.1324, 14.7818 ], [ 8.127, 14.7737 ], [ 8.0856, 14.7503 ], [ 8.055, 14.7472 ], [ 8.0478, 14.7319 ], [ 8.0573, 14.7175 ], [ 8.0915, 14.7143 ], [ 8.1054, 14.6968 ], [ 8.1122, 14.6198 ], [ 8.0982, 14.6075 ], [ 8.0769, 14.5951 ], [ 8.0584, 14.5951 ], [ 8.0484, 14.5776 ], [ 8.0374, 14.5323 ], [ 8.021, 14.5246 ], [ 8.0213, 14.4813 ], [ 8.0449, 14.4669 ], [ 8.0855, 14.4537 ] ] ] } },
{ "type": "Feature", "properties": { "iso3": "NER", "unit_id": "23599985B91194911882215", "unit_name": "Damagaram Takaya" }, "geometry": { "type": "Polygon", "coordinates": [ [ [ 9.2011, 13.9562 ], [ 9.2702, 13.9603 ], [ 9.3005, 13.996 ], [ 9.3264, 13.9647 ], [ 9.3381, 13.9451 ], [ 9.3919, 13.9446 ], [ 9.4095, 13.9241 ], [ 9.41, 13.8811 ], [ 9.3835, 13.8409 ], [ 9.3641, 13.7987 ], [ 9.3387, 13.7833 ], [ 9.3631, 13.7583 ], [ 9.4549, 13.7555 ], [ 9.4706, 13.7394 ], [ 9.4794, 13.7232 ], [ 9.4779, 13.688 ], [ 9.5038, 13.6626 ], [ 9.5077, 13.6079 ], [ 9.5405, 13.6069 ], [ 9.5591, 13.6182 ], [ 9.6201, 13.6177 ], [ 9.6959, 13.67 ], [ 9.7037, 13.6959 ], [ 9.7002, 13.8348 ], [ 9.7086, 13.86 ], [ 9.7102, 13.9135 ], [ 9.7023, 13.9319 ], [ 9.7018, 13.9583 ], [ 9.73, 14.0089 ], [ 9.7394, 14.0194 ], [ 9.8435, 14.0443 ], [ 9.9403, 14.0634 ], [ 9.9417, 14.0771 ], [ 9.9095, 14.1245 ], [ 9.9315, 14.1563 ], [ 9.9476, 14.2071 ], [ 9.9496, 14.2267 ], [ 9.9075, 14.2267 ], [ 9.8303, 14.3107 ], [ 9.8156, 14.3112 ], [ 9.7851, 14.3486 ], [ 9.7566, 14.4114 ], [ 9.7063, 14.3999 ], [ 9.6259, 14.3504 ], [ 9.6162, 14.3415 ], [ 9.5683, 14.3864 ], [ 9.5058, 14.3723 ], [ 9.4839, 14.3727 ], [ 9.4344, 14.4252 ], [ 9.406, 14.4405 ], [ 9.3872, 14.4746 ], [ 9.3803, 14.5198 ], [ 9.3497, 14.4916 ], [ 9.3215, 14.4541 ], [ 9.2844, 14.4153 ], [ 9.1544, 14.385 ], [ 9.1084, 14.3826 ], [ 9.063, 14.3366 ], [ 9.0332, 14.2838 ], [ 9.011, 14.2598 ], [ 9.0153, 14.2178 ], [ 9.0678, 14.1596 ], [ 9.083, 14.1576 ], [ 9.0922, 14.1449 ], [ 9.0943, 14.0957 ], [ 9.0865, 14.0804 ], [ 9.0871, 14.0743 ], [ 9.1104, 14.0579 ], [ 9.1274, 14.0317 ], [ 9.1715, 14.0167 ], [ 9.179, 14.0115 ], [ 9.1813, 13.9698 ], [ 9.2011, 13.9562 ] ] ] } },
{ "type": "Feature", "properties": { "iso3": "NER", "unit_id": "23599985B17840081467963", "unit_name": "Zinder" }, "geometry": { "type": "Polygon", "coordinates": [ [ [ 8.8926, 13.7827 ], [ 8.9207, 13.7887 ], [ 8.9354, 13.8088 ], [ 8.9383, 13.8009 ], [ 8.9383, 13.7728 ], [ 8.9242, 13.7628 ], [ 8.9237, 13.756 ], [ 8.9806, 13.7495 ], [ 8.9569, 13.7213 ], [ 8.9535, 13.6968 ], [ 8.9755, 13.6848 ], [ 8.9559, 13.6514 ], [ 8.9618, 13.5927 ], [ 8.9994, 13.5942 ], [ 9.0273, 13.5795 ], [ 9.0537, 13.5932 ], [ 9.0674, 13.5932 ], [ 9.0977, 13.6015 ], [ 9.0776, 13.6538 ], [ 9.0581, 13.6866 ], [ 9.0591, 13.7369 ], [ 9.0551, 13.755 ], [ 9.0664, 13.7662 ], [ 9.0679, 13.7746 ], [ 9.0581, 13.7848 ], [ 9.0561, 13.8381 ], [ 9.0511, 13.8577 ], [ 9.0633, 13.8722 ], [ 9.0899, 13.8796 ], [ 9.0681, 13.9093 ], [ 9.03, 13.9145 ], [ 9.0125, 13.928 ], [ 8.9693, 13.9222 ], [ 8.9252, 13.9021 ], [ 8.937, 13.8802 ], [ 8.9062, 13.8834 ], [ 8.8906, 13.8759 ], [ 8.8808, 13.8609 ], [ 8.8883, 13.8505 ], [ 8.8811, 13.8243 ], [ 8.869, 13.8082 ], [ 8.8777, 13.7992 ], [ 8.8903, 13.7935 ], [ 8.8926, 13.7827 ] ] ] } },
{ "type": "Feature", "properties": { "iso3": "NER", "unit_id": "23599985B93207740600063", "unit_name": "Mirriah" }, "geometry": { "type": "Polygon", "coordinates": [ [ [ 8.7783, 13.2943 ], [ 8.8579, 13.2885 ], [ 8.8651, 13.2817 ], [ 8.8917, 13.2808 ], [ 8.9056, 13.2894 ], [ 8.9858, 13.2894 ], [ 9.0159, 13.3047 ], [ 9.0659, 13.3047 ], [ 9.083, 13.3006 ], [ 9.11, 13.2997 ], [ 9.1803, 13.3068 ], [ 9.1995, 13.3304 ], [ 9.2014, 13.357 ], [ 9.2208, 13.3845 ], [ 9.2493, 13.4095 ], [ 9.2497, 13.5667 ], [ 9.2658, 13.5907 ], [ 9.3032, 13.5897 ], [ 9.328, 13.5729 ], [ 9.342, 13.5721 ], [ 9.3679, 13.5903 ], [ 9.4468, 13.5979 ], [ 9.5077, 13.6079 ], [ 9.5038, 13.6626 ], [ 9.4779, 13.688 ], [ 9.4794, 13.7232 ], [ 9.4706, 13.7394 ], [ 9.4549, 13.7555 ], [ 9.3631, 13.7583 ], [ 9.3387, 13.7833 ], [ 9.3641, 13.7987 ], [ 9.3835, 13.8409 ], [ 9.41, 13.8811 ], [ 9.4095, 13.9241 ], [ 9.3919, 13.9446 ], [ 9.3381, 13.9451 ], [ 9.3264, 13.9647 ], [ 9.3005, 13.996 ], [ 9.2702, 13.9603 ], [ 9.2011, 13.9562 ], [ 9.1985, 13.9467 ], [ 9.1352, 13.9225 ], [ 9.1141, 13.8897 ], [ 9.0633, 13.8722 ], [ 9.0511, 13.8577 ], [ 9.0561, 13.8381 ], [ 9.0581, 13.7848 ], [ 9.0679, 13.7746 ], [ 9.0664, 13.7662 ], [ 9.0551, 13.755 ], [ 9.0591, 13.7369 ], [ 9.0581, 13.6866 ], [ 9.0776, 13.6538 ], [ 9.0977, 13.6015 ], [ 9.0674, 13.5932 ], [ 9.0537, 13.5932 ], [ 9.0273, 13.5795 ], [ 8.9994, 13.5942 ], [ 8.9618, 13.5927 ], [ 8.9559, 13.6514 ], [ 8.9755, 13.6848 ], [ 8.9535, 13.6968 ], [ 8.9569, 13.7213 ], [ 8.9806, 13.7495 ], [ 8.9237, 13.756 ], [ 8.9242, 13.7628 ], [ 8.9383, 13.7728 ], [ 8.9383, 13.8009 ], [ 8.9354, 13.8088 ], [ 8.9207, 13.7887 ], [ 8.8665, 13.7786 ], [ 8.857, 13.7692 ], [ 8.8534, 13.744 ], [ 8.8354, 13.7129 ], [ 8.8111, 13.6922 ], [ 8.6784, 13.6945 ], [ 8.6775, 13.5756 ], [ 8.6923, 13.509 ], [ 8.7076, 13.5045 ], [ 8.7405, 13.5225 ], [ 8.7481, 13.5239 ], [ 8.7931, 13.4879 ], [ 8.794, 13.4244 ], [ 8.7828, 13.4037 ], [ 8.7823, 13.3735 ], [ 8.7999, 13.3578 ], [ 8.8003, 13.3186 ], [ 8.7783, 13.2943 ] ] ] } },
{ "type": "Feature", "properties": { "iso3": "NER", "unit_id": "23599985B10149369238340", "unit_name": "Dungass" }, "geometry": { "type": "Polygon", "coordinates": [ [ [ 9.1991, 12.8398 ], [ 9.2722, 12.8229 ], [ 9.344, 12.8229 ], [ 9.4051, 12.8317 ], [ 9.4735, 12.822 ], [ 9.4984, 12.8137 ], [ 9.6568, 12.8112 ], [ 9.7629, 12.9158 ], [ 9.8142, 12.9842 ], [ 9.9085, 13.082 ], [ 9.866, 13.1006 ], [ 9.7981, 13.1426 ], [ 9.7805, 13.1729 ], [ 9.7326, 13.3 ], [ 9.7037, 13.3508 ], [ 9.65, 13.4202 ], [ 9.6402, 13.4574 ], [ 9.6369, 13.5377 ], [ 9.6201, 13.6177 ], [ 9.5591, 13.6182 ], [ 9.5405, 13.6069 ], [ 9.541, 13.58 ], [ 9.5112, 13.5693 ], [ 9.4848, 13.5668 ], [ 9.4672, 13.5536 ], [ 9.4672, 13.5287 ], [ 9.4491, 13.4945 ], [ 9.4501, 13.4471 ], [ 9.4339, 13.4231 ], [ 9.4481, 13.4036 ], [ 9.4779, 13.4002 ], [ 9.5087, 13.3655 ], [ 9.5204, 13.364 ], [ 9.497, 13.3396 ], [ 9.4481, 13.3058 ], [ 9.43, 13.3107 ], [ 9.4114, 13.3063 ], [ 9.4134, 13.2907 ], [ 9.4388, 13.2716 ], [ 9.4471, 13.2579 ], [ 9.4408, 13.2379 ], [ 9.4129, 13.2125 ], [ 9.3943, 13.2061 ], [ 9.3802, 13.2125 ], [ 9.3763, 13.2472 ], [ 9.3582, 13.2711 ], [ 9.3323, 13.2721 ], [ 9.3157, 13.2643 ], [ 9.2301, 13.2565 ], [ 9.193, 13.2565 ], [ 9.1783, 13.2755 ], [ 9.1803, 13.3068 ], [ 9.11, 13.2997 ], [ 9.1005, 13.2853 ], [ 9.0983, 13.2403 ], [ 9.1068, 13.2282 ], [ 9.1077, 13.1877 ], [ 9.0938, 13.1818 ], [ 9.0686, 13.1805 ], [ 9.0708, 13.1337 ], [ 9.0776, 13.1242 ], [ 9.078, 13.1017 ], [ 9.1082, 13.0742 ], [ 9.1365, 13.0666 ], [ 9.1509, 13.0513 ], [ 9.1496, 12.9883 ], [ 9.1604, 12.968 ], [ 9.2022, 12.9676 ], [ 9.2013, 12.937 ], [ 9.1937, 12.9253 ], [ 9.1932, 12.9163 ], [ 9.1841, 12.9069 ], [ 9.1838, 12.8786 ], [ 9.1984, 12.8651 ], [ 9.1991, 12.8398 ] ] ] } },
{ "type": "Feature", "properties": { "iso3": "NER", "unit_id": "23599985B20082731758941", "unit_name": "Gouré" }, "geometry": { "type": "Polygon", "coordinates": [ [ [ 9.3803, 14.5198 ], [ 9.3872, 14.4746 ], [ 9.406, 14.4405 ], [ 9.4344, 14.4252 ], [ 9.4839, 14.3727 ], [ 9.5058, 14.3723 ], [ 9.5683, 14.3864 ], [ 9.6162, 14.3415 ], [ 9.6259, 14.3504 ], [ 9.7063, 14.3999 ], [ 9.7566, 14.4114 ], [ 9.7851, 14.3486 ], [ 9.8156, 14.3112 ], [ 9.8303, 14.3107 ], [ 9.9075, 14.2267 ], [ 9.9496, 14.2267 ], [ 9.9476, 14.2071 ], [ 9.9315, 14.1563 ], [ 9.9095, 14.1245 ], [ 9.9417, 14.0771 ], [ 9.9403, 14.0634 ], [ 9.8435, 14.0443 ], [ 9.7394, 14.0194 ], [ 9.73, 14.0089 ], [ 9.7018, 13.9583 ], [ 9.7023, 13.9319 ], [ 9.7102, 13.9135 ], [ 9.7086, 13.86 ], [ 9.7002, 13.8348 ], [ 9.7037, 13.6959 ], [ 9.6959, 13.67 ], [ 9.6201, 13.6177 ], [ 9.6369, 13.5377 ], [ 9.6402, 13.4574 ], [ 9.65, 13.4202 ], [ 9.7037, 13.3508 ], [ 9.7326, 13.3 ], [ 9.7805, 13.1729 ], [ 9.7981, 13.1426 ], [ 9.866, 13.1006 ], [ 9.9085, 13.082 ], [ 9.9399, 13.1071 ], [ 9.9746, 13.1546 ], [ 10.0019, 13.1831 ], [ 10.0266, 13.1881 ], [ 10.1436, 13.2541 ], [ 10.2021, 13.2797 ], [ 10.3025, 13.2788 ], [ 10.3725, 13.2879 ], [ 10.4561, 13.2879 ], [ 10.5224, 13.3119 ], [ 10.6484, 13.3654 ], [ 10.6392, 13.4358 ], [ 10.6079, 13.5228 ], [ 10.6143, 13.536 ], [ 10.6768, 13.581 ], [ 10.7081, 13.6074 ], [ 10.7189, 13.6274 ], [ 10.8142, 13.7271 ], [ 10.8249, 13.8332 ], [ 10.9124, 13.8928 ], [ 10.9373, 13.93 ], [ 11.0214, 13.9984 ], [ 11.0312, 14.0204 ], [ 11.061, 14.0551 ], [ 11.0801, 14.0874 ], [ 11.2218, 14.1753 ], [ 11.1788, 14.2051 ], [ 11.1148, 14.2433 ], [ 10.9809, 14.2861 ], [ 10.8778, 14.3365 ], [ 10.5578, 14.5114 ], [ 10.4725, 14.5737 ], [ 10.4354, 14.6103 ], [ 10.3655, 14.6201 ], [ 10.3068, 14.6616 ], [ 10.2736, 14.6778 ], [ 10.2296, 14.6543 ], [ 10.1803, 14.6436 ], [ 10.122, 14.6908 ], [ 10.0657, 14.7239 ], [ 9.8367, 14.906 ], [ 9.7272, 14.9886 ], [ 9.6426, 15.0272 ], [ 9.6161, 15.0302 ], [ 9.6152, 14.9442 ], [ 9.5467, 14.8383 ], [ 9.3809, 14.7299 ], [ 9.3803, 14.5198 ] ] ] } },
{ "type": "Feature", "properties": { "iso3": "NER", "unit_id": "23599985B16015640173227", "unit_name": "Tesker" }, "geometry": { "type": "Polygon", "coordinates": [ [ [ 9.6283, 16.184 ], [ 9.6161, 15.0302 ], [ 9.6426, 15.0272 ], [ 9.7272, 14.9886 ], [ 9.8367, 14.906 ], [ 10.0657, 14.7239 ], [ 10.122, 14.6908 ], [ 10.1803, 14.6436 ], [ 10.2296, 14.6543 ], [ 10.2736, 14.6778 ], [ 10.3068, 14.6616 ], [ 10.3655, 14.6201 ], [ 10.4354, 14.6103 ], [ 10.4725, 14.5737 ], [ 10.5578, 14.5114 ], [ 10.8778, 14.3365 ], [ 10.9809, 14.2861 ], [ 11.1148, 14.2433 ], [ 11.1788, 14.2051 ], [ 11.2218, 14.1753 ], [ 11.2528, 14.185 ], [ 11.3425, 14.1621 ], [ 11.4711, 14.1915 ], [ 11.5709, 14.2104 ], [ 11.6244, 14.2532 ], [ 11.7079, 14.3113 ], [ 11.7492, 14.3539 ], [ 11.7898, 14.3783 ], [ 11.8821, 14.3816 ], [ 11.91, 14.4021 ], [ 11.9652, 14.4217 ], [ 11.9833, 14.4358 ], [ 11.9662, 14.4481 ], [ 11.9329, 14.4544 ], [ 11.9141, 14.4648 ], [ 11.9073, 14.487 ], [ 11.9103, 14.5717 ], [ 11.9455, 14.5985 ], [ 12.0088, 14.6256 ], [ 12.0096, 17.5035 ], [ 11.8721, 17.4615 ], [ 11.6751, 17.3951 ], [ 11.6018, 17.3538 ], [ 11.5224, 17.3248 ], [ 11.4407, 17.2874 ], [ 11.3376, 17.2461 ], [ 11.2719, 17.2156 ], [ 11.2139, 17.1705 ], [ 11.1848, 17.1621 ], [ 11.0495, 17.0766 ], [ 11.0017, 17.1171 ], [ 10.8418, 16.9954 ], [ 10.5769, 16.8272 ], [ 10.1354, 16.5217 ], [ 9.9684, 16.4131 ], [ 9.8037, 16.2986 ], [ 9.6283, 16.184 ] ] ] } },
{ "type": "Feature", "properties": { "iso3": "NER", "unit_id": "23599985B75635581877036", "unit_name": "Goudoumaria" }, "geometry": { "type": "Polygon", "coordinates": [ [ [ 10.6484, 13.3654 ], [ 10.9847, 13.3789 ], [ 11.3572, 13.3792 ], [ 11.3632, 13.4149 ], [ 11.3854, 13.4549 ], [ 11.4248, 13.4661 ], [ 11.4398, 13.4746 ], [ 11.554, 13.473 ], [ 11.6087, 13.5074 ], [ 11.6863, 13.5106 ], [ 11.7442, 13.545 ], [ 11.746, 13.5835 ], [ 11.711, 13.6097 ], [ 11.7082, 13.6332 ], [ 11.7317, 13.6473 ], [ 11.7301, 13.6648 ], [ 11.7032, 13.6901 ], [ 11.7013, 13.7427 ], [ 11.6851, 13.7952 ], [ 11.665, 13.8324 ], [ 11.6234, 13.8725 ], [ 11.5987, 13.89 ], [ 11.5987, 13.9125 ], [ 11.6043, 13.9344 ], [ 11.6281, 13.9482 ], [ 11.6822, 13.9648 ], [ 11.6966, 13.9773 ], [ 11.6866, 14.0461 ], [ 11.6857, 14.1027 ], [ 11.7301, 14.1499 ], [ 11.7044, 14.2272 ], [ 11.7044, 14.2497 ], [ 11.7141, 14.2678 ], [ 11.718, 14.3218 ], [ 11.7079, 14.3113 ], [ 11.6244, 14.2532 ], [ 11.5709, 14.2104 ], [ 11.4711, 14.1915 ], [ 11.3425, 14.1621 ], [ 11.2528, 14.185 ], [ 11.2218, 14.1753 ], [ 11.0801, 14.0874 ], [ 11.061, 14.0551 ], [ 11.0312, 14.0204 ], [ 11.0214, 13.9984 ], [ 10.9373, 13.93 ], [ 10.9124, 13.8928 ], [ 10.8249, 13.8332 ], [ 10.8142, 13.7271 ], [ 10.7189, 13.6274 ], [ 10.7081, 13.6074 ], [ 10.6768, 13.581 ], [ 10.6143, 13.536 ], [ 10.6079, 13.5228 ], [ 10.6392, 13.4358 ], [ 10.6484, 13.3654 ] ] ] } },
{ "type": "Feature", "properties": { "iso3": "NER", "unit_id": "23599985B74336618625682", "unit_name": "Maïné-Soroa" }, "geometry": { "type": "Polygon", "coordinates": [ [ [ 11.718, 14.3218 ], [ 11.7141, 14.2678 ], [ 11.7044, 14.2497 ], [ 11.7044, 14.2272 ], [ 11.7301, 14.1499 ], [ 11.6857, 14.1027 ], [ 11.6866, 14.0461 ], [ 11.6966, 13.9773 ], [ 11.6822, 13.9648 ], [ 11.6281, 13.9482 ], [ 11.6043, 13.9344 ], [ 11.5987, 13.9125 ], [ 11.5987, 13.89 ], [ 11.6234, 13.8725 ], [ 11.665, 13.8324 ], [ 11.6851, 13.7952 ], [ 11.7013, 13.7427 ], [ 11.7032, 13.6901 ], [ 11.7301, 13.6648 ], [ 11.7317, 13.6473 ], [ 11.7082, 13.6332 ], [ 11.711, 13.6097 ], [ 11.746, 13.5835 ], [ 11.7442, 13.545 ], [ 11.6863, 13.5106 ], [ 11.6087, 13.5074 ], [ 11.554, 13.473 ], [ 11.4398, 13.4746 ], [ 11.4248, 13.4661 ], [ 11.3854, 13.4549 ], [ 11.3632, 13.4149 ], [ 11.3572, 13.3792 ], [ 11.4368, 13.3704 ], [ 11.4686, 13.362 ], [ 11.518, 13.364 ], [ 11.625, 13.3107 ], [ 11.7003, 13.2897 ], [ 11.866, 13.256 ], [ 11.9188, 13.214 ], [ 11.9627, 13.1959 ], [ 12.0175, 13.1431 ], [ 12.1035, 13.0893 ], [ 12.1265, 13.102 ], [ 12.1641, 13.1059 ], [ 12.1837, 13.1206 ], [ 12.2032, 13.1064 ], [ 12.2531, 13.1069 ], [ 12.2677, 13.0859 ], [ 12.2809, 13.0981 ], [ 12.2555, 13.1719 ], [ 12.212, 13.2788 ], [ 12.1593, 13.4369 ], [ 12.1448, 13.4598 ], [ 12.1446, 13.5615 ], [ 12.1226, 13.6406 ], [ 12.1245, 13.7218 ], [ 12.3449, 13.7487 ], [ 12.4251, 13.7623 ], [ 12.3713, 13.9095 ], [ 12.3274, 13.995 ], [ 12.3264, 14.0101 ], [ 12.3054, 14.0214 ], [ 12.2027, 14.0243 ], [ 12.1661, 14.0316 ], [ 12.0937, 14.0331 ], [ 12.0273, 14.0424 ], [ 12.0301, 14.4349 ], [ 11.9829, 14.4355 ], [ 11.9652, 14.4217 ], [ 11.91, 14.4021 ], [ 11.8821, 14.3816 ], [ 11.7898, 14.3783 ], [ 11.7492, 14.3539 ], [ 11.718, 14.3218 ] ] ] } },
{ "type": "Feature", "properties": { "iso3": "NER", "unit_id": "23599985B27242520162456", "unit_name": "N'Guigmi" }, "geometry": { "type": "Polygon", "coordinates": [ [ [ 12.4251, 13.7623 ], [ 12.5572, 13.7798 ], [ 12.9421, 13.8554 ], [ 13.0719, 13.8753 ], [ 13.2422, 13.9157 ], [ 13.5629, 13.9257 ], [ 13.4774, 14.3151 ], [ 13.4552, 14.4373 ], [ 13.4743, 14.487 ], [ 13.2926, 14.5939 ], [ 13.2865, 14.5274 ], [ 13.2659, 14.4167 ], [ 13.1918, 14.3739 ], [ 13.0024, 14.3984 ], [ 12.8611, 14.4702 ], [ 12.7847, 14.5168 ], [ 12.7695, 14.5007 ], [ 12.7145, 14.5022 ], [ 12.6407, 14.4665 ], [ 12.5609, 14.4374 ], [ 12.4802, 14.4271 ], [ 12.4039, 14.4233 ], [ 12.3939, 14.4002 ], [ 12.4602, 14.3983 ], [ 12.4614, 14.3805 ], [ 12.4342, 14.3701 ], [ 12.3958, 14.3769 ], [ 12.3785, 14.3964 ], [ 12.2303, 14.4021 ], [ 12.1524, 14.4424 ], [ 12.0286, 14.4349 ], [ 12.0273, 14.0424 ], [ 12.0937, 14.0331 ], [ 12.1661, 14.0316 ], [ 12.2027, 14.0243 ], [ 12.3054, 14.0214 ], [ 12.3264, 14.0101 ], [ 12.3274, 13.995 ], [ 12.3713, 13.9095 ], [ 12.4251, 13.7623 ] ] ] } },
{ "type": "Feature", "properties": { "iso3": "NER", "unit_id": "23599985B32057380818540", "unit_name": "N'Gourti" }, "geometry": { "type": "Polygon", "coordinates": [ [ [ 11.9833, 14.4358 ], [ 12.0822, 14.4368 ], [ 12.1524, 14.4424 ], [ 12.2303, 14.4021 ], [ 12.3785, 14.3964 ], [ 12.3958, 14.3769 ], [ 12.4342, 14.3701 ], [ 12.4614, 14.3805 ], [ 12.4602, 14.3983 ], [ 12.3939, 14.4002 ], [ 12.4039, 14.4233 ], [ 12.4802, 14.4271 ], [ 12.5609, 14.4374 ], [ 12.6407, 14.4665 ], [ 12.7145, 14.5022 ], [ 12.7695, 14.5007 ], [ 12.7847, 14.5168 ], [ 12.8611, 14.4702 ], [ 13.0024, 14.3984 ], [ 13.1918, 14.3739 ], [ 13.2659, 14.4167 ], [ 13.2865, 14.5274 ], [ 13.2926, 14.5939 ], [ 13.4743, 14.487 ], [ 13.5148, 14.4931 ], [ 13.5477, 14.5045 ], [ 13.595, 14.5084 ], [ 13.6339, 14.5198 ], [ 13.6729, 14.5511 ], [ 13.6752, 14.6168 ], [ 13.6546, 14.6351 ], [ 13.6775, 14.6527 ], [ 13.6813, 14.668 ], [ 13.7256, 14.7016 ], [ 13.7653, 14.7046 ], [ 13.792, 14.723 ], [ 13.7882, 14.7833 ], [ 13.7722, 14.8077 ], [ 13.7729, 14.8703 ], [ 13.8088, 14.9482 ], [ 13.8417, 15.0101 ], [ 13.8501, 15.0475 ], [ 13.9219, 15.1162 ], [ 13.9257, 15.1346 ], [ 13.9822, 15.1926 ], [ 14.0074, 15.2346 ], [ 14.0998, 15.3706 ], [ 14.1311, 15.4019 ], [ 14.1426, 15.4362 ], [ 14.1975, 15.505 ], [ 14.3762, 15.7455 ], [ 14.4091, 15.7646 ], [ 14.4496, 15.8219 ], [ 14.5801, 15.9464 ], [ 14.6115, 15.9632 ], [ 14.6145, 15.9838 ], [ 14.9055, 16.2831 ], [ 15.0674, 16.4618 ], [ 15.0972, 16.4886 ], [ 15.1674, 16.5688 ], [ 15.1972, 16.5856 ], [ 15.2308, 16.6268 ], [ 15.2392, 16.652 ], [ 15.2766, 16.6612 ], [ 15.3652, 16.7788 ], [ 15.3919, 16.7879 ], [ 15.4278, 16.8422 ], [ 15.4882, 16.8872 ], [ 15.4981, 17.0422 ], [ 15.5206, 17.5312 ], [ 15.5385, 17.9977 ], [ 15.4182, 17.9901 ], [ 12.9979, 18.0008 ], [ 12.8899, 17.9568 ], [ 12.7599, 17.8982 ], [ 12.1929, 17.6733 ], [ 12.192, 17.5932 ], [ 12.0981, 17.5399 ], [ 12.0096, 17.5035 ], [ 12.0088, 14.6256 ], [ 11.9455, 14.5985 ], [ 11.9103, 14.5717 ], [ 11.9073, 14.487 ], [ 11.9141, 14.4648 ], [ 11.9329, 14.4544 ], [ 11.9662, 14.4481 ], [ 11.9833, 14.4358 ] ] ] } },
{ "type": "Feature", "properties": { "iso3": "NER", "unit_id": "23599985B30294266740058", "unit_name": "Bilma" }, "geometry": { "type": "Polygon", "coordinates": [ [ [ 11.0204, 18.7303 ], [ 10.988, 17.6593 ], [ 11.0017, 17.1171 ], [ 11.0495, 17.0766 ], [ 11.1848, 17.1621 ], [ 11.2139, 17.1705 ], [ 11.2719, 17.2156 ], [ 11.3376, 17.2461 ], [ 11.4407, 17.2874 ], [ 11.5224, 17.3248 ], [ 11.6018, 17.3538 ], [ 11.6751, 17.3951 ], [ 11.8721, 17.4615 ], [ 12.0096, 17.5035 ], [ 12.0981, 17.5399 ], [ 12.192, 17.5932 ], [ 12.1929, 17.6733 ], [ 12.7599, 17.8982 ], [ 12.8899, 17.9568 ], [ 12.9979, 18.0008 ], [ 15.4182, 17.9901 ], [ 15.5385, 17.9977 ], [ 15.5827, 18.7348 ], [ 15.6206, 19.0552 ], [ 15.6643, 19.364 ], [ 15.7007, 19.5621 ], [ 15.7437, 19.9415 ], [ 15.8069, 20.0191 ], [ 15.8642, 20.1337 ], [ 15.9418, 20.2601 ], [ 15.9967, 20.3353 ], [ 15.943, 20.3632 ], [ 15.9012, 20.4153 ], [ 15.8547, 20.4558 ], [ 15.7652, 20.5871 ], [ 15.6852, 20.6814 ], [ 15.579, 20.7565 ], [ 15.5408, 20.8592 ], [ 15.542, 20.8794 ], [ 15.5599, 20.9117 ], [ 15.6089, 20.9391 ], [ 15.6208, 20.9558 ], [ 15.5241, 21.0918 ], [ 15.3893, 21.2672 ], [ 15.2843, 21.4212 ], [ 15.1984, 21.4725 ], [ 15.1996, 21.8281 ], [ 15.19, 21.9975 ], [ 15.0421, 22.7314 ], [ 14.9979, 22.9867 ], [ 14.6304, 22.8292 ], [ 14.1853, 22.6299 ], [ 13.893, 22.8841 ], [ 13.7164, 23.0297 ], [ 13.5219, 23.155 ], [ 13.385, 23.2028 ], [ 13.2613, 23.2341 ], [ 12.9589, 23.2922 ], [ 12.6381, 23.364 ], [ 12.5602, 23.3899 ], [ 12.4411, 23.406 ], [ 12.2154, 23.4519 ], [ 12.0639, 23.489 ], [ 11.9838, 23.5144 ], [ 10.975, 22.9422 ], [ 11.0071, 20.3401 ], [ 11.0191, 19.0439 ], [ 11.0204, 18.7303 ] ] ] } },
{ "type": "Feature", "properties": { "iso3": "NER", "unit_id": "23599985B49279802347692", "unit_name": "Diffa" }, "geometry": { "type": "Polygon", "coordinates": [ [ [ 12.2693, 13.0874 ], [ 12.3806, 13.0839 ], [ 12.4056, 13.0742 ], [ 12.4359, 13.0782 ], [ 12.4671, 13.0742 ], [ 12.4854, 13.1445 ], [ 12.518, 13.1519 ], [ 12.5346, 13.1695 ], [ 12.5189, 13.2003 ], [ 12.5497, 13.2316 ], [ 12.5618, 13.2778 ], [ 12.5931, 13.2767 ], [ 12.6213, 13.2929 ], [ 12.6582, 13.2835 ], [ 12.6788, 13.3079 ], [ 12.7054, 13.3141 ], [ 12.7251, 13.3542 ], [ 12.7589, 13.3601 ], [ 12.8018, 13.3998 ], [ 12.8124, 13.4367 ], [ 12.8653, 13.4962 ], [ 12.8817, 13.483 ], [ 12.9256, 13.5111 ], [ 12.9256, 13.5854 ], [ 12.9363, 13.6337 ], [ 13.0243, 13.7056 ], [ 13.1377, 13.756 ], [ 13.1397, 13.7858 ], [ 13.1347, 13.8902 ], [ 13.0719, 13.8753 ], [ 12.9421, 13.8554 ], [ 12.5572, 13.7798 ], [ 12.3449, 13.7487 ], [ 12.1245, 13.7218 ], [ 12.1226, 13.6406 ], [ 12.1446, 13.5615 ], [ 12.1448, 13.4598 ], [ 12.1593, 13.4369 ], [ 12.212, 13.2788 ], [ 12.2555, 13.1719 ], [ 12.2809, 13.0981 ], [ 12.2693, 13.0874 ] ] ] } },
{ "type": "Feature", "properties": { "iso3": "NER", "unit_id": "23599985B85188331861732", "unit_name": "Bosso" }, "geometry": { "type": "Polygon", "coordinates": [ [ [ 13.1347, 13.8902 ], [ 13.1397, 13.7858 ], [ 13.1377, 13.756 ], [ 13.0243, 13.7056 ], [ 12.9363, 13.6337 ], [ 12.9256, 13.5854 ], [ 12.9256, 13.5135 ], [ 12.9741, 13.5133 ], [ 13.0451, 13.5454 ], [ 13.0742, 13.5309 ], [ 13.1101, 13.5461 ], [ 13.1276, 13.527 ], [ 13.1536, 13.5393 ], [ 13.1742, 13.5255 ], [ 13.1864, 13.5415 ], [ 13.2452, 13.582 ], [ 13.2261, 13.6103 ], [ 13.2414, 13.6362 ], [ 13.3132, 13.692 ], [ 13.3285, 13.7157 ], [ 13.6126, 13.7202 ], [ 13.5835, 13.8126 ], [ 13.5629, 13.9257 ], [ 13.2422, 13.9157 ], [ 13.1347, 13.8902 ] ] ] } },
{ "type": "Feature", "properties": { "iso3": "NER", "unit_id": "23599985B96333695472040", "unit_name": "Maradi" }, "geometry": { "type": "Polygon", "coordinates": [ [ [ 7.0932, 13.5279 ], [ 7.0827, 13.4853 ], [ 7.1474, 13.4611 ], [ 7.1893, 13.4611 ], [ 7.1843, 13.5109 ], [ 7.1549, 13.5369 ], [ 7.1215, 13.541 ], [ 7.0932, 13.5279 ] ] ] } }
]
}
