{
"type": "FeatureCollection",
"name": "RWA",
"crs": { "type": "name", "properties": { "name": "urn:ogc:def:crs:OGC:1.3:CRS84" } },
"xy_coordinate_resolution": 0.0001,
"features": [
{ "type": "Feature", "properties": { "iso3": "RWA", "unit_id": "40016504B63425399465574", "unit_name": "Nyarugenge" }, "geometry": { "type": "Polygon", "coordinates": [ [ [ 30.0868, -2.0625 ], [ 30.0823, -2.0574 ], [ 30.0817, -2.0398 ], [ 30.0728, -2.0212 ], [ 30.0653, -2.017 ], [ 30.0644, -2.0079 ], [ 30.0485, -2.0021 ], [ 30.0488, -1.9925 ], [ 30.0609, -1.9796 ], [ 30.0608, -1.973 ], [ 30.0693, -1.9691 ], [ 30.0723, -1.9577 ], [ 30.0769, -1.9548 ], [ 30.0732, -1.9437 ], [ 30.0591, -1.9337 ], [ 30.0492, -1.9345 ], [ 30.0414, -1.9424 ], [ 30.034, -1.943 ], [ 30.0337, -1.9379 ], [ 30.0303, -1.9397 ], [ 30.0286, -1.935 ], [ 30.0311, -1.9295 ], [ 30.0241, -1.9253 ], [ 30.022, -1.9186 ], [ 30.0142, -1.9205 ], [ 30.0147, -1.9164 ], [ 30.0197, -1.914 ], [ 30.0041, -1.9057 ], [ 29.9954, -1.8935 ], [ 29.9934, -1.874 ], [ 29.9894, -1.8668 ], [ 29.98, -1.8714 ], [ 29.978, -1.8907 ], [ 29.9862, -1.8963 ], [ 29.9925, -1.9074 ], [ 29.9828, -1.9134 ], [ 29.9886, -1.9253 ], [ 29.9855, -1.9292 ], [ 29.9899, -1.9297 ], [ 29.987, -1.9316 ], [ 29.9919, -1.9387 ], [ 29.9987, -1.9406 ], [ 29.9956, -1.9458 ], [ 29.9984, -1.9477 ], [ 29.9985, -1.9564 ], [ 30.0034, -1.9555 ], [ 30.0037, -1.9697 ], [ 29.9981, -1.9712 ], [ 30.0023, -1.9834 ], [ 29.9957, -1.9837 ], [ 29.998, -1.9877 ], [ 29.993, -1.9932 ], [ 29.9971, -1.9926 ], [ 29.9951, -1.9975 ], [ 30.0009, -1.9984 ], [ 29.9994, -2.001 ], [ 30.0036, -2.002 ], [ 30.0045, -2.0077 ], [ 30.0086, -2.0072 ], [ 30.0103, -2.013 ], [ 30.0155, -2.0128 ], [ 30.0134, -2.0189 ], [ 30.0058, -2.0198 ], [ 30.0052, -2.0241 ], [ 30.0089, -2.0281 ], [ 30.0021, -2.0315 ], [ 30.0027, -2.0283 ], [ 29.9974, -2.03 ], [ 29.9862, -2.0439 ], [ 29.9834, -2.0437 ], [ 29.9874, -2.051 ], [ 29.9837, -2.0578 ], [ 29.9876, -2.0574 ], [ 29.994, -2.0683 ], [ 29.9971, -2.0667 ], [ 30.0, -2.07 ], [ 30.0023, -2.0668 ], [ 30.0054, -2.0731 ], [ 30.0082, -2.0701 ], [ 30.0134, -2.073 ], [ 30.015, -2.0702 ], [ 30.0162, -2.0757 ], [ 30.0245, -2.0682 ], [ 30.0278, -2.0695 ], [ 30.0272, -2.0639 ], [ 30.0394, -2.0689 ], [ 30.0403, -2.0657 ], [ 30.0366, -2.0656 ], [ 30.0399, -2.0619 ], [ 30.0385, -2.0592 ], [ 30.0452, -2.0596 ], [ 30.0467, -2.0547 ], [ 30.058, -2.0558 ], [ 30.0545, -2.0645 ], [ 30.0623, -2.0667 ], [ 30.0646, -2.0711 ], [ 30.0714, -2.0685 ], [ 30.0726, -2.0643 ], [ 30.0758, -2.0647 ], [ 30.0769, -2.0693 ], [ 30.0791, -2.0624 ], [ 30.0816, -2.0648 ], [ 30.0868, -2.0625 ] ] ] } },
{ "type": "Feature", "properties": { "iso3": "RWA", "unit_id": "40016504B56062578098816", "unit_name": "Gasabo" }, "geometry": { "type": "Polygon", "coordinates": [ [ [ 30.0732, -1.9437 ], [ 30.0834, -1.9639 ], [ 30.0974, -1.9669 ], [ 30.0985, -1.9642 ], [ 30.1008, -1.9689 ], [ 30.117, -1.9594 ], [ 30.1237, -1.9623 ], [ 30.1387, -1.9528 ], [ 30.1496, -1.9555 ], [ 30.1636, -1.9657 ], [ 30.1809, -1.973 ], [ 30.1842, -1.9874 ], [ 30.2107, -1.9876 ], [ 30.2192, -1.9828 ], [ 30.2359, -1.9812 ], [ 30.2318, -1.9685 ], [ 30.234, -1.9615 ], [ 30.2541, -1.9514 ], [ 30.2652, -1.9534 ], [ 30.2772, -1.9342 ], [ 30.2707, -1.9084 ], [ 30.2729, -1.9001 ], [ 30.2581, -1.8944 ], [ 30.2582, -1.8757 ], [ 30.2652, -1.8649 ], [ 30.2476, -1.8574 ], [ 30.2478, -1.8457 ], [ 30.2184, -1.8415 ], [ 30.2035, -1.8307 ], [ 30.1726, -1.7972 ], [ 30.1605, -1.7899 ], [ 30.1479, -1.7927 ], [ 30.1426, -1.7807 ], [ 30.1393, -1.7797 ], [ 30.1329, -1.7839 ], [ 30.1303, -1.79 ], [ 30.128, -1.809 ], [ 30.1177, -1.82 ], [ 30.1133, -1.8205 ], [ 30.0995, -1.8127 ], [ 30.0947, -1.8206 ], [ 30.0635, -1.8288 ], [ 30.0565, -1.8375 ], [ 30.057, -1.8443 ], [ 30.0515, -1.8447 ], [ 30.0455, -1.8539 ], [ 30.0293, -1.8652 ], [ 30.0158, -1.8363 ], [ 29.9988, -1.8416 ], [ 29.9911, -1.8475 ], [ 29.993, -1.8554 ], [ 29.9894, -1.8668 ], [ 29.9934, -1.874 ], [ 29.9954, -1.8935 ], [ 30.0041, -1.9057 ], [ 30.0197, -1.914 ], [ 30.0147, -1.9164 ], [ 30.0142, -1.9205 ], [ 30.022, -1.9186 ], [ 30.0241, -1.9253 ], [ 30.0311, -1.9295 ], [ 30.0286, -1.935 ], [ 30.0303, -1.9397 ], [ 30.0337, -1.9379 ], [ 30.034, -1.943 ], [ 30.0414, -1.9424 ], [ 30.0492, -1.9345 ], [ 30.0591, -1.9337 ], [ 30.0732, -1.9437 ] ] ] } },
{ "type": "Feature", "properties": { "iso3": "RWA", "unit_id": "40016504B94798084575222", "unit_name": "Kicukiro" }, "geometry": { "type": "Polygon", "coordinates": [ [ [ 30.0868, -2.0625 ], [ 30.0908, -2.0594 ], [ 30.0913, -2.064 ], [ 30.095, -2.0611 ], [ 30.0962, -2.0645 ], [ 30.1017, -2.0559 ], [ 30.1042, -2.06 ], [ 30.1101, -2.0563 ], [ 30.1137, -2.0603 ], [ 30.1182, -2.0547 ], [ 30.1193, -2.0596 ], [ 30.1198, -2.0563 ], [ 30.1257, -2.0554 ], [ 30.1236, -2.0496 ], [ 30.1279, -2.0528 ], [ 30.1329, -2.0439 ], [ 30.1347, -2.0476 ], [ 30.1371, -2.0461 ], [ 30.1347, -2.043 ], [ 30.1382, -2.0433 ], [ 30.1372, -2.0395 ], [ 30.1472, -2.0409 ], [ 30.1527, -2.0344 ], [ 30.1575, -2.0356 ], [ 30.158, -2.0308 ], [ 30.1616, -2.032 ], [ 30.1624, -2.0295 ], [ 30.1656, -2.0339 ], [ 30.1667, -2.0301 ], [ 30.1719, -2.0313 ], [ 30.1726, -2.0282 ], [ 30.1754, -2.0352 ], [ 30.181, -2.0336 ], [ 30.1897, -2.0426 ], [ 30.1938, -2.0536 ], [ 30.1908, -2.0557 ], [ 30.1927, -2.0605 ], [ 30.1951, -2.0618 ], [ 30.1991, -2.057 ], [ 30.2009, -2.0665 ], [ 30.2048, -2.0653 ], [ 30.2039, -2.0679 ], [ 30.2068, -2.068 ], [ 30.2047, -2.0735 ], [ 30.2081, -2.0797 ], [ 30.2109, -2.0756 ], [ 30.2218, -2.0724 ], [ 30.2206, -2.0607 ], [ 30.2287, -2.0433 ], [ 30.23, -2.0121 ], [ 30.2359, -1.9812 ], [ 30.2192, -1.9828 ], [ 30.2107, -1.9876 ], [ 30.1842, -1.9874 ], [ 30.1809, -1.973 ], [ 30.1636, -1.9657 ], [ 30.1496, -1.9555 ], [ 30.1387, -1.9528 ], [ 30.1237, -1.9623 ], [ 30.117, -1.9594 ], [ 30.1008, -1.9689 ], [ 30.0985, -1.9642 ], [ 30.0974, -1.9669 ], [ 30.0834, -1.9639 ], [ 30.0769, -1.9548 ], [ 30.0723, -1.9577 ], [ 30.0693, -1.9691 ], [ 30.0608, -1.973 ], [ 30.0609, -1.9796 ], [ 30.0488, -1.9925 ], [ 30.0485, -2.0021 ], [ 30.0644, -2.0079 ], [ 30.0653, -2.017 ], [ 30.0728, -2.0212 ], [ 30.0817, -2.0398 ], [ 30.0823, -2.0574 ], [ 30.0868, -2.0625 ] ] ] } },
{ "type": "Feature", "properties": { "iso3": "RWA", "unit_id": "40016504B55405110409338", "unit_name": "Nyanza" }, "geometry": { "type": "Polygon", "coordinates": [ [ [ 29.9561, -2.3309 ], [ 29.9662, -2.3176 ], [ 29.9612, -2.304 ], [ 29.9615, -2.2902 ], [ 29.9669, -2.2872 ], [ 29.9735, -2.2744 ], [ 29.9733, -2.264 ], [ 29.9792, -2.2559 ], [ 29.9793, -2.2483 ], [ 29.9845, -2.2433 ], [ 29.9835, -2.2327 ], [ 29.9728, -2.2357 ], [ 29.9636, -2.2319 ], [ 29.9459, -2.2317 ], [ 29.9303, -2.2346 ], [ 29.9223, -2.2399 ], [ 29.9105, -2.2325 ], [ 29.9029, -2.2341 ], [ 29.8989, -2.2467 ], [ 29.9046, -2.2463 ], [ 29.9072, -2.2494 ], [ 29.9064, -2.2592 ], [ 29.9159, -2.2781 ], [ 29.9081, -2.2842 ], [ 29.8861, -2.2773 ], [ 29.8709, -2.2792 ], [ 29.8652, -2.2839 ], [ 29.8537, -2.2865 ], [ 29.8507, -2.2829 ], [ 29.8441, -2.2834 ], [ 29.8271, -2.2627 ], [ 29.8188, -2.2594 ], [ 29.813, -2.2632 ], [ 29.8065, -2.2613 ], [ 29.8004, -2.2642 ], [ 29.7988, -2.2739 ], [ 29.7937, -2.2811 ], [ 29.7806, -2.2802 ], [ 29.7708, -2.269 ], [ 29.7531, -2.2581 ], [ 29.7492, -2.2455 ], [ 29.7415, -2.2404 ], [ 29.7373, -2.248 ], [ 29.7234, -2.2472 ], [ 29.7135, -2.2417 ], [ 29.7096, -2.2475 ], [ 29.6935, -2.2452 ], [ 29.6957, -2.2668 ], [ 29.6892, -2.2719 ], [ 29.6863, -2.2698 ], [ 29.6799, -2.2728 ], [ 29.6592, -2.2508 ], [ 29.647, -2.262 ], [ 29.6432, -2.2533 ], [ 29.6357, -2.2523 ], [ 29.6338, -2.2607 ], [ 29.6298, -2.2633 ], [ 29.61, -2.2533 ], [ 29.6011, -2.2529 ], [ 29.5955, -2.2572 ], [ 29.601, -2.2623 ], [ 29.6045, -2.2785 ], [ 29.6173, -2.2891 ], [ 29.6119, -2.3041 ], [ 29.5909, -2.3204 ], [ 29.5892, -2.3307 ], [ 29.5817, -2.3335 ], [ 29.5831, -2.3476 ], [ 29.5923, -2.356 ], [ 29.5995, -2.3711 ], [ 29.6065, -2.3698 ], [ 29.6197, -2.3552 ], [ 29.6238, -2.3544 ], [ 29.6226, -2.3671 ], [ 29.6293, -2.3767 ], [ 29.6313, -2.3881 ], [ 29.6364, -2.3893 ], [ 29.6359, -2.3979 ], [ 29.6415, -2.4096 ], [ 29.666, -2.4185 ], [ 29.6776, -2.41 ], [ 29.6765, -2.4047 ], [ 29.6835, -2.392 ], [ 29.692, -2.3928 ], [ 29.6961, -2.4047 ], [ 29.6999, -2.406 ], [ 29.7201, -2.4003 ], [ 29.7333, -2.4032 ], [ 29.7385, -2.3938 ], [ 29.762, -2.3875 ], [ 29.7729, -2.3764 ], [ 29.7784, -2.3764 ], [ 29.7913, -2.3686 ], [ 29.7986, -2.3808 ], [ 29.8089, -2.3847 ], [ 29.8141, -2.395 ], [ 29.8341, -2.4048 ], [ 29.8312, -2.4105 ], [ 29.8354, -2.4184 ], [ 29.8282, -2.416 ], [ 29.8165, -2.4234 ], [ 29.8188, -2.4427 ], [ 29.8271, -2.4501 ], [ 29.8524, -2.4558 ], [ 29.9021, -2.4475 ], [ 29.9246, -2.4402 ], [ 29.9341, -2.4317 ], [ 29.9556, -2.3969 ], [ 29.9525, -2.3831 ], [ 29.9441, -2.3704 ], [ 29.945, -2.3639 ], [ 29.9575, -2.349 ], [ 29.9561, -2.3309 ] ] ] } },
{ "type": "Feature", "properties": { "iso3": "RWA", "unit_id": "40016504B18955796139285", "unit_name": "Gisagara" }, "geometry": { "type": "Polygon", "coordinates": [ [ [ 29.846, -2.4536 ], [ 29.8334, -2.4631 ], [ 29.8223, -2.477 ], [ 29.8043, -2.4899 ], [ 29.804, -2.5064 ], [ 29.7976, -2.5102 ], [ 29.7863, -2.506 ], [ 29.7861, -2.5172 ], [ 29.7631, -2.5349 ], [ 29.7679, -2.5547 ], [ 29.7666, -2.5622 ], [ 29.76, -2.5708 ], [ 29.7575, -2.5994 ], [ 29.7733, -2.624 ], [ 29.7693, -2.6336 ], [ 29.7665, -2.6718 ], [ 29.7578, -2.6867 ], [ 29.7469, -2.6957 ], [ 29.7438, -2.7113 ], [ 29.7234, -2.7326 ], [ 29.7233, -2.7412 ], [ 29.7185, -2.7448 ], [ 29.7169, -2.7563 ], [ 29.7122, -2.7621 ], [ 29.7144, -2.764 ], [ 29.7121, -2.773 ], [ 29.7018, -2.7853 ], [ 29.6979, -2.7976 ], [ 29.7019, -2.8048 ], [ 29.7009, -2.8109 ], [ 29.7053, -2.8128 ], [ 29.7089, -2.8201 ], [ 29.7152, -2.8163 ], [ 29.7193, -2.8188 ], [ 29.7221, -2.8163 ], [ 29.7235, -2.8189 ], [ 29.7325, -2.8116 ], [ 29.7451, -2.8079 ], [ 29.754, -2.8116 ], [ 29.7644, -2.7949 ], [ 29.7699, -2.768 ], [ 29.7727, -2.7661 ], [ 29.7868, -2.7668 ], [ 29.7956, -2.7587 ], [ 29.8072, -2.7608 ], [ 29.8137, -2.7748 ], [ 29.825, -2.7761 ], [ 29.8321, -2.7822 ], [ 29.8338, -2.7753 ], [ 29.84, -2.7696 ], [ 29.8521, -2.7677 ], [ 29.8546, -2.7639 ], [ 29.8592, -2.7649 ], [ 29.8666, -2.7606 ], [ 29.878, -2.7609 ], [ 29.8817, -2.7567 ], [ 29.8797, -2.7527 ], [ 29.89, -2.7514 ], [ 29.894, -2.7472 ], [ 29.8919, -2.7449 ], [ 29.8944, -2.7352 ], [ 29.9189, -2.7028 ], [ 29.9307, -2.6653 ], [ 29.9294, -2.658 ], [ 29.9366, -2.6421 ], [ 29.9289, -2.633 ], [ 29.9321, -2.5903 ], [ 29.9214, -2.5576 ], [ 29.9345, -2.5347 ], [ 29.9346, -2.5205 ], [ 29.9392, -2.5155 ], [ 29.9432, -2.4991 ], [ 29.951, -2.4968 ], [ 29.9562, -2.4901 ], [ 29.9642, -2.4899 ], [ 29.9684, -2.4848 ], [ 29.9672, -2.4714 ], [ 29.9708, -2.4607 ], [ 29.963, -2.436 ], [ 29.9627, -2.4143 ], [ 29.9556, -2.3969 ], [ 29.9341, -2.4317 ], [ 29.9246, -2.4402 ], [ 29.8841, -2.452 ], [ 29.8678, -2.4512 ], [ 29.8524, -2.4558 ], [ 29.846, -2.4536 ] ] ] } },
{ "type": "Feature", "properties": { "iso3": "RWA", "unit_id": "40016504B23850075491115", "unit_name": "Nyaruguru" }, "geometry": { "type": "Polygon", "coordinates": [ [ [ 29.7469, -2.6957 ], [ 29.7245, -2.6799 ], [ 29.7041, -2.6832 ], [ 29.6889, -2.6745 ], [ 29.6827, -2.6741 ], [ 29.6827, -2.6686 ], [ 29.6687, -2.657 ], [ 29.6722, -2.647 ], [ 29.67, -2.6419 ], [ 29.6518, -2.6459 ], [ 29.6416, -2.6549 ], [ 29.6391, -2.6507 ], [ 29.6407, -2.639 ], [ 29.6366, -2.6326 ], [ 29.6303, -2.6312 ], [ 29.6259, -2.6336 ], [ 29.6184, -2.6283 ], [ 29.6099, -2.6296 ], [ 29.6077, -2.625 ], [ 29.6123, -2.6212 ], [ 29.6137, -2.6136 ], [ 29.6093, -2.6028 ], [ 29.6171, -2.5932 ], [ 29.6183, -2.5862 ], [ 29.6135, -2.5756 ], [ 29.6052, -2.5706 ], [ 29.6028, -2.5571 ], [ 29.598, -2.5572 ], [ 29.5961, -2.552 ], [ 29.588, -2.5538 ], [ 29.5666, -2.5454 ], [ 29.5582, -2.5479 ], [ 29.5402, -2.537 ], [ 29.5404, -2.5325 ], [ 29.5341, -2.5336 ], [ 29.5312, -2.5421 ], [ 29.5264, -2.5459 ], [ 29.5204, -2.546 ], [ 29.519, -2.552 ], [ 29.499, -2.5563 ], [ 29.4926, -2.5633 ], [ 29.4919, -2.5687 ], [ 29.4846, -2.5689 ], [ 29.4797, -2.573 ], [ 29.486, -2.5836 ], [ 29.474, -2.5902 ], [ 29.4712, -2.5867 ], [ 29.4614, -2.5879 ], [ 29.459, -2.5989 ], [ 29.4547, -2.6003 ], [ 29.4457, -2.5947 ], [ 29.4434, -2.5816 ], [ 29.4361, -2.5811 ], [ 29.4337, -2.5765 ], [ 29.4283, -2.5773 ], [ 29.4284, -2.5707 ], [ 29.4245, -2.5698 ], [ 29.4229, -2.5602 ], [ 29.4131, -2.5561 ], [ 29.4021, -2.5577 ], [ 29.3989, -2.5537 ], [ 29.3908, -2.5532 ], [ 29.3801, -2.5581 ], [ 29.3743, -2.5539 ], [ 29.3631, -2.5548 ], [ 29.3611, -2.5699 ], [ 29.349, -2.5773 ], [ 29.3454, -2.5754 ], [ 29.3397, -2.5813 ], [ 29.345, -2.5853 ], [ 29.3424, -2.5904 ], [ 29.3452, -2.597 ], [ 29.3529, -2.5958 ], [ 29.3679, -2.6314 ], [ 29.3571, -2.6453 ], [ 29.3521, -2.6602 ], [ 29.3542, -2.6661 ], [ 29.3491, -2.6767 ], [ 29.3291, -2.6826 ], [ 29.3281, -2.6903 ], [ 29.3319, -2.6935 ], [ 29.3351, -2.6916 ], [ 29.3434, -2.7016 ], [ 29.3458, -2.7118 ], [ 29.3493, -2.7142 ], [ 29.3487, -2.7224 ], [ 29.3548, -2.7307 ], [ 29.3331, -2.7471 ], [ 29.3408, -2.7532 ], [ 29.3382, -2.7646 ], [ 29.3505, -2.7689 ], [ 29.348, -2.7771 ], [ 29.3567, -2.7921 ], [ 29.3517, -2.7979 ], [ 29.3516, -2.8039 ], [ 29.3616, -2.8185 ], [ 29.3611, -2.8245 ], [ 29.3648, -2.8285 ], [ 29.3617, -2.8329 ], [ 29.3677, -2.8327 ], [ 29.3706, -2.8401 ], [ 29.3774, -2.8384 ], [ 29.3771, -2.8334 ], [ 29.3898, -2.819 ], [ 29.3955, -2.8172 ], [ 29.4004, -2.8223 ], [ 29.4381, -2.7981 ], [ 29.4568, -2.801 ], [ 29.4573, -2.8053 ], [ 29.4634, -2.81 ], [ 29.4782, -2.8089 ], [ 29.486, -2.8026 ], [ 29.4921, -2.8095 ], [ 29.5024, -2.8147 ], [ 29.5077, -2.8224 ], [ 29.5214, -2.8303 ], [ 29.5325, -2.8276 ], [ 29.5425, -2.8302 ], [ 29.5435, -2.8177 ], [ 29.5516, -2.8184 ], [ 29.5659, -2.8121 ], [ 29.574, -2.8122 ], [ 29.5886, -2.8032 ], [ 29.5915, -2.8085 ], [ 29.6059, -2.807 ], [ 29.609, -2.8105 ], [ 29.6162, -2.8106 ], [ 29.6213, -2.8058 ], [ 29.6303, -2.8039 ], [ 29.6393, -2.7897 ], [ 29.6482, -2.7877 ], [ 29.6691, -2.792 ], [ 29.6792, -2.8002 ], [ 29.6853, -2.8005 ], [ 29.6898, -2.8071 ], [ 29.7009, -2.8109 ], [ 29.7019, -2.8048 ], [ 29.6979, -2.7976 ], [ 29.7018, -2.7853 ], [ 29.7121, -2.773 ], [ 29.7144, -2.764 ], [ 29.7122, -2.7621 ], [ 29.7169, -2.7563 ], [ 29.7185, -2.7448 ], [ 29.7233, -2.7412 ], [ 29.7234, -2.7326 ], [ 29.7438, -2.7113 ], [ 29.7469, -2.6957 ] ] ] } },
{ "type": "Feature", "properties": { "iso3": "RWA", "unit_id": "40016504B16053650595312", "unit_name": "Huye" }, "geometry": { "type": "Polygon", "coordinates": [ [ [ 29.6776, -2.41 ], [ 29.6571, -2.4293 ], [ 29.6422, -2.4376 ], [ 29.642, -2.4443 ], [ 29.6321, -2.4629 ], [ 29.6166, -2.4697 ], [ 29.6104, -2.478 ], [ 29.6009, -2.4738 ], [ 29.5951, -2.4788 ], [ 29.5969, -2.4956 ], [ 29.6041, -2.5078 ], [ 29.5897, -2.5162 ], [ 29.5834, -2.5244 ], [ 29.5914, -2.537 ], [ 29.588, -2.5538 ], [ 29.5961, -2.552 ], [ 29.598, -2.5572 ], [ 29.6028, -2.5571 ], [ 29.6052, -2.5706 ], [ 29.6135, -2.5756 ], [ 29.6183, -2.5862 ], [ 29.6171, -2.5932 ], [ 29.6093, -2.6028 ], [ 29.6137, -2.6136 ], [ 29.6123, -2.6212 ], [ 29.6077, -2.625 ], [ 29.6099, -2.6296 ], [ 29.6184, -2.6283 ], [ 29.6259, -2.6336 ], [ 29.6303, -2.6312 ], [ 29.6366, -2.6326 ], [ 29.6407, -2.639 ], [ 29.6391, -2.6507 ], [ 29.6416, -2.6549 ], [ 29.6518, -2.6459 ], [ 29.67, -2.6419 ], [ 29.6722, -2.647 ], [ 29.6687, -2.657 ], [ 29.6827, -2.6686 ], [ 29.6827, -2.6741 ], [ 29.6889, -2.6745 ], [ 29.7041, -2.6832 ], [ 29.7245, -2.6799 ], [ 29.7469, -2.6957 ], [ 29.7578, -2.6867 ], [ 29.7665, -2.6718 ], [ 29.7693, -2.6336 ], [ 29.7733, -2.624 ], [ 29.7575, -2.5994 ], [ 29.76, -2.5708 ], [ 29.7666, -2.5622 ], [ 29.7679, -2.5547 ], [ 29.7631, -2.5349 ], [ 29.7861, -2.5172 ], [ 29.7863, -2.506 ], [ 29.7976, -2.5102 ], [ 29.804, -2.5064 ], [ 29.8043, -2.4899 ], [ 29.8223, -2.477 ], [ 29.8334, -2.4631 ], [ 29.846, -2.4536 ], [ 29.8271, -2.4501 ], [ 29.8188, -2.4427 ], [ 29.8165, -2.4234 ], [ 29.8282, -2.416 ], [ 29.8354, -2.4184 ], [ 29.8312, -2.4105 ], [ 29.8341, -2.4048 ], [ 29.8141, -2.395 ], [ 29.8089, -2.3847 ], [ 29.7986, -2.3808 ], [ 29.7913, -2.3686 ], [ 29.7784, -2.3764 ], [ 29.7729, -2.3764 ], [ 29.762, -2.3875 ], [ 29.7385, -2.3938 ], [ 29.7333, -2.4032 ], [ 29.7201, -2.4003 ], [ 29.6999, -2.406 ], [ 29.6961, -2.4047 ], [ 29.692, -2.3928 ], [ 29.6835, -2.392 ], [ 29.6765, -2.4047 ], [ 29.6776, -2.41 ] ] ] } },
{ "type": "Feature", "properties": { "iso3": "RWA", "unit_id": "40016504B8024501353651", "unit_name": "Nyamagabe" }, "geometry": { "type": "Polygon", "coordinates": [ [ [ 29.5955, -2.2572 ], [ 29.595, -2.2517 ], [ 29.5848, -2.2484 ], [ 29.5785, -2.2384 ], [ 29.58, -2.2361 ], [ 29.5754, -2.2344 ], [ 29.5758, -2.23 ], [ 29.5651, -2.2197 ], [ 29.5581, -2.2002 ], [ 29.5513, -2.1998 ], [ 29.5476, -2.2046 ], [ 29.5494, -2.2075 ], [ 29.5447, -2.2079 ], [ 29.5482, -2.2117 ], [ 29.5416, -2.2108 ], [ 29.5305, -2.2229 ], [ 29.5242, -2.2245 ], [ 29.5232, -2.2276 ], [ 29.5196, -2.2266 ], [ 29.5195, -2.2338 ], [ 29.5166, -2.2305 ], [ 29.5146, -2.2366 ], [ 29.5093, -2.2346 ], [ 29.4994, -2.2431 ], [ 29.494, -2.241 ], [ 29.49, -2.2499 ], [ 29.475, -2.2608 ], [ 29.4748, -2.2678 ], [ 29.4696, -2.2737 ], [ 29.4612, -2.2718 ], [ 29.4587, -2.2675 ], [ 29.4416, -2.276 ], [ 29.4214, -2.2671 ], [ 29.418, -2.2732 ], [ 29.4086, -2.2787 ], [ 29.4028, -2.2769 ], [ 29.3863, -2.298 ], [ 29.3828, -2.2986 ], [ 29.3799, -2.2902 ], [ 29.3711, -2.2932 ], [ 29.3679, -2.2909 ], [ 29.3441, -2.2926 ], [ 29.3318, -2.3067 ], [ 29.3281, -2.3158 ], [ 29.3206, -2.32 ], [ 29.3283, -2.3344 ], [ 29.3273, -2.3396 ], [ 29.3375, -2.3482 ], [ 29.344, -2.36 ], [ 29.336, -2.3784 ], [ 29.3306, -2.3799 ], [ 29.3275, -2.3887 ], [ 29.3227, -2.3883 ], [ 29.3183, -2.3986 ], [ 29.3229, -2.406 ], [ 29.3272, -2.4069 ], [ 29.3287, -2.4217 ], [ 29.3235, -2.4325 ], [ 29.3175, -2.4313 ], [ 29.3099, -2.4357 ], [ 29.3031, -2.4341 ], [ 29.2991, -2.4404 ], [ 29.2803, -2.4419 ], [ 29.2724, -2.4638 ], [ 29.2662, -2.4707 ], [ 29.2694, -2.4755 ], [ 29.2647, -2.482 ], [ 29.2798, -2.4892 ], [ 29.2887, -2.4896 ], [ 29.2921, -2.4934 ], [ 29.3072, -2.4929 ], [ 29.3225, -2.5076 ], [ 29.324, -2.5258 ], [ 29.3191, -2.5378 ], [ 29.3261, -2.5365 ], [ 29.3392, -2.5401 ], [ 29.336, -2.5572 ], [ 29.3469, -2.5594 ], [ 29.3454, -2.5754 ], [ 29.349, -2.5773 ], [ 29.3611, -2.5699 ], [ 29.3631, -2.5548 ], [ 29.3743, -2.5539 ], [ 29.3801, -2.5581 ], [ 29.3908, -2.5532 ], [ 29.408, -2.5585 ], [ 29.4131, -2.5561 ], [ 29.4229, -2.5602 ], [ 29.4245, -2.5698 ], [ 29.4284, -2.5707 ], [ 29.4283, -2.5773 ], [ 29.4337, -2.5765 ], [ 29.4361, -2.5811 ], [ 29.4434, -2.5816 ], [ 29.4457, -2.5947 ], [ 29.4547, -2.6003 ], [ 29.459, -2.5989 ], [ 29.4614, -2.5879 ], [ 29.4712, -2.5867 ], [ 29.474, -2.5902 ], [ 29.486, -2.5836 ], [ 29.4797, -2.573 ], [ 29.4846, -2.5689 ], [ 29.4919, -2.5687 ], [ 29.4926, -2.5633 ], [ 29.499, -2.5563 ], [ 29.519, -2.552 ], [ 29.5204, -2.546 ], [ 29.5312, -2.5421 ], [ 29.5341, -2.5336 ], [ 29.5404, -2.5325 ], [ 29.5402, -2.537 ], [ 29.5582, -2.5479 ], [ 29.5666, -2.5454 ], [ 29.588, -2.5538 ], [ 29.5914, -2.537 ], [ 29.5834, -2.5244 ], [ 29.5897, -2.5162 ], [ 29.6041, -2.5078 ], [ 29.5969, -2.4956 ], [ 29.5951, -2.4788 ], [ 29.6009, -2.4738 ], [ 29.6104, -2.478 ], [ 29.6166, -2.4697 ], [ 29.6321, -2.4629 ], [ 29.642, -2.4443 ], [ 29.6422, -2.4376 ], [ 29.6571, -2.4293 ], [ 29.666, -2.4185 ], [ 29.6415, -2.4096 ], [ 29.6359, -2.3979 ], [ 29.6364, -2.3893 ], [ 29.6313, -2.3881 ], [ 29.6293, -2.3767 ], [ 29.6226, -2.3671 ], [ 29.6238, -2.3544 ], [ 29.6016, -2.3717 ], [ 29.5952, -2.3651 ], [ 29.5923, -2.356 ], [ 29.5831, -2.3476 ], [ 29.5822, -2.3312 ], [ 29.5892, -2.3307 ], [ 29.5909, -2.3204 ], [ 29.6119, -2.3041 ], [ 29.6173, -2.2891 ], [ 29.6045, -2.2785 ], [ 29.601, -2.2623 ], [ 29.5955, -2.2572 ] ] ] } },
{ "type": "Feature", "properties": { "iso3": "RWA", "unit_id": "40016504B96915547054187", "unit_name": "Ruhango" }, "geometry": { "type": "Polygon", "coordinates": [ [ [ 29.9835, -2.2327 ], [ 29.9907, -2.2156 ], [ 29.9887, -2.202 ], [ 29.9638, -2.2021 ], [ 29.9593, -2.1993 ], [ 29.9288, -2.1519 ], [ 29.9271, -2.1414 ], [ 29.9063, -2.1356 ], [ 29.895, -2.1259 ], [ 29.8882, -2.1136 ], [ 29.8888, -2.1063 ], [ 29.8855, -2.1005 ], [ 29.8687, -2.1065 ], [ 29.8553, -2.1067 ], [ 29.8418, -2.1125 ], [ 29.8044, -2.1119 ], [ 29.8033, -2.1156 ], [ 29.8076, -2.123 ], [ 29.8003, -2.1279 ], [ 29.7918, -2.1277 ], [ 29.7962, -2.1364 ], [ 29.7894, -2.146 ], [ 29.7735, -2.1438 ], [ 29.7664, -2.1352 ], [ 29.7503, -2.1296 ], [ 29.7378, -2.1181 ], [ 29.7335, -2.1183 ], [ 29.7252, -2.1118 ], [ 29.6993, -2.1146 ], [ 29.6961, -2.1194 ], [ 29.688, -2.1215 ], [ 29.6813, -2.1132 ], [ 29.6835, -2.1124 ], [ 29.6821, -2.1066 ], [ 29.6724, -2.1043 ], [ 29.6701, -2.1073 ], [ 29.6654, -2.1059 ], [ 29.6661, -2.1198 ], [ 29.6589, -2.1193 ], [ 29.652, -2.1124 ], [ 29.6488, -2.1186 ], [ 29.6323, -2.1174 ], [ 29.6196, -2.1226 ], [ 29.615, -2.1214 ], [ 29.6126, -2.1166 ], [ 29.6061, -2.1264 ], [ 29.6082, -2.1287 ], [ 29.5977, -2.139 ], [ 29.5995, -2.1446 ], [ 29.5946, -2.1507 ], [ 29.5991, -2.1511 ], [ 29.5999, -2.1557 ], [ 29.6038, -2.155 ], [ 29.6065, -2.1586 ], [ 29.6044, -2.1685 ], [ 29.6098, -2.1763 ], [ 29.6063, -2.1879 ], [ 29.6032, -2.1911 ], [ 29.5959, -2.1886 ], [ 29.5897, -2.192 ], [ 29.5901, -2.1947 ], [ 29.587, -2.1936 ], [ 29.5852, -2.2019 ], [ 29.577, -2.1972 ], [ 29.5728, -2.2036 ], [ 29.5621, -2.2058 ], [ 29.5651, -2.2197 ], [ 29.5758, -2.23 ], [ 29.5754, -2.2344 ], [ 29.58, -2.2361 ], [ 29.5785, -2.2384 ], [ 29.5848, -2.2484 ], [ 29.595, -2.2517 ], [ 29.5955, -2.2572 ], [ 29.6011, -2.2529 ], [ 29.61, -2.2533 ], [ 29.6298, -2.2633 ], [ 29.6338, -2.2607 ], [ 29.6357, -2.2523 ], [ 29.6391, -2.2518 ], [ 29.6432, -2.2533 ], [ 29.647, -2.262 ], [ 29.6592, -2.2508 ], [ 29.6799, -2.2728 ], [ 29.6863, -2.2698 ], [ 29.6892, -2.2719 ], [ 29.6957, -2.2668 ], [ 29.6935, -2.2452 ], [ 29.7096, -2.2475 ], [ 29.7135, -2.2417 ], [ 29.7234, -2.2472 ], [ 29.7373, -2.248 ], [ 29.7415, -2.2404 ], [ 29.7492, -2.2455 ], [ 29.7531, -2.2581 ], [ 29.7708, -2.269 ], [ 29.7806, -2.2802 ], [ 29.7937, -2.2811 ], [ 29.7988, -2.2739 ], [ 29.8004, -2.2642 ], [ 29.8065, -2.2613 ], [ 29.813, -2.2632 ], [ 29.8188, -2.2594 ], [ 29.8271, -2.2627 ], [ 29.8441, -2.2834 ], [ 29.8507, -2.2829 ], [ 29.8537, -2.2865 ], [ 29.8652, -2.2839 ], [ 29.8709, -2.2792 ], [ 29.8861, -2.2773 ], [ 29.9081, -2.2842 ], [ 29.9159, -2.2781 ], [ 29.9064, -2.2592 ], [ 29.9072, -2.2494 ], [ 29.9046, -2.2463 ], [ 29.8989, -2.2467 ], [ 29.9029, -2.2341 ], [ 29.9105, -2.2325 ], [ 29.9223, -2.2399 ], [ 29.9303, -2.2346 ], [ 29.9459, -2.2317 ], [ 29.9636, -2.2319 ], [ 29.9728, -2.2357 ], [ 29.9835, -2.2327 ] ] ] } },
{ "type": "Feature", "properties": { "iso3": "RWA", "unit_id": "40016504B55255957335369", "unit_name": "Muhanga" }, "geometry": { "type": "Polygon", "coordinates": [ [ [ 29.8076, -2.123 ], [ 29.7994, -2.1053 ], [ 29.792, -2.1003 ], [ 29.8005, -2.0932 ], [ 29.8053, -2.0953 ], [ 29.8044, -2.0885 ], [ 29.7929, -2.0832 ], [ 29.7913, -2.0783 ], [ 29.7952, -2.074 ], [ 29.7949, -2.0646 ], [ 29.7975, -2.0618 ], [ 29.8034, -2.0575 ], [ 29.8099, -2.0621 ], [ 29.8152, -2.0598 ], [ 29.8051, -2.0463 ], [ 29.8075, -2.0388 ], [ 29.8046, -2.0358 ], [ 29.797, -2.0396 ], [ 29.7902, -2.031 ], [ 29.8011, -2.0198 ], [ 29.8102, -2.018 ], [ 29.812, -2.0118 ], [ 29.8076, -2.0114 ], [ 29.8037, -2.0021 ], [ 29.7972, -1.9986 ], [ 29.8014, -1.977 ], [ 29.7967, -1.9631 ], [ 29.7905, -1.9569 ], [ 29.7929, -1.9308 ], [ 29.7893, -1.9178 ], [ 29.7854, -1.9171 ], [ 29.7841, -1.9125 ], [ 29.7938, -1.9 ], [ 29.8049, -1.877 ], [ 29.8111, -1.8717 ], [ 29.8122, -1.8573 ], [ 29.8175, -1.8529 ], [ 29.805, -1.8522 ], [ 29.7973, -1.848 ], [ 29.8008, -1.8387 ], [ 29.799, -1.8297 ], [ 29.7781, -1.8094 ], [ 29.7719, -1.8104 ], [ 29.7693, -1.8068 ], [ 29.7697, -1.7914 ], [ 29.7638, -1.7809 ], [ 29.7563, -1.775 ], [ 29.7503, -1.7745 ], [ 29.7443, -1.7646 ], [ 29.7479, -1.7507 ], [ 29.7285, -1.7482 ], [ 29.7174, -1.7555 ], [ 29.7034, -1.7473 ], [ 29.7011, -1.7377 ], [ 29.6947, -1.7336 ], [ 29.6681, -1.7312 ], [ 29.6604, -1.7332 ], [ 29.6597, -1.7387 ], [ 29.6648, -1.7422 ], [ 29.6619, -1.7534 ], [ 29.6733, -1.781 ], [ 29.6689, -1.7997 ], [ 29.6726, -1.8047 ], [ 29.6687, -1.8176 ], [ 29.6723, -1.8226 ], [ 29.6648, -1.8308 ], [ 29.6669, -1.836 ], [ 29.6633, -1.8613 ], [ 29.6681, -1.8661 ], [ 29.6712, -1.8759 ], [ 29.6689, -1.8841 ], [ 29.6752, -1.8963 ], [ 29.6733, -1.9013 ], [ 29.6701, -1.9017 ], [ 29.67, -1.9078 ], [ 29.6731, -1.9105 ], [ 29.6614, -1.9198 ], [ 29.6641, -1.9343 ], [ 29.6609, -1.9383 ], [ 29.6618, -1.9442 ], [ 29.6709, -1.9488 ], [ 29.6736, -1.9594 ], [ 29.6658, -1.9719 ], [ 29.6546, -1.9763 ], [ 29.6436, -1.9791 ], [ 29.6257, -1.9735 ], [ 29.6224, -1.9758 ], [ 29.622, -1.9799 ], [ 29.6368, -1.9951 ], [ 29.6286, -2.0077 ], [ 29.6337, -2.0168 ], [ 29.6284, -2.0219 ], [ 29.6324, -2.0271 ], [ 29.6309, -2.0379 ], [ 29.6343, -2.0388 ], [ 29.6393, -2.0495 ], [ 29.633, -2.062 ], [ 29.6372, -2.067 ], [ 29.6319, -2.0722 ], [ 29.6336, -2.0791 ], [ 29.6292, -2.0798 ], [ 29.6298, -2.085 ], [ 29.6279, -2.0835 ], [ 29.6231, -2.0898 ], [ 29.6193, -2.09 ], [ 29.6223, -2.0954 ], [ 29.6179, -2.0993 ], [ 29.6156, -2.098 ], [ 29.6168, -2.1071 ], [ 29.6136, -2.1034 ], [ 29.6124, -2.1052 ], [ 29.6193, -2.1136 ], [ 29.6126, -2.1166 ], [ 29.615, -2.1214 ], [ 29.6196, -2.1226 ], [ 29.6323, -2.1174 ], [ 29.6488, -2.1186 ], [ 29.652, -2.1124 ], [ 29.6589, -2.1193 ], [ 29.6661, -2.1198 ], [ 29.6654, -2.1059 ], [ 29.6701, -2.1073 ], [ 29.6724, -2.1043 ], [ 29.6821, -2.1066 ], [ 29.6835, -2.1124 ], [ 29.6813, -2.1132 ], [ 29.688, -2.1215 ], [ 29.6961, -2.1194 ], [ 29.6993, -2.1146 ], [ 29.7252, -2.1118 ], [ 29.7335, -2.1183 ], [ 29.7378, -2.1181 ], [ 29.7503, -2.1296 ], [ 29.7664, -2.1352 ], [ 29.7735, -2.1438 ], [ 29.7894, -2.146 ], [ 29.7962, -2.1364 ], [ 29.7918, -2.1277 ], [ 29.8003, -2.1279 ], [ 29.8076, -2.123 ] ] ] } },
{ "type": "Feature", "properties": { "iso3": "RWA", "unit_id": "40016504B80175929690100", "unit_name": "Kamonyi" }, "geometry": { "type": "Polygon", "coordinates": [ [ [ 29.9886, -1.9253 ], [ 29.9772, -1.9058 ], [ 29.9757, -1.9095 ], [ 29.9629, -1.9076 ], [ 29.9636, -1.9038 ], [ 29.9566, -1.9002 ], [ 29.9595, -1.8953 ], [ 29.9487, -1.8909 ], [ 29.9424, -1.8844 ], [ 29.9424, -1.878 ], [ 29.9338, -1.8777 ], [ 29.9269, -1.8678 ], [ 29.9185, -1.8696 ], [ 29.918, -1.8644 ], [ 29.9101, -1.8573 ], [ 29.9015, -1.8627 ], [ 29.8929, -1.8625 ], [ 29.8799, -1.854 ], [ 29.8526, -1.8733 ], [ 29.841, -1.8572 ], [ 29.8234, -1.8566 ], [ 29.8175, -1.8529 ], [ 29.8122, -1.8573 ], [ 29.8111, -1.8717 ], [ 29.8049, -1.877 ], [ 29.7938, -1.9 ], [ 29.7841, -1.9125 ], [ 29.7854, -1.9171 ], [ 29.7893, -1.9178 ], [ 29.7929, -1.9308 ], [ 29.7905, -1.9569 ], [ 29.7967, -1.9631 ], [ 29.8014, -1.977 ], [ 29.7972, -1.9986 ], [ 29.8037, -2.0021 ], [ 29.8076, -2.0114 ], [ 29.812, -2.0118 ], [ 29.8102, -2.018 ], [ 29.8011, -2.0198 ], [ 29.7902, -2.031 ], [ 29.797, -2.0396 ], [ 29.8046, -2.0358 ], [ 29.8075, -2.0388 ], [ 29.8051, -2.0463 ], [ 29.8152, -2.0598 ], [ 29.8099, -2.0621 ], [ 29.8034, -2.0575 ], [ 29.7949, -2.0646 ], [ 29.7967, -2.0698 ], [ 29.7919, -2.0759 ], [ 29.7929, -2.0832 ], [ 29.8044, -2.0885 ], [ 29.8053, -2.0953 ], [ 29.8005, -2.0932 ], [ 29.792, -2.1003 ], [ 29.7994, -2.1053 ], [ 29.8037, -2.1139 ], [ 29.8078, -2.1113 ], [ 29.8418, -2.1125 ], [ 29.8553, -2.1067 ], [ 29.8872, -2.1014 ], [ 29.8882, -2.1136 ], [ 29.895, -2.1259 ], [ 29.9063, -2.1356 ], [ 29.9271, -2.1414 ], [ 29.9288, -2.1519 ], [ 29.9593, -2.1993 ], [ 29.9638, -2.2021 ], [ 29.9849, -2.2006 ], [ 29.9864, -2.19 ], [ 29.9817, -2.1713 ], [ 29.9861, -2.1465 ], [ 29.9887, -2.1441 ], [ 29.9938, -2.1456 ], [ 30.0033, -2.1391 ], [ 30.0097, -2.1315 ], [ 30.0113, -2.1218 ], [ 30.0181, -2.1182 ], [ 30.0208, -2.1118 ], [ 30.0156, -2.1039 ], [ 30.0176, -2.0982 ], [ 30.0149, -2.0935 ], [ 30.0193, -2.0742 ], [ 30.0162, -2.0757 ], [ 30.015, -2.0702 ], [ 30.0134, -2.073 ], [ 30.0082, -2.0701 ], [ 30.0054, -2.0731 ], [ 30.0023, -2.0668 ], [ 30.0, -2.07 ], [ 29.9971, -2.0667 ], [ 29.994, -2.0683 ], [ 29.9876, -2.0574 ], [ 29.9837, -2.0578 ], [ 29.9874, -2.051 ], [ 29.9834, -2.0437 ], [ 29.9862, -2.0439 ], [ 29.9974, -2.03 ], [ 30.0027, -2.0283 ], [ 30.0021, -2.0315 ], [ 30.0089, -2.0281 ], [ 30.0052, -2.0241 ], [ 30.0058, -2.0198 ], [ 30.0134, -2.0189 ], [ 30.0155, -2.0128 ], [ 30.0103, -2.013 ], [ 30.0086, -2.0072 ], [ 30.0045, -2.0077 ], [ 30.0036, -2.002 ], [ 29.9994, -2.001 ], [ 30.0009, -1.9984 ], [ 29.9951, -1.9975 ], [ 29.9971, -1.9926 ], [ 29.993, -1.9932 ], [ 29.998, -1.9877 ], [ 29.9957, -1.9837 ], [ 30.0023, -1.9834 ], [ 29.9981, -1.9712 ], [ 30.0037, -1.9697 ], [ 30.0034, -1.9555 ], [ 29.9985, -1.9564 ], [ 29.9984, -1.9477 ], [ 29.9956, -1.9458 ], [ 29.9987, -1.9406 ], [ 29.9966, -1.9421 ], [ 29.995, -1.9384 ], [ 29.994, -1.9406 ], [ 29.9878, -1.9333 ], [ 29.9899, -1.9297 ], [ 29.9855, -1.9292 ], [ 29.9886, -1.9253 ] ] ] } },
{ "type": "Feature", "properties": { "iso3": "RWA", "unit_id": "40016504B66248534151639", "unit_name": "Karongi" }, "geometry": { "type": "Polygon", "coordinates": [ [ [ 29.5621, -2.2058 ], [ 29.5728, -2.2036 ], [ 29.577, -2.1972 ], [ 29.5852, -2.2019 ], [ 29.587, -2.1936 ], [ 29.5901, -2.1947 ], [ 29.5897, -2.192 ], [ 29.5959, -2.1886 ], [ 29.6032, -2.1911 ], [ 29.6091, -2.1807 ], [ 29.6088, -2.1716 ], [ 29.6044, -2.1685 ], [ 29.6065, -2.1586 ], [ 29.6038, -2.155 ], [ 29.5999, -2.1557 ], [ 29.5991, -2.1511 ], [ 29.5946, -2.1507 ], [ 29.5995, -2.1446 ], [ 29.5977, -2.139 ], [ 29.6082, -2.1287 ], [ 29.6061, -2.1264 ], [ 29.6105, -2.1183 ], [ 29.6193, -2.1136 ], [ 29.6124, -2.1052 ], [ 29.6136, -2.1034 ], [ 29.6168, -2.1071 ], [ 29.6156, -2.098 ], [ 29.6179, -2.0993 ], [ 29.6223, -2.0954 ], [ 29.6193, -2.09 ], [ 29.6231, -2.0898 ], [ 29.6245, -2.0859 ], [ 29.618, -2.0827 ], [ 29.6102, -2.0725 ], [ 29.5923, -2.0743 ], [ 29.5879, -2.0619 ], [ 29.5781, -2.0676 ], [ 29.5584, -2.0638 ], [ 29.5623, -2.0657 ], [ 29.56, -2.0694 ], [ 29.5543, -2.0656 ], [ 29.5412, -2.0702 ], [ 29.5398, -2.0642 ], [ 29.531, -2.0639 ], [ 29.5268, -2.0585 ], [ 29.517, -2.0568 ], [ 29.503, -2.0591 ], [ 29.501, -2.0641 ], [ 29.4847, -2.0634 ], [ 29.4773, -2.0512 ], [ 29.4671, -2.0464 ], [ 29.4668, -2.0433 ], [ 29.462, -2.0437 ], [ 29.4665, -2.0327 ], [ 29.4609, -2.0293 ], [ 29.4476, -2.0456 ], [ 29.4446, -2.0469 ], [ 29.4365, -2.0425 ], [ 29.432, -2.043 ], [ 29.4307, -2.0472 ], [ 29.4254, -2.0421 ], [ 29.4201, -2.0429 ], [ 29.4175, -2.0379 ], [ 29.4115, -2.0381 ], [ 29.4113, -2.032 ], [ 29.4073, -2.034 ], [ 29.399, -2.0304 ], [ 29.3947, -2.0366 ], [ 29.3935, -2.0329 ], [ 29.3895, -2.0341 ], [ 29.3878, -2.0305 ], [ 29.3804, -2.0294 ], [ 29.3822, -2.0256 ], [ 29.3742, -2.0238 ], [ 29.3684, -2.031 ], [ 29.3595, -2.0299 ], [ 29.3653, -2.0346 ], [ 29.3681, -2.0325 ], [ 29.3698, -2.0348 ], [ 29.3761, -2.0334 ], [ 29.3783, -2.0367 ], [ 29.3805, -2.035 ], [ 29.3807, -2.0404 ], [ 29.3584, -2.0375 ], [ 29.3561, -2.0419 ], [ 29.371, -2.0452 ], [ 29.3674, -2.0488 ], [ 29.3625, -2.0466 ], [ 29.3606, -2.051 ], [ 29.3629, -2.0549 ], [ 29.3596, -2.0599 ], [ 29.3646, -2.0626 ], [ 29.3588, -2.0636 ], [ 29.3729, -2.0728 ], [ 29.3681, -2.075 ], [ 29.3682, -2.0719 ], [ 29.3605, -2.0681 ], [ 29.359, -2.0741 ], [ 29.3541, -2.0715 ], [ 29.3535, -2.0679 ], [ 29.3578, -2.067 ], [ 29.352, -2.0642 ], [ 29.3511, -2.0622 ], [ 29.3544, -2.0621 ], [ 29.3507, -2.0584 ], [ 29.3541, -2.0587 ], [ 29.3565, -2.0539 ], [ 29.3514, -2.052 ], [ 29.3504, -2.0473 ], [ 29.3453, -2.0502 ], [ 29.344, -2.0476 ], [ 29.338, -2.0486 ], [ 29.3434, -2.0506 ], [ 29.3425, -2.0538 ], [ 29.3472, -2.0529 ], [ 29.3454, -2.0553 ], [ 29.3479, -2.0575 ], [ 29.3417, -2.0596 ], [ 29.3468, -2.0622 ], [ 29.3388, -2.0621 ], [ 29.3384, -2.0588 ], [ 29.3349, -2.06 ], [ 29.3327, -2.0561 ], [ 29.3276, -2.0544 ], [ 29.3246, -2.0559 ], [ 29.3326, -2.0582 ], [ 29.3296, -2.0599 ], [ 29.339, -2.0643 ], [ 29.3393, -2.0672 ], [ 29.3349, -2.0659 ], [ 29.332, -2.0709 ], [ 29.3277, -2.0692 ], [ 29.3262, -2.0746 ], [ 29.324, -2.0676 ], [ 29.3184, -2.0666 ], [ 29.3172, -2.0711 ], [ 29.3213, -2.0726 ], [ 29.3185, -2.0768 ], [ 29.3256, -2.0803 ], [ 29.3257, -2.0848 ], [ 29.3221, -2.0837 ], [ 29.3264, -2.0879 ], [ 29.3254, -2.0922 ], [ 29.3306, -2.0923 ], [ 29.3373, -2.1012 ], [ 29.3264, -2.0978 ], [ 29.3297, -2.1021 ], [ 29.3267, -2.1053 ], [ 29.3272, -2.1143 ], [ 29.3235, -2.1114 ], [ 29.3243, -2.1009 ], [ 29.3134, -2.0959 ], [ 29.3135, -2.0871 ], [ 29.3063, -2.0875 ], [ 29.3014, -2.0805 ], [ 29.2998, -2.0838 ], [ 29.2909, -2.0864 ], [ 29.2864, -2.0832 ], [ 29.2821, -2.0937 ], [ 29.2802, -2.0871 ], [ 29.2786, -2.1274 ], [ 29.2898, -2.1308 ], [ 29.2902, -2.1355 ], [ 29.2875, -2.1369 ], [ 29.2844, -2.1328 ], [ 29.2799, -2.1344 ], [ 29.2769, -2.1372 ], [ 29.2803, -2.1391 ], [ 29.2795, -2.1451 ], [ 29.2761, -2.1474 ], [ 29.2759, -2.1413 ], [ 29.2724, -2.1417 ], [ 29.2723, -2.1381 ], [ 29.2685, -2.1392 ], [ 29.2753, -2.1301 ], [ 29.2717, -2.107 ], [ 29.2689, -2.1068 ], [ 29.2719, -2.1037 ], [ 29.2699, -2.0865 ], [ 29.2678, -2.094 ], [ 29.2651, -2.0919 ], [ 29.2641, -2.099 ], [ 29.2599, -2.0989 ], [ 29.2591, -2.1109 ], [ 29.2553, -2.1049 ], [ 29.2547, -2.1133 ], [ 29.2495, -2.1108 ], [ 29.2511, -2.1187 ], [ 29.2568, -2.1237 ], [ 29.2534, -2.1238 ], [ 29.2501, -2.1358 ], [ 29.2546, -2.1341 ], [ 29.2572, -2.1365 ], [ 29.2556, -2.1467 ], [ 29.2576, -2.143 ], [ 29.2621, -2.1439 ], [ 29.2672, -2.1514 ], [ 29.264, -2.1516 ], [ 29.2661, -2.1544 ], [ 29.2708, -2.1537 ], [ 29.2727, -2.1643 ], [ 29.2763, -2.1655 ], [ 29.2753, -2.1684 ], [ 29.2845, -2.1827 ], [ 29.2822, -2.1888 ], [ 29.2902, -2.199 ], [ 29.2891, -2.2023 ], [ 29.2936, -2.2013 ], [ 29.2964, -2.2088 ], [ 29.3023, -2.2093 ], [ 29.3049, -2.2147 ], [ 29.3097, -2.2121 ], [ 29.3156, -2.214 ], [ 29.3153, -2.217 ], [ 29.3111, -2.2167 ], [ 29.3041, -2.2322 ], [ 29.3114, -2.2373 ], [ 29.311, -2.2429 ], [ 29.3147, -2.2445 ], [ 29.3118, -2.2484 ], [ 29.3118, -2.2635 ], [ 29.3179, -2.2756 ], [ 29.3091, -2.2849 ], [ 29.3056, -2.2843 ], [ 29.305, -2.2885 ], [ 29.311, -2.2929 ], [ 29.3089, -2.2995 ], [ 29.3208, -2.3061 ], [ 29.3251, -2.316 ], [ 29.3229, -2.317 ], [ 29.3217, -2.3181 ], [ 29.32, -2.3209 ], [ 29.3214, -2.3231 ], [ 29.3246, -2.3244 ], [ 29.3206, -2.32 ], [ 29.3281, -2.3158 ], [ 29.3318, -2.3067 ], [ 29.3441, -2.2926 ], [ 29.3679, -2.2909 ], [ 29.3711, -2.2932 ], [ 29.3799, -2.2902 ], [ 29.3828, -2.2986 ], [ 29.3863, -2.298 ], [ 29.4028, -2.2769 ], [ 29.4086, -2.2787 ], [ 29.418, -2.2732 ], [ 29.4214, -2.2671 ], [ 29.4416, -2.276 ], [ 29.4587, -2.2675 ], [ 29.4612, -2.2718 ], [ 29.4696, -2.2737 ], [ 29.4748, -2.2678 ], [ 29.475, -2.2608 ], [ 29.49, -2.2499 ], [ 29.494, -2.241 ], [ 29.4994, -2.2431 ], [ 29.5093, -2.2346 ], [ 29.5146, -2.2366 ], [ 29.5166, -2.2305 ], [ 29.5195, -2.2338 ], [ 29.5196, -2.2266 ], [ 29.5232, -2.2276 ], [ 29.5242, -2.2245 ], [ 29.5305, -2.2229 ], [ 29.5416, -2.2108 ], [ 29.5482, -2.2117 ], [ 29.5447, -2.2079 ], [ 29.5494, -2.2075 ], [ 29.5476, -2.2046 ], [ 29.5513, -2.1998 ], [ 29.5581, -2.2002 ], [ 29.5621, -2.2058 ] ] ] } },
{ "type": "Feature", "properties": { "iso3": "RWA", "unit_id": "40016504B58353894398581", "unit_name": "Rutsiro" }, "geometry": { "type": "MultiPolygon", "coordinates": [ [ [ [ 29.3033, -2.0238 ], [ 29.3012, -2.0228 ], [ 29.3011, -2.0238 ], [ 29.3033, -2.0238 ] ] ], [ [ [ 29.3029, -2.0118 ], [ 29.2991, -2.0107 ], [ 29.3022, -2.0138 ], [ 29.3029, -2.0118 ] ] ], [ [ [ 29.3016, -1.9787 ], [ 29.3036, -1.9797 ], [ 29.3026, -1.9782 ], [ 29.3016, -1.9787 ] ] ], [ [ [ 29.1536, -1.9201 ], [ 29.1486, -1.9205 ], [ 29.1478, -1.9273 ], [ 29.1436, -1.9291 ], [ 29.1444, -1.9361 ], [ 29.1511, -1.9417 ], [ 29.1484, -1.9275 ], [ 29.1496, -1.9229 ], [ 29.1557, -1.9275 ], [ 29.1536, -1.9201 ] ] ], [ [ [ 29.2705, -1.9116 ], [ 29.2662, -1.8999 ], [ 29.2617, -1.9009 ], [ 29.2666, -1.9099 ], [ 29.266, -1.9157 ], [ 29.2605, -1.9216 ], [ 29.2641, -1.9272 ], [ 29.2705, -1.9116 ] ] ], [ [ [ 29.5623, -2.0657 ], [ 29.5547, -2.0592 ], [ 29.5489, -2.0626 ], [ 29.5396, -2.0593 ], [ 29.5384, -2.0519 ], [ 29.5493, -2.0401 ], [ 29.545, -2.0317 ], [ 29.5498, -2.0271 ], [ 29.5632, -2.027 ], [ 29.5644, -2.0214 ], [ 29.5526, -2.0175 ], [ 29.5476, -2.0109 ], [ 29.5358, -2.0059 ], [ 29.515, -1.9792 ], [ 29.5153, -1.976 ], [ 29.5242, -1.9759 ], [ 29.5265, -1.9729 ], [ 29.527, -1.9621 ], [ 29.5331, -1.9544 ], [ 29.5145, -1.9414 ], [ 29.5149, -1.9374 ], [ 29.5065, -1.9307 ], [ 29.5084, -1.9273 ], [ 29.4838, -1.915 ], [ 29.4796, -1.9165 ], [ 29.4791, -1.9096 ], [ 29.4666, -1.8911 ], [ 29.4672, -1.8827 ], [ 29.4616, -1.8804 ], [ 29.4617, -1.8754 ], [ 29.4581, -1.8727 ], [ 29.4571, -1.861 ], [ 29.4621, -1.8549 ], [ 29.463, -1.8465 ], [ 29.4393, -1.8367 ], [ 29.4339, -1.8302 ], [ 29.4297, -1.8165 ], [ 29.4228, -1.8116 ], [ 29.4182, -1.8121 ], [ 29.4137, -1.8015 ], [ 29.4048, -1.8029 ], [ 29.4035, -1.7993 ], [ 29.3982, -1.798 ], [ 29.4107, -1.7916 ], [ 29.4184, -1.7946 ], [ 29.4326, -1.7795 ], [ 29.44, -1.7758 ], [ 29.4467, -1.7776 ], [ 29.448, -1.7614 ], [ 29.4449, -1.7525 ], [ 29.4373, -1.7479 ], [ 29.4349, -1.7386 ], [ 29.4204, -1.7352 ], [ 29.4199, -1.7295 ], [ 29.407, -1.7301 ], [ 29.3999, -1.7382 ], [ 29.3793, -1.7343 ], [ 29.3722, -1.736 ], [ 29.3714, -1.7485 ], [ 29.3662, -1.7524 ], [ 29.3551, -1.7474 ], [ 29.3506, -1.7513 ], [ 29.3449, -1.7504 ], [ 29.3413, -1.7458 ], [ 29.3308, -1.7459 ], [ 29.3107, -1.7378 ], [ 29.3002, -1.7486 ], [ 29.2987, -1.7557 ], [ 29.3015, -1.7636 ], [ 29.299, -1.7692 ], [ 29.2917, -1.7688 ], [ 29.2882, -1.771 ], [ 29.2898, -1.7731 ], [ 29.2825, -1.774 ], [ 29.2781, -1.7793 ], [ 29.2763, -1.7746 ], [ 29.2684, -1.774 ], [ 29.2689, -1.7848 ], [ 29.2744, -1.7835 ], [ 29.275, -1.7893 ], [ 29.2793, -1.7894 ], [ 29.2787, -1.7964 ], [ 29.2748, -1.7971 ], [ 29.2781, -1.8024 ], [ 29.2752, -1.8098 ], [ 29.2803, -1.814 ], [ 29.2802, -1.8115 ], [ 29.2829, -1.8126 ], [ 29.2851, -1.8044 ], [ 29.2877, -1.8047 ], [ 29.2872, -1.8107 ], [ 29.2899, -1.8099 ], [ 29.2853, -1.8174 ], [ 29.2874, -1.8198 ], [ 29.2845, -1.8209 ], [ 29.2893, -1.8225 ], [ 29.2918, -1.839 ], [ 29.2973, -1.8474 ], [ 29.2962, -1.8501 ], [ 29.2884, -1.8486 ], [ 29.2848, -1.8536 ], [ 29.2875, -1.8576 ], [ 29.2833, -1.8664 ], [ 29.2873, -1.8662 ], [ 29.29, -1.8744 ], [ 29.2887, -1.8785 ], [ 29.2846, -1.8777 ], [ 29.2874, -1.8828 ], [ 29.281, -1.8854 ], [ 29.2814, -1.8909 ], [ 29.2737, -1.8896 ], [ 29.2704, -1.8964 ], [ 29.2801, -1.9011 ], [ 29.2744, -1.9047 ], [ 29.2761, -1.9065 ], [ 29.2843, -1.9072 ], [ 29.2861, -1.9151 ], [ 29.2823, -1.9205 ], [ 29.2871, -1.9179 ], [ 29.288, -1.9226 ], [ 29.2915, -1.9223 ], [ 29.293, -1.933 ], [ 29.2896, -1.9348 ], [ 29.2962, -1.9383 ], [ 29.3015, -1.9349 ], [ 29.3027, -1.9448 ], [ 29.3078, -1.9422 ], [ 29.3073, -1.9466 ], [ 29.3136, -1.9441 ], [ 29.317, -1.9314 ], [ 29.3239, -1.9267 ], [ 29.3246, -1.933 ], [ 29.321, -1.9374 ], [ 29.3226, -1.9415 ], [ 29.3261, -1.9402 ], [ 29.3208, -1.9459 ], [ 29.3253, -1.9484 ], [ 29.3231, -1.9511 ], [ 29.3272, -1.9501 ], [ 29.33, -1.953 ], [ 29.3225, -1.9589 ], [ 29.3267, -1.9607 ], [ 29.3235, -1.9627 ], [ 29.3281, -1.9646 ], [ 29.3272, -1.9728 ], [ 29.3318, -1.976 ], [ 29.3273, -1.9771 ], [ 29.3291, -1.9849 ], [ 29.3339, -1.985 ], [ 29.3342, -1.9935 ], [ 29.3394, -1.9915 ], [ 29.3392, -1.9876 ], [ 29.3423, -1.9916 ], [ 29.344, -1.986 ], [ 29.3459, -1.9898 ], [ 29.3478, -1.9861 ], [ 29.3487, -1.9893 ], [ 29.3544, -1.991 ], [ 29.353, -1.9944 ], [ 29.3493, -1.993 ], [ 29.3433, -1.9974 ], [ 29.3439, -2.0099 ], [ 29.3468, -2.005 ], [ 29.3462, -2.011 ], [ 29.3508, -2.011 ], [ 29.3493, -2.0082 ], [ 29.3526, -2.0074 ], [ 29.3526, -2.0042 ], [ 29.3581, -2.0073 ], [ 29.3546, -2.0091 ], [ 29.3573, -2.0117 ], [ 29.3541, -2.0119 ], [ 29.3546, -2.0181 ], [ 29.3506, -2.0195 ], [ 29.3549, -2.0218 ], [ 29.3532, -2.0277 ], [ 29.3595, -2.0221 ], [ 29.3616, -2.0239 ], [ 29.3638, -2.0191 ], [ 29.3683, -2.0209 ], [ 29.3643, -2.0248 ], [ 29.3686, -2.0283 ], [ 29.3742, -2.0238 ], [ 29.3807, -2.0247 ], [ 29.3804, -2.0294 ], [ 29.3878, -2.0305 ], [ 29.3895, -2.0341 ], [ 29.3935, -2.0329 ], [ 29.3947, -2.0366 ], [ 29.399, -2.0304 ], [ 29.4073, -2.034 ], [ 29.4113, -2.032 ], [ 29.4115, -2.0381 ], [ 29.4175, -2.0379 ], [ 29.4201, -2.0429 ], [ 29.4254, -2.0421 ], [ 29.4307, -2.0472 ], [ 29.432, -2.043 ], [ 29.4365, -2.0425 ], [ 29.4446, -2.0469 ], [ 29.4476, -2.0456 ], [ 29.4609, -2.0293 ], [ 29.4665, -2.0327 ], [ 29.462, -2.0437 ], [ 29.4668, -2.0433 ], [ 29.4671, -2.0464 ], [ 29.4773, -2.0512 ], [ 29.4847, -2.0634 ], [ 29.501, -2.0641 ], [ 29.503, -2.0591 ], [ 29.517, -2.0568 ], [ 29.5268, -2.0585 ], [ 29.531, -2.0639 ], [ 29.5398, -2.0642 ], [ 29.5412, -2.0702 ], [ 29.5543, -2.0656 ], [ 29.56, -2.0694 ], [ 29.5623, -2.0657 ] ] ], [ [ [ 29.2845, -1.8552 ], [ 29.2845, -1.8565 ], [ 29.2855, -1.8554 ], [ 29.2845, -1.8552 ] ] ], [ [ [ 29.2852, -1.8494 ], [ 29.2821, -1.8472 ], [ 29.2825, -1.8524 ], [ 29.2852, -1.8494 ] ] ], [ [ [ 29.2866, -1.8306 ], [ 29.2869, -1.8334 ], [ 29.2885, -1.8304 ], [ 29.2866, -1.8306 ] ] ], [ [ [ 29.2868, -1.8269 ], [ 29.289, -1.8278 ], [ 29.2886, -1.8255 ], [ 29.2868, -1.8269 ] ] ], [ [ [ 29.2714, -1.8263 ], [ 29.2688, -1.8237 ], [ 29.2702, -1.8279 ], [ 29.2714, -1.8263 ] ] ], [ [ [ 29.277, -1.8239 ], [ 29.2828, -1.8195 ], [ 29.2789, -1.8198 ], [ 29.277, -1.8239 ] ] ], [ [ [ 29.3084, -2.0157 ], [ 29.3047, -2.0178 ], [ 29.312, -2.0195 ], [ 29.3084, -2.0157 ] ] ], [ [ [ 29.3283, -2.0049 ], [ 29.3249, -2.0037 ], [ 29.3276, -2.0063 ], [ 29.3283, -2.0049 ] ] ], [ [ [ 29.3272, -2.0017 ], [ 29.3251, -2.0017 ], [ 29.3282, -2.0021 ], [ 29.3272, -2.0017 ] ] ], [ [ [ 29.3081, -1.9871 ], [ 29.3058, -1.9871 ], [ 29.3054, -1.992 ], [ 29.3081, -1.9871 ] ] ], [ [ [ 29.3207, -1.9612 ], [ 29.3221, -1.9589 ], [ 29.3201, -1.9591 ], [ 29.3207, -1.9612 ] ] ], [ [ [ 29.3337, -2.0108 ], [ 29.3339, -2.0096 ], [ 29.3329, -2.0099 ], [ 29.3337, -2.0108 ] ] ], [ [ [ 29.3411, -2.002 ], [ 29.3404, -2.0001 ], [ 29.3401, -2.0036 ], [ 29.3411, -2.002 ] ] ] ] } },
{ "type": "Feature", "properties": { "iso3": "RWA", "unit_id": "40016504B41870686260998", "unit_name": "Rubavu" }, "geometry": { "type": "Polygon", "coordinates": [ [ [ 29.4199, -1.7295 ], [ 29.4234, -1.7171 ], [ 29.4349, -1.7148 ], [ 29.4324, -1.7037 ], [ 29.4372, -1.6926 ], [ 29.431, -1.6877 ], [ 29.4147, -1.6874 ], [ 29.4079, -1.6808 ], [ 29.3987, -1.6801 ], [ 29.4015, -1.665 ], [ 29.399, -1.6594 ], [ 29.4019, -1.6538 ], [ 29.4009, -1.6385 ], [ 29.4188, -1.6293 ], [ 29.4118, -1.619 ], [ 29.4173, -1.6175 ], [ 29.4131, -1.6096 ], [ 29.4156, -1.6073 ], [ 29.4037, -1.5987 ], [ 29.4014, -1.5774 ], [ 29.406, -1.5696 ], [ 29.3957, -1.5593 ], [ 29.381, -1.5622 ], [ 29.3808, -1.5531 ], [ 29.3843, -1.5528 ], [ 29.3843, -1.5499 ], [ 29.3987, -1.549 ], [ 29.3975, -1.5079 ], [ 29.3616, -1.5092 ], [ 29.3535, -1.537 ], [ 29.3369, -1.5476 ], [ 29.3264, -1.5748 ], [ 29.3104, -1.6 ], [ 29.2991, -1.6063 ], [ 29.2936, -1.6147 ], [ 29.2685, -1.629 ], [ 29.2564, -1.6583 ], [ 29.2429, -1.6681 ], [ 29.2449, -1.698 ], [ 29.2534, -1.698 ], [ 29.2691, -1.7145 ], [ 29.2611, -1.7197 ], [ 29.261, -1.726 ], [ 29.2553, -1.7292 ], [ 29.2646, -1.7338 ], [ 29.2673, -1.7313 ], [ 29.2793, -1.7356 ], [ 29.2789, -1.7385 ], [ 29.272, -1.7369 ], [ 29.2699, -1.7398 ], [ 29.2801, -1.7425 ], [ 29.282, -1.7481 ], [ 29.2789, -1.7469 ], [ 29.2757, -1.753 ], [ 29.2808, -1.7548 ], [ 29.2697, -1.76 ], [ 29.2753, -1.7601 ], [ 29.2727, -1.7678 ], [ 29.279, -1.7726 ], [ 29.2822, -1.769 ], [ 29.2882, -1.771 ], [ 29.3008, -1.7675 ], [ 29.3002, -1.7486 ], [ 29.3107, -1.7378 ], [ 29.3308, -1.7459 ], [ 29.3413, -1.7458 ], [ 29.3449, -1.7504 ], [ 29.3506, -1.7513 ], [ 29.3551, -1.7474 ], [ 29.3662, -1.7524 ], [ 29.3714, -1.7485 ], [ 29.3722, -1.736 ], [ 29.3825, -1.7343 ], [ 29.3999, -1.7382 ], [ 29.407, -1.7301 ], [ 29.4199, -1.7295 ] ] ] } },
{ "type": "Feature", "properties": { "iso3": "RWA", "unit_id": "40016504B21497112405476", "unit_name": "Nyabihu" }, "geometry": { "type": "Polygon", "coordinates": [ [ [ 29.4349, -1.7386 ], [ 29.4402, -1.7353 ], [ 29.452, -1.7356 ], [ 29.4562, -1.7389 ], [ 29.4526, -1.7473 ], [ 29.4566, -1.7467 ], [ 29.4622, -1.7527 ], [ 29.4625, -1.7641 ], [ 29.4879, -1.767 ], [ 29.4948, -1.7714 ], [ 29.5031, -1.7701 ], [ 29.5076, -1.777 ], [ 29.5186, -1.766 ], [ 29.5238, -1.7509 ], [ 29.5304, -1.7512 ], [ 29.5382, -1.7408 ], [ 29.5542, -1.7482 ], [ 29.5748, -1.741 ], [ 29.5872, -1.7469 ], [ 29.6082, -1.7472 ], [ 29.6107, -1.7429 ], [ 29.6159, -1.7435 ], [ 29.617, -1.7347 ], [ 29.6387, -1.7221 ], [ 29.6342, -1.7146 ], [ 29.6346, -1.7002 ], [ 29.6325, -1.6986 ], [ 29.637, -1.6947 ], [ 29.64, -1.6766 ], [ 29.6384, -1.6583 ], [ 29.6332, -1.6491 ], [ 29.636, -1.6321 ], [ 29.6331, -1.6089 ], [ 29.6385, -1.5923 ], [ 29.6292, -1.5912 ], [ 29.6245, -1.585 ], [ 29.6182, -1.5884 ], [ 29.6078, -1.5877 ], [ 29.596, -1.5934 ], [ 29.5856, -1.592 ], [ 29.5847, -1.589 ], [ 29.5701, -1.5835 ], [ 29.5592, -1.5699 ], [ 29.5532, -1.5764 ], [ 29.5485, -1.5679 ], [ 29.5383, -1.5746 ], [ 29.508, -1.5622 ], [ 29.4992, -1.5637 ], [ 29.4839, -1.5492 ], [ 29.45, -1.506 ], [ 29.3975, -1.5079 ], [ 29.3987, -1.549 ], [ 29.3843, -1.5499 ], [ 29.3843, -1.5528 ], [ 29.3808, -1.5531 ], [ 29.381, -1.5622 ], [ 29.3957, -1.5593 ], [ 29.406, -1.5696 ], [ 29.4014, -1.5774 ], [ 29.4037, -1.5987 ], [ 29.4156, -1.6073 ], [ 29.4131, -1.6096 ], [ 29.4173, -1.6175 ], [ 29.4118, -1.619 ], [ 29.4188, -1.6293 ], [ 29.4009, -1.6385 ], [ 29.4019, -1.6538 ], [ 29.399, -1.6594 ], [ 29.4015, -1.665 ], [ 29.3987, -1.6801 ], [ 29.4079, -1.6808 ], [ 29.4147, -1.6874 ], [ 29.431, -1.6877 ], [ 29.4372, -1.6926 ], [ 29.4324, -1.7037 ], [ 29.4349, -1.7148 ], [ 29.4234, -1.7171 ], [ 29.4199, -1.7295 ], [ 29.4204, -1.7352 ], [ 29.4349, -1.7386 ] ] ] } },
{ "type": "Feature", "properties": { "iso3": "RWA", "unit_id": "40016504B65224902750228", "unit_name": "Ngororero" }, "geometry": { "type": "Polygon", "coordinates": [ [ [ 29.6589, -1.735 ], [ 29.6538, -1.7349 ], [ 29.6492, -1.7269 ], [ 29.6387, -1.7221 ], [ 29.617, -1.7347 ], [ 29.6159, -1.7435 ], [ 29.6107, -1.7429 ], [ 29.6082, -1.7472 ], [ 29.5872, -1.7469 ], [ 29.5748, -1.741 ], [ 29.5542, -1.7482 ], [ 29.5382, -1.7408 ], [ 29.5304, -1.7512 ], [ 29.5238, -1.7509 ], [ 29.5186, -1.766 ], [ 29.5076, -1.777 ], [ 29.5031, -1.7701 ], [ 29.4948, -1.7714 ], [ 29.4879, -1.767 ], [ 29.4625, -1.7641 ], [ 29.4622, -1.7527 ], [ 29.4566, -1.7467 ], [ 29.4526, -1.7473 ], [ 29.4562, -1.7389 ], [ 29.452, -1.7356 ], [ 29.4402, -1.7353 ], [ 29.4349, -1.7386 ], [ 29.4373, -1.7479 ], [ 29.4449, -1.7525 ], [ 29.448, -1.7614 ], [ 29.4467, -1.7776 ], [ 29.44, -1.7758 ], [ 29.4326, -1.7795 ], [ 29.4184, -1.7946 ], [ 29.4107, -1.7916 ], [ 29.3982, -1.798 ], [ 29.4035, -1.7993 ], [ 29.4048, -1.8029 ], [ 29.4137, -1.8015 ], [ 29.4182, -1.8121 ], [ 29.4228, -1.8116 ], [ 29.4297, -1.8165 ], [ 29.4339, -1.8302 ], [ 29.4393, -1.8367 ], [ 29.463, -1.8465 ], [ 29.4621, -1.8549 ], [ 29.4571, -1.861 ], [ 29.4581, -1.8727 ], [ 29.4617, -1.8754 ], [ 29.4616, -1.8804 ], [ 29.4672, -1.8827 ], [ 29.4666, -1.8911 ], [ 29.4791, -1.9096 ], [ 29.4796, -1.9165 ], [ 29.4838, -1.915 ], [ 29.5084, -1.9273 ], [ 29.5065, -1.9307 ], [ 29.5149, -1.9374 ], [ 29.5145, -1.9414 ], [ 29.5331, -1.9544 ], [ 29.527, -1.9621 ], [ 29.5265, -1.9729 ], [ 29.5242, -1.9759 ], [ 29.5153, -1.976 ], [ 29.515, -1.9792 ], [ 29.5358, -2.0059 ], [ 29.5476, -2.0109 ], [ 29.5526, -2.0175 ], [ 29.5644, -2.0214 ], [ 29.5656, -2.025 ], [ 29.5498, -2.0271 ], [ 29.545, -2.0317 ], [ 29.5493, -2.0401 ], [ 29.5384, -2.0519 ], [ 29.5396, -2.0593 ], [ 29.5489, -2.0626 ], [ 29.5547, -2.0592 ], [ 29.5584, -2.0638 ], [ 29.5781, -2.0676 ], [ 29.5879, -2.0619 ], [ 29.5923, -2.0743 ], [ 29.6102, -2.0725 ], [ 29.618, -2.0827 ], [ 29.6245, -2.0859 ], [ 29.6298, -2.085 ], [ 29.6292, -2.0798 ], [ 29.6336, -2.0791 ], [ 29.6319, -2.0722 ], [ 29.6372, -2.067 ], [ 29.633, -2.062 ], [ 29.6393, -2.0495 ], [ 29.6343, -2.0388 ], [ 29.6309, -2.0379 ], [ 29.6324, -2.0271 ], [ 29.6284, -2.0219 ], [ 29.6337, -2.0168 ], [ 29.6286, -2.0077 ], [ 29.6368, -1.9951 ], [ 29.622, -1.9799 ], [ 29.6224, -1.9758 ], [ 29.6257, -1.9735 ], [ 29.6436, -1.9791 ], [ 29.6546, -1.9763 ], [ 29.6658, -1.9719 ], [ 29.6736, -1.9594 ], [ 29.6709, -1.9488 ], [ 29.6618, -1.9442 ], [ 29.6609, -1.9383 ], [ 29.6641, -1.9343 ], [ 29.6614, -1.9198 ], [ 29.6731, -1.9105 ], [ 29.67, -1.9078 ], [ 29.6701, -1.9017 ], [ 29.6733, -1.9013 ], [ 29.6752, -1.8963 ], [ 29.6689, -1.8841 ], [ 29.6712, -1.8759 ], [ 29.6681, -1.8661 ], [ 29.6633, -1.8613 ], [ 29.6669, -1.836 ], [ 29.6648, -1.8308 ], [ 29.6723, -1.8226 ], [ 29.6687, -1.8176 ], [ 29.6726, -1.8047 ], [ 29.6689, -1.7997 ], [ 29.6733, -1.781 ], [ 29.6619, -1.7534 ], [ 29.6648, -1.7422 ], [ 29.6589, -1.735 ] ] ] } },
{ "type": "Feature", "properties": { "iso3": "RWA", "unit_id": "40016504B69203145422490", "unit_name": "Rusizi" }, "geometry": { "type": "MultiPolygon", "coordinates": [ [ [ [ 29.3454, -2.5754 ], [ 29.3469, -2.5594 ], [ 29.336, -2.5572 ], [ 29.3392, -2.5401 ], [ 29.3261, -2.5365 ], [ 29.3191, -2.5378 ], [ 29.324, -2.5258 ], [ 29.3225, -2.5076 ], [ 29.3072, -2.4929 ], [ 29.2997, -2.4951 ], [ 29.2779, -2.4868 ], [ 29.2726, -2.492 ], [ 29.2619, -2.4869 ], [ 29.252, -2.4753 ], [ 29.2451, -2.4782 ], [ 29.2406, -2.4726 ], [ 29.2243, -2.4758 ], [ 29.215, -2.4821 ], [ 29.2035, -2.4756 ], [ 29.1985, -2.4879 ], [ 29.192, -2.4906 ], [ 29.1729, -2.4805 ], [ 29.1719, -2.4833 ], [ 29.1666, -2.4823 ], [ 29.1585, -2.4915 ], [ 29.1531, -2.4899 ], [ 29.1518, -2.4952 ], [ 29.138, -2.4917 ], [ 29.1326, -2.4859 ], [ 29.1275, -2.4877 ], [ 29.1193, -2.4781 ], [ 29.121, -2.4929 ], [ 29.1239, -2.4958 ], [ 29.1227, -2.5053 ], [ 29.1176, -2.5055 ], [ 29.1153, -2.5134 ], [ 29.1054, -2.5149 ], [ 29.1008, -2.5204 ], [ 29.0807, -2.5185 ], [ 29.0737, -2.5327 ], [ 29.0484, -2.5413 ], [ 29.0437, -2.5452 ], [ 29.0461, -2.5501 ], [ 29.045, -2.5623 ], [ 29.0375, -2.569 ], [ 29.0338, -2.5593 ], [ 29.0347, -2.5414 ], [ 29.0175, -2.5353 ], [ 29.0169, -2.5313 ], [ 29.0086, -2.5267 ], [ 28.9976, -2.507 ], [ 28.9764, -2.4883 ], [ 28.9763, -2.4776 ], [ 28.9818, -2.4718 ], [ 28.9754, -2.4592 ], [ 28.9786, -2.4477 ], [ 28.9765, -2.4432 ], [ 28.9681, -2.4428 ], [ 28.9649, -2.4384 ], [ 28.9698, -2.4235 ], [ 28.9677, -2.4114 ], [ 28.9705, -2.3961 ], [ 28.9656, -2.3997 ], [ 28.9684, -2.3943 ], [ 28.9677, -2.3901 ], [ 28.9637, -2.3946 ], [ 28.9586, -2.3922 ], [ 28.9512, -2.3993 ], [ 28.9513, -2.3956 ], [ 28.9478, -2.3936 ], [ 28.9503, -2.3906 ], [ 28.9487, -2.384 ], [ 28.9339, -2.4043 ], [ 28.9302, -2.3976 ], [ 28.9294, -2.4033 ], [ 28.9269, -2.3958 ], [ 28.9192, -2.4035 ], [ 28.9209, -2.4072 ], [ 28.9166, -2.4028 ], [ 28.9083, -2.4084 ], [ 28.9015, -2.4205 ], [ 28.9044, -2.433 ], [ 28.894, -2.4677 ], [ 28.8969, -2.4691 ], [ 28.9006, -2.4643 ], [ 28.9018, -2.4666 ], [ 28.8979, -2.4712 ], [ 28.8983, -2.4801 ], [ 28.8956, -2.4822 ], [ 28.896, -2.4755 ], [ 28.8936, -2.4808 ], [ 28.8892, -2.5045 ], [ 28.8743, -2.5094 ], [ 28.8617, -2.5242 ], [ 28.8626, -2.5328 ], [ 28.8778, -2.5507 ], [ 28.8929, -2.5601 ], [ 28.8995, -2.5842 ], [ 28.8975, -2.5989 ], [ 28.9023, -2.6082 ], [ 28.9003, -2.622 ], [ 28.904, -2.6269 ], [ 28.9058, -2.6453 ], [ 28.9041, -2.6495 ], [ 28.8961, -2.6522 ], [ 28.8976, -2.6607 ], [ 28.91, -2.665 ], [ 28.9176, -2.6802 ], [ 28.9373, -2.6818 ], [ 28.9438, -2.693 ], [ 28.9473, -2.6906 ], [ 28.9595, -2.6938 ], [ 28.9666, -2.7035 ], [ 28.9747, -2.6954 ], [ 28.9805, -2.694 ], [ 28.9885, -2.6996 ], [ 28.9957, -2.6994 ], [ 29.0213, -2.7199 ], [ 29.0349, -2.734 ], [ 29.0405, -2.7447 ], [ 29.0424, -2.7251 ], [ 29.0573, -2.7098 ], [ 29.0499, -2.7021 ], [ 29.0526, -2.6989 ], [ 29.0505, -2.6944 ], [ 29.0551, -2.6932 ], [ 29.055, -2.6894 ], [ 29.0477, -2.6874 ], [ 29.0567, -2.6838 ], [ 29.0581, -2.6781 ], [ 29.0467, -2.6712 ], [ 29.0548, -2.653 ], [ 29.0618, -2.6498 ], [ 29.0543, -2.6401 ], [ 29.0526, -2.6234 ], [ 29.0535, -2.6193 ], [ 29.0582, -2.6183 ], [ 29.0623, -2.6023 ], [ 29.0731, -2.6038 ], [ 29.0819, -2.5952 ], [ 29.093, -2.5921 ], [ 29.0956, -2.5971 ], [ 29.1161, -2.5972 ], [ 29.1279, -2.6106 ], [ 29.1355, -2.6047 ], [ 29.1416, -2.6043 ], [ 29.1395, -2.5986 ], [ 29.1488, -2.5951 ], [ 29.1497, -2.5917 ], [ 29.151, -2.5959 ], [ 29.1629, -2.5956 ], [ 29.1625, -2.6008 ], [ 29.1685, -2.6032 ], [ 29.1738, -2.6105 ], [ 29.1738, -2.6156 ], [ 29.1826, -2.6143 ], [ 29.1871, -2.6103 ], [ 29.186, -2.6159 ], [ 29.1973, -2.618 ], [ 29.2034, -2.6157 ], [ 29.2081, -2.622 ], [ 29.213, -2.6217 ], [ 29.219, -2.6266 ], [ 29.2204, -2.6323 ], [ 29.2264, -2.6257 ], [ 29.2331, -2.6288 ], [ 29.2359, -2.6248 ], [ 29.2393, -2.6274 ], [ 29.2476, -2.6221 ], [ 29.2513, -2.6269 ], [ 29.2653, -2.6188 ], [ 29.2671, -2.6247 ], [ 29.2813, -2.6264 ], [ 29.2936, -2.6409 ], [ 29.3149, -2.647 ], [ 29.3198, -2.6567 ], [ 29.3262, -2.6535 ], [ 29.335, -2.6694 ], [ 29.3291, -2.6826 ], [ 29.3491, -2.6767 ], [ 29.3542, -2.6661 ], [ 29.3521, -2.6602 ], [ 29.3571, -2.6453 ], [ 29.3679, -2.6314 ], [ 29.3529, -2.5958 ], [ 29.3452, -2.597 ], [ 29.3425, -2.5932 ], [ 29.345, -2.5853 ], [ 29.3397, -2.5813 ], [ 29.3454, -2.5754 ] ] ], [ [ [ 28.892, -2.4536 ], [ 28.8997, -2.4364 ], [ 28.8983, -2.4331 ], [ 28.892, -2.4536 ] ] ], [ [ [ 28.8916, -2.4337 ], [ 28.8839, -2.4441 ], [ 28.887, -2.4482 ], [ 28.8862, -2.4532 ], [ 28.8901, -2.4466 ], [ 28.8916, -2.4337 ] ] ], [ [ [ 28.8929, -2.427 ], [ 28.8935, -2.4282 ], [ 28.8938, -2.4236 ], [ 28.8929, -2.427 ] ] ], [ [ [ 28.9324, -2.3744 ], [ 28.9111, -2.3754 ], [ 28.9078, -2.3908 ], [ 28.9026, -2.3887 ], [ 28.9041, -2.3941 ], [ 28.8997, -2.3951 ], [ 28.9, -2.4001 ], [ 28.8963, -2.3988 ], [ 28.898, -2.4011 ], [ 28.8955, -2.4029 ], [ 28.8931, -2.4003 ], [ 28.8931, -2.4092 ], [ 28.8858, -2.4174 ], [ 28.8838, -2.4304 ], [ 28.8801, -2.4284 ], [ 28.8791, -2.4323 ], [ 28.8818, -2.434 ], [ 28.8865, -2.4305 ], [ 28.8895, -2.4192 ], [ 28.8992, -2.4133 ], [ 28.8993, -2.4096 ], [ 28.9104, -2.4046 ], [ 28.9111, -2.4001 ], [ 28.921, -2.3987 ], [ 28.925, -2.3941 ], [ 28.9256, -2.3886 ], [ 28.919, -2.3856 ], [ 28.9202, -2.3825 ], [ 28.9135, -2.3849 ], [ 28.9122, -2.3798 ], [ 28.9167, -2.378 ], [ 28.9274, -2.3814 ], [ 28.9349, -2.3776 ], [ 28.9324, -2.3744 ] ] ], [ [ [ 28.9416, -2.3797 ], [ 28.9351, -2.3845 ], [ 28.9343, -2.3817 ], [ 28.9296, -2.3836 ], [ 28.9277, -2.3899 ], [ 28.93, -2.3936 ], [ 28.9416, -2.3797 ] ] ] ] } },
{ "type": "Feature", "properties": { "iso3": "RWA", "unit_id": "40016504B46743097804422", "unit_name": "Nyamasheke" }, "geometry": { "type": "MultiPolygon", "coordinates": [ [ [ [ 29.3246, -2.3244 ], [ 29.32, -2.3209 ], [ 29.3251, -2.316 ], [ 29.3208, -2.3061 ], [ 29.3089, -2.2995 ], [ 29.311, -2.2929 ], [ 29.305, -2.2885 ], [ 29.3056, -2.2843 ], [ 29.3091, -2.2849 ], [ 29.3179, -2.2756 ], [ 29.3118, -2.2635 ], [ 29.3118, -2.2484 ], [ 29.3147, -2.2445 ], [ 29.311, -2.2429 ], [ 29.3114, -2.2373 ], [ 29.3041, -2.2322 ], [ 29.3111, -2.2167 ], [ 29.3153, -2.217 ], [ 29.3156, -2.214 ], [ 29.3097, -2.2121 ], [ 29.3049, -2.2147 ], [ 29.3023, -2.2093 ], [ 29.2964, -2.2088 ], [ 29.2936, -2.2013 ], [ 29.2891, -2.2023 ], [ 29.2902, -2.199 ], [ 29.2823, -2.1888 ], [ 29.2806, -2.1906 ], [ 29.2805, -2.1829 ], [ 29.2753, -2.1803 ], [ 29.2698, -2.1682 ], [ 29.2621, -2.1667 ], [ 29.2653, -2.1614 ], [ 29.2578, -2.1599 ], [ 29.258, -2.1572 ], [ 29.2526, -2.155 ], [ 29.2487, -2.1592 ], [ 29.2436, -2.1589 ], [ 29.2481, -2.1534 ], [ 29.2469, -2.1502 ], [ 29.2429, -2.1559 ], [ 29.2414, -2.152 ], [ 29.2426, -2.1693 ], [ 29.2379, -2.1671 ], [ 29.2359, -2.1599 ], [ 29.2287, -2.1591 ], [ 29.2318, -2.1649 ], [ 29.2258, -2.1726 ], [ 29.2236, -2.1662 ], [ 29.2231, -2.1743 ], [ 29.2196, -2.1676 ], [ 29.216, -2.1686 ], [ 29.2165, -2.1638 ], [ 29.2104, -2.1625 ], [ 29.2179, -2.175 ], [ 29.2097, -2.174 ], [ 29.2086, -2.1837 ], [ 29.2021, -2.1831 ], [ 29.2013, -2.1791 ], [ 29.1976, -2.1802 ], [ 29.1977, -2.1863 ], [ 29.202, -2.1904 ], [ 29.2032, -2.1983 ], [ 29.2076, -2.1958 ], [ 29.2103, -2.1983 ], [ 29.2131, -2.1956 ], [ 29.2109, -2.1927 ], [ 29.2142, -2.194 ], [ 29.2151, -2.2022 ], [ 29.2125, -2.2028 ], [ 29.2184, -2.2123 ], [ 29.2142, -2.2116 ], [ 29.212, -2.207 ], [ 29.2068, -2.21 ], [ 29.1983, -2.2014 ], [ 29.1937, -2.2054 ], [ 29.1979, -2.2146 ], [ 29.1939, -2.2146 ], [ 29.1948, -2.2187 ], [ 29.1911, -2.2167 ], [ 29.1944, -2.2208 ], [ 29.1911, -2.2237 ], [ 29.1944, -2.2228 ], [ 29.1964, -2.2268 ], [ 29.1871, -2.2277 ], [ 29.1893, -2.2332 ], [ 29.184, -2.2415 ], [ 29.1899, -2.2443 ], [ 29.1919, -2.2499 ], [ 29.1825, -2.2468 ], [ 29.1854, -2.2527 ], [ 29.187, -2.2496 ], [ 29.2013, -2.2556 ], [ 29.2071, -2.2448 ], [ 29.2062, -2.2487 ], [ 29.2103, -2.2514 ], [ 29.2042, -2.2538 ], [ 29.2027, -2.2581 ], [ 29.2073, -2.264 ], [ 29.2022, -2.2607 ], [ 29.2039, -2.2646 ], [ 29.2001, -2.2614 ], [ 29.1997, -2.2639 ], [ 29.198, -2.2572 ], [ 29.1903, -2.2558 ], [ 29.1805, -2.2712 ], [ 29.1798, -2.2634 ], [ 29.1824, -2.2605 ], [ 29.1798, -2.2557 ], [ 29.178, -2.2615 ], [ 29.1741, -2.2602 ], [ 29.1712, -2.2659 ], [ 29.1668, -2.2592 ], [ 29.1671, -2.2662 ], [ 29.1623, -2.2661 ], [ 29.1652, -2.2709 ], [ 29.1619, -2.2686 ], [ 29.1572, -2.2705 ], [ 29.155, -2.2758 ], [ 29.1549, -2.2818 ], [ 29.1595, -2.2816 ], [ 29.1567, -2.2863 ], [ 29.163, -2.2871 ], [ 29.1587, -2.2935 ], [ 29.1598, -2.2973 ], [ 29.1532, -2.2948 ], [ 29.1528, -2.2914 ], [ 29.1501, -2.2928 ], [ 29.1543, -2.2983 ], [ 29.1509, -2.3006 ], [ 29.142, -2.2955 ], [ 29.1392, -2.3035 ], [ 29.1347, -2.3058 ], [ 29.1369, -2.3086 ], [ 29.1313, -2.3118 ], [ 29.1396, -2.3143 ], [ 29.1338, -2.3154 ], [ 29.1342, -2.3195 ], [ 29.1284, -2.3238 ], [ 29.1296, -2.329 ], [ 29.126, -2.3298 ], [ 29.128, -2.3319 ], [ 29.1232, -2.3323 ], [ 29.1219, -2.3381 ], [ 29.1266, -2.3381 ], [ 29.1227, -2.3417 ], [ 29.1199, -2.3376 ], [ 29.1162, -2.3397 ], [ 29.1196, -2.3367 ], [ 29.1169, -2.3358 ], [ 29.119, -2.3316 ], [ 29.1141, -2.3343 ], [ 29.113, -2.3318 ], [ 29.116, -2.3298 ], [ 29.1137, -2.3285 ], [ 29.1151, -2.3258 ], [ 29.1181, -2.3292 ], [ 29.1209, -2.3279 ], [ 29.1163, -2.3237 ], [ 29.1179, -2.3203 ], [ 29.125, -2.3214 ], [ 29.1296, -2.3145 ], [ 29.1244, -2.3159 ], [ 29.1194, -2.3115 ], [ 29.132, -2.3012 ], [ 29.1277, -2.2958 ], [ 29.1204, -2.2998 ], [ 29.1196, -2.3067 ], [ 29.1099, -2.3041 ], [ 29.1051, -2.3098 ], [ 29.1043, -2.3128 ], [ 29.1077, -2.3125 ], [ 29.1097, -2.3169 ], [ 29.1084, -2.3226 ], [ 29.1025, -2.3236 ], [ 29.1062, -2.3364 ], [ 29.0955, -2.3373 ], [ 29.0987, -2.3333 ], [ 29.0946, -2.3302 ], [ 29.0874, -2.3352 ], [ 29.0865, -2.3393 ], [ 29.0801, -2.3398 ], [ 29.0784, -2.3356 ], [ 29.0739, -2.3395 ], [ 29.0674, -2.336 ], [ 29.0668, -2.3392 ], [ 29.0745, -2.3422 ], [ 29.0835, -2.3402 ], [ 29.0773, -2.3501 ], [ 29.0824, -2.3572 ], [ 29.0783, -2.3651 ], [ 29.0793, -2.3733 ], [ 29.0766, -2.3782 ], [ 29.0687, -2.374 ], [ 29.0662, -2.3755 ], [ 29.0638, -2.3808 ], [ 29.0674, -2.3827 ], [ 29.0585, -2.389 ], [ 29.0594, -2.3957 ], [ 29.0509, -2.4039 ], [ 29.049, -2.4141 ], [ 29.0387, -2.4033 ], [ 29.0403, -2.3982 ], [ 29.0564, -2.3826 ], [ 29.0565, -2.3731 ], [ 29.0616, -2.3707 ], [ 29.0604, -2.3672 ], [ 29.055, -2.3667 ], [ 29.0568, -2.3596 ], [ 29.0524, -2.363 ], [ 29.0444, -2.3559 ], [ 29.0427, -2.3448 ], [ 29.0429, -2.3377 ], [ 29.0505, -2.3311 ], [ 29.0493, -2.3232 ], [ 29.0539, -2.3134 ], [ 29.0413, -2.2973 ], [ 29.0329, -2.2915 ], [ 29.0293, -2.2973 ], [ 29.0272, -2.295 ], [ 29.0194, -2.2962 ], [ 29.0244, -2.2995 ], [ 29.0204, -2.3003 ], [ 29.0229, -2.3042 ], [ 29.0201, -2.3069 ], [ 29.0239, -2.3057 ], [ 29.0261, -2.3087 ], [ 29.0197, -2.3115 ], [ 29.0228, -2.3154 ], [ 29.0177, -2.3216 ], [ 29.0169, -2.3287 ], [ 29.0097, -2.3365 ], [ 29.0143, -2.3388 ], [ 29.0117, -2.3439 ], [ 29.0097, -2.3402 ], [ 29.0067, -2.3407 ], [ 29.0067, -2.3494 ], [ 29.0018, -2.3505 ], [ 29.0069, -2.3631 ], [ 29.0023, -2.3578 ], [ 28.9978, -2.3655 ], [ 29.0046, -2.3762 ], [ 28.9991, -2.3725 ], [ 28.995, -2.385 ], [ 28.9899, -2.3758 ], [ 28.9877, -2.3767 ], [ 28.9758, -2.3905 ], [ 28.9783, -2.394 ], [ 28.9751, -2.3969 ], [ 28.9764, -2.4005 ], [ 28.971, -2.4008 ], [ 28.9677, -2.4114 ], [ 28.9698, -2.4235 ], [ 28.9649, -2.4384 ], [ 28.9681, -2.4428 ], [ 28.9765, -2.4432 ], [ 28.9786, -2.4477 ], [ 28.9754, -2.4592 ], [ 28.9818, -2.4718 ], [ 28.9763, -2.4776 ], [ 28.9764, -2.4883 ], [ 28.9976, -2.507 ], [ 29.0086, -2.5267 ], [ 29.0169, -2.5313 ], [ 29.0175, -2.5353 ], [ 29.0347, -2.5414 ], [ 29.0338, -2.5593 ], [ 29.0375, -2.569 ], [ 29.045, -2.5623 ], [ 29.0461, -2.5501 ], [ 29.0437, -2.5452 ], [ 29.0484, -2.5413 ], [ 29.0737, -2.5327 ], [ 29.0807, -2.5185 ], [ 29.1008, -2.5204 ], [ 29.1054, -2.5149 ], [ 29.1153, -2.5134 ], [ 29.1176, -2.5055 ], [ 29.1227, -2.5053 ], [ 29.1239, -2.4958 ], [ 29.121, -2.4929 ], [ 29.1193, -2.4781 ], [ 29.1275, -2.4877 ], [ 29.1326, -2.4859 ], [ 29.138, -2.4917 ], [ 29.1518, -2.4952 ], [ 29.1531, -2.4899 ], [ 29.1585, -2.4915 ], [ 29.1666, -2.4823 ], [ 29.1719, -2.4833 ], [ 29.1729, -2.4805 ], [ 29.192, -2.4906 ], [ 29.1985, -2.4879 ], [ 29.2035, -2.4756 ], [ 29.215, -2.4821 ], [ 29.2243, -2.4758 ], [ 29.2406, -2.4726 ], [ 29.2451, -2.4782 ], [ 29.252, -2.4753 ], [ 29.2619, -2.4869 ], [ 29.2726, -2.492 ], [ 29.2772, -2.4875 ], [ 29.2647, -2.482 ], [ 29.2694, -2.4755 ], [ 29.2656, -2.4723 ], [ 29.2724, -2.4638 ], [ 29.2803, -2.4419 ], [ 29.2991, -2.4404 ], [ 29.3031, -2.4341 ], [ 29.3099, -2.4357 ], [ 29.3175, -2.4313 ], [ 29.3235, -2.4325 ], [ 29.3287, -2.4217 ], [ 29.3272, -2.4069 ], [ 29.3229, -2.406 ], [ 29.3183, -2.3986 ], [ 29.3227, -2.3883 ], [ 29.3275, -2.3887 ], [ 29.3306, -2.3799 ], [ 29.336, -2.3784 ], [ 29.344, -2.36 ], [ 29.3375, -2.3482 ], [ 29.3273, -2.3396 ], [ 29.3246, -2.3244 ] ] ], [ [ [ 29.0595, -2.3842 ], [ 29.0626, -2.3834 ], [ 29.0606, -2.3821 ], [ 29.0595, -2.3842 ] ] ], [ [ [ 29.1013, -2.3363 ], [ 29.1031, -2.3366 ], [ 29.1017, -2.3353 ], [ 29.1013, -2.3363 ] ] ], [ [ [ 29.1577, -2.2917 ], [ 29.1589, -2.293 ], [ 29.1592, -2.2889 ], [ 29.1577, -2.2917 ] ] ], [ [ [ 29.1484, -2.2769 ], [ 29.1457, -2.2761 ], [ 29.1454, -2.2854 ], [ 29.1424, -2.287 ], [ 29.1451, -2.2874 ], [ 29.1431, -2.2916 ], [ 29.1477, -2.2952 ], [ 29.1466, -2.2914 ], [ 29.1507, -2.2865 ], [ 29.1484, -2.2802 ], [ 29.1464, -2.2813 ], [ 29.1484, -2.2769 ] ] ], [ [ [ 29.1342, -2.2853 ], [ 29.1398, -2.2839 ], [ 29.1347, -2.2824 ], [ 29.1342, -2.2853 ] ] ], [ [ [ 29.1394, -2.2704 ], [ 29.1369, -2.2705 ], [ 29.136, -2.2728 ], [ 29.1394, -2.2704 ] ] ], [ [ [ 29.1634, -2.2575 ], [ 29.1609, -2.2572 ], [ 29.1647, -2.2625 ], [ 29.1634, -2.2575 ] ] ], [ [ [ 29.174, -2.2288 ], [ 29.1785, -2.2402 ], [ 29.1823, -2.2402 ], [ 29.182, -2.2334 ], [ 29.174, -2.2288 ] ] ], [ [ [ 29.1876, -2.2221 ], [ 29.1891, -2.2206 ], [ 29.184, -2.2247 ], [ 29.1876, -2.2221 ] ] ], [ [ [ 29.1824, -2.2049 ], [ 29.1803, -2.2016 ], [ 29.1799, -2.2032 ], [ 29.1824, -2.2049 ] ] ], [ [ [ 29.1938, -2.2032 ], [ 29.1943, -2.1994 ], [ 29.1921, -2.2001 ], [ 29.1938, -2.2032 ] ] ], [ [ [ 29.211, -2.1995 ], [ 29.2096, -2.1992 ], [ 29.2102, -2.2008 ], [ 29.211, -2.1995 ] ] ] ] } },
{ "type": "Feature", "properties": { "iso3": "RWA", "unit_id": "40016504B30211840889350", "unit_name": "Rulindo" }, "geometry": { "type": "Polygon", "coordinates": [ [ [ 29.9894, -1.8668 ], [ 29.993, -1.8554 ], [ 29.9911, -1.8475 ], [ 30.0064, -1.8387 ], [ 30.0158, -1.8363 ], [ 30.0293, -1.8652 ], [ 30.0455, -1.8539 ], [ 30.0515, -1.8447 ], [ 30.057, -1.8443 ], [ 30.0565, -1.8375 ], [ 30.0635, -1.8288 ], [ 30.0947, -1.8206 ], [ 30.0995, -1.8127 ], [ 30.1133, -1.8205 ], [ 30.1177, -1.82 ], [ 30.128, -1.809 ], [ 30.133, -1.7796 ], [ 30.1265, -1.7721 ], [ 30.1189, -1.7712 ], [ 30.1133, -1.7753 ], [ 30.0992, -1.7727 ], [ 30.0844, -1.7565 ], [ 30.0862, -1.7514 ], [ 30.0759, -1.7329 ], [ 30.0834, -1.7149 ], [ 30.0665, -1.6881 ], [ 30.0634, -1.6872 ], [ 30.055, -1.668 ], [ 30.0619, -1.6611 ], [ 30.0605, -1.6589 ], [ 30.0764, -1.651 ], [ 30.0532, -1.6178 ], [ 30.0412, -1.611 ], [ 30.0349, -1.6019 ], [ 30.0105, -1.6226 ], [ 30.014, -1.6312 ], [ 30.0131, -1.643 ], [ 30.0181, -1.6541 ], [ 30.0073, -1.6518 ], [ 29.9999, -1.6615 ], [ 29.9939, -1.6413 ], [ 29.9826, -1.6323 ], [ 29.9786, -1.6391 ], [ 29.9746, -1.6392 ], [ 29.9673, -1.6288 ], [ 29.9666, -1.6205 ], [ 29.9583, -1.6147 ], [ 29.9578, -1.6073 ], [ 29.9505, -1.6042 ], [ 29.944, -1.5957 ], [ 29.9361, -1.5976 ], [ 29.9222, -1.5917 ], [ 29.9171, -1.5958 ], [ 29.9095, -1.5898 ], [ 29.9009, -1.5896 ], [ 29.9052, -1.595 ], [ 29.9053, -1.611 ], [ 29.893, -1.6082 ], [ 29.8873, -1.6121 ], [ 29.8821, -1.6091 ], [ 29.8746, -1.6101 ], [ 29.8732, -1.6129 ], [ 29.8643, -1.6127 ], [ 29.8746, -1.6446 ], [ 29.8809, -1.6497 ], [ 29.8796, -1.6569 ], [ 29.8725, -1.6642 ], [ 29.8751, -1.6752 ], [ 29.8969, -1.7072 ], [ 29.9031, -1.7236 ], [ 29.9012, -1.7269 ], [ 29.9061, -1.7489 ], [ 29.9212, -1.7729 ], [ 29.9231, -1.788 ], [ 29.9327, -1.7999 ], [ 29.9122, -1.807 ], [ 29.9077, -1.8316 ], [ 29.9109, -1.8401 ], [ 29.9034, -1.849 ], [ 29.9048, -1.8599 ], [ 29.9101, -1.8573 ], [ 29.918, -1.8644 ], [ 29.9185, -1.8696 ], [ 29.9269, -1.8678 ], [ 29.9338, -1.8777 ], [ 29.9424, -1.878 ], [ 29.9424, -1.8844 ], [ 29.9487, -1.8909 ], [ 29.9595, -1.8953 ], [ 29.9566, -1.9002 ], [ 29.9636, -1.9038 ], [ 29.9629, -1.9076 ], [ 29.9757, -1.9095 ], [ 29.9772, -1.9058 ], [ 29.9828, -1.9134 ], [ 29.9925, -1.9074 ], [ 29.9862, -1.8963 ], [ 29.978, -1.8907 ], [ 29.9804, -1.8868 ], [ 29.9775, -1.881 ], [ 29.98, -1.8714 ], [ 29.9894, -1.8668 ] ] ] } },
{ "type": "Feature", "properties": { "iso3": "RWA", "unit_id": "40016504B34155808588339", "unit_name": "Gakenke" }, "geometry": { "type": "Polygon", "coordinates": [ [ [ 29.8175, -1.8529 ], [ 29.8234, -1.8566 ], [ 29.841, -1.8572 ], [ 29.8526, -1.8733 ], [ 29.8799, -1.854 ], [ 29.8929, -1.8625 ], [ 29.9015, -1.8627 ], [ 29.9048, -1.8599 ], [ 29.9034, -1.849 ], [ 29.9109, -1.8401 ], [ 29.9077, -1.8316 ], [ 29.9122, -1.807 ], [ 29.9327, -1.7999 ], [ 29.9231, -1.788 ], [ 29.9212, -1.7729 ], [ 29.9061, -1.7489 ], [ 29.9012, -1.7269 ], [ 29.9031, -1.7236 ], [ 29.8969, -1.7072 ], [ 29.8751, -1.6752 ], [ 29.8725, -1.6642 ], [ 29.8796, -1.6569 ], [ 29.8809, -1.6497 ], [ 29.8746, -1.6446 ], [ 29.8643, -1.6127 ], [ 29.8585, -1.6069 ], [ 29.8536, -1.5798 ], [ 29.8423, -1.5798 ], [ 29.8371, -1.5693 ], [ 29.8404, -1.564 ], [ 29.8375, -1.5596 ], [ 29.8227, -1.5614 ], [ 29.8129, -1.5665 ], [ 29.8047, -1.5638 ], [ 29.7866, -1.5691 ], [ 29.7818, -1.5659 ], [ 29.7795, -1.5591 ], [ 29.7743, -1.56 ], [ 29.7706, -1.5543 ], [ 29.7618, -1.5497 ], [ 29.7519, -1.5659 ], [ 29.7536, -1.5822 ], [ 29.75, -1.5854 ], [ 29.7357, -1.5841 ], [ 29.7281, -1.5766 ], [ 29.7196, -1.5745 ], [ 29.704, -1.5602 ], [ 29.6902, -1.561 ], [ 29.6842, -1.558 ], [ 29.6795, -1.5626 ], [ 29.6786, -1.5725 ], [ 29.6735, -1.5746 ], [ 29.6766, -1.5804 ], [ 29.6687, -1.5793 ], [ 29.6743, -1.5929 ], [ 29.6671, -1.5925 ], [ 29.6672, -1.5988 ], [ 29.665, -1.5964 ], [ 29.6477, -1.5966 ], [ 29.6428, -1.5894 ], [ 29.6355, -1.5974 ], [ 29.6365, -1.6033 ], [ 29.6331, -1.6089 ], [ 29.636, -1.6321 ], [ 29.6332, -1.6491 ], [ 29.6384, -1.6583 ], [ 29.64, -1.6766 ], [ 29.637, -1.6947 ], [ 29.6325, -1.6986 ], [ 29.6356, -1.7194 ], [ 29.6401, -1.7246 ], [ 29.6492, -1.7269 ], [ 29.6538, -1.7349 ], [ 29.6681, -1.7312 ], [ 29.6947, -1.7336 ], [ 29.7011, -1.7377 ], [ 29.7034, -1.7473 ], [ 29.7174, -1.7555 ], [ 29.7285, -1.7482 ], [ 29.7479, -1.7507 ], [ 29.7443, -1.7646 ], [ 29.7503, -1.7745 ], [ 29.7563, -1.775 ], [ 29.7638, -1.7809 ], [ 29.7697, -1.7914 ], [ 29.7693, -1.8068 ], [ 29.7719, -1.8104 ], [ 29.7781, -1.8094 ], [ 29.799, -1.8297 ], [ 29.8008, -1.8387 ], [ 29.7973, -1.848 ], [ 29.805, -1.8522 ], [ 29.8175, -1.8529 ] ] ] } },
{ "type": "Feature", "properties": { "iso3": "RWA", "unit_id": "40016504B33443690829499", "unit_name": "Musanze" }, "geometry": { "type": "Polygon", "coordinates": [ [ [ 29.6385, -1.5923 ], [ 29.6428, -1.5894 ], [ 29.6477, -1.5966 ], [ 29.665, -1.5964 ], [ 29.6672, -1.5988 ], [ 29.6671, -1.5925 ], [ 29.6743, -1.5929 ], [ 29.6687, -1.5793 ], [ 29.6766, -1.5804 ], [ 29.6735, -1.5746 ], [ 29.6786, -1.5725 ], [ 29.6795, -1.5626 ], [ 29.6842, -1.558 ], [ 29.6902, -1.561 ], [ 29.704, -1.5602 ], [ 29.7196, -1.5745 ], [ 29.7281, -1.5766 ], [ 29.7357, -1.5841 ], [ 29.75, -1.5854 ], [ 29.7536, -1.5822 ], [ 29.7519, -1.5659 ], [ 29.7566, -1.5619 ], [ 29.7652, -1.5368 ], [ 29.7591, -1.5032 ], [ 29.7471, -1.4818 ], [ 29.7362, -1.4895 ], [ 29.725, -1.4928 ], [ 29.723, -1.4843 ], [ 29.7178, -1.4825 ], [ 29.7111, -1.4718 ], [ 29.7031, -1.4678 ], [ 29.7021, -1.4628 ], [ 29.6961, -1.4577 ], [ 29.6856, -1.4617 ], [ 29.6796, -1.4567 ], [ 29.6745, -1.4578 ], [ 29.6715, -1.4463 ], [ 29.6603, -1.4504 ], [ 29.6562, -1.4253 ], [ 29.6602, -1.4007 ], [ 29.6574, -1.3901 ], [ 29.6469, -1.3866 ], [ 29.608, -1.3858 ], [ 29.5928, -1.3871 ], [ 29.587, -1.3925 ], [ 29.574, -1.3868 ], [ 29.5572, -1.3898 ], [ 29.539, -1.4057 ], [ 29.5292, -1.4108 ], [ 29.526, -1.4094 ], [ 29.5184, -1.4249 ], [ 29.5216, -1.4266 ], [ 29.5203, -1.4288 ], [ 29.5061, -1.434 ], [ 29.5045, -1.4404 ], [ 29.4962, -1.4427 ], [ 29.45, -1.506 ], [ 29.4839, -1.5492 ], [ 29.4992, -1.5637 ], [ 29.508, -1.5622 ], [ 29.5383, -1.5746 ], [ 29.5485, -1.5679 ], [ 29.5532, -1.5764 ], [ 29.5592, -1.5699 ], [ 29.5701, -1.5835 ], [ 29.5847, -1.589 ], [ 29.5856, -1.592 ], [ 29.596, -1.5934 ], [ 29.6078, -1.5877 ], [ 29.6182, -1.5884 ], [ 29.6245, -1.585 ], [ 29.6292, -1.5912 ], [ 29.6385, -1.5923 ] ] ] } },
{ "type": "Feature", "properties": { "iso3": "RWA", "unit_id": "40016504B83899745509114", "unit_name": "Burera" }, "geometry": { "type": "Polygon", "coordinates": [ [ [ 29.9361, -1.5976 ], [ 29.949, -1.5975 ], [ 29.9477, -1.5936 ], [ 29.9518, -1.5954 ], [ 29.9545, -1.5931 ], [ 29.9511, -1.5765 ], [ 29.9559, -1.5654 ], [ 29.9643, -1.5743 ], [ 29.9715, -1.5697 ], [ 29.9727, -1.5868 ], [ 29.9911, -1.569 ], [ 29.9976, -1.5689 ], [ 29.9898, -1.5565 ], [ 29.9741, -1.5437 ], [ 29.9726, -1.5378 ], [ 29.9707, -1.5362 ], [ 29.9698, -1.5408 ], [ 29.9664, -1.5398 ], [ 29.9615, -1.5277 ], [ 29.9668, -1.5257 ], [ 29.9694, -1.5182 ], [ 29.9828, -1.5213 ], [ 29.9955, -1.5096 ], [ 29.9934, -1.5008 ], [ 29.9807, -1.5015 ], [ 29.9759, -1.493 ], [ 29.9834, -1.4861 ], [ 29.9804, -1.4698 ], [ 29.9882, -1.4621 ], [ 29.9827, -1.4542 ], [ 29.9776, -1.4588 ], [ 29.9414, -1.4692 ], [ 29.9251, -1.4798 ], [ 29.9143, -1.482 ], [ 29.9027, -1.4608 ], [ 29.8937, -1.4516 ], [ 29.891, -1.4299 ], [ 29.8856, -1.4231 ], [ 29.8879, -1.4133 ], [ 29.8837, -1.4055 ], [ 29.8809, -1.3717 ], [ 29.8831, -1.3565 ], [ 29.871, -1.3556 ], [ 29.8615, -1.3604 ], [ 29.8494, -1.3382 ], [ 29.8412, -1.3333 ], [ 29.8423, -1.3203 ], [ 29.8295, -1.315 ], [ 29.8244, -1.3089 ], [ 29.8209, -1.3109 ], [ 29.8192, -1.3274 ], [ 29.8094, -1.3297 ], [ 29.7965, -1.3503 ], [ 29.7964, -1.3728 ], [ 29.7767, -1.3657 ], [ 29.7591, -1.3471 ], [ 29.7334, -1.3404 ], [ 29.7179, -1.3433 ], [ 29.7013, -1.3542 ], [ 29.6783, -1.3828 ], [ 29.6598, -1.3931 ], [ 29.6562, -1.4253 ], [ 29.6603, -1.4504 ], [ 29.6715, -1.4463 ], [ 29.6745, -1.4578 ], [ 29.6796, -1.4567 ], [ 29.6856, -1.4617 ], [ 29.6961, -1.4577 ], [ 29.7021, -1.4628 ], [ 29.7031, -1.4678 ], [ 29.7111, -1.4718 ], [ 29.7178, -1.4825 ], [ 29.723, -1.4843 ], [ 29.725, -1.4928 ], [ 29.7362, -1.4895 ], [ 29.7471, -1.4818 ], [ 29.7591, -1.5032 ], [ 29.7634, -1.5174 ], [ 29.7652, -1.5368 ], [ 29.7618, -1.5497 ], [ 29.7706, -1.5543 ], [ 29.7743, -1.56 ], [ 29.7795, -1.5591 ], [ 29.7818, -1.5659 ], [ 29.7866, -1.5691 ], [ 29.8047, -1.5638 ], [ 29.8129, -1.5665 ], [ 29.8227, -1.5614 ], [ 29.8375, -1.5596 ], [ 29.8404, -1.564 ], [ 29.8371, -1.5693 ], [ 29.8423, -1.5798 ], [ 29.8536, -1.5798 ], [ 29.8585, -1.6069 ], [ 29.8643, -1.6127 ], [ 29.8732, -1.6129 ], [ 29.8746, -1.6101 ], [ 29.8821, -1.6091 ], [ 29.8873, -1.6121 ], [ 29.893, -1.6082 ], [ 29.9053, -1.611 ], [ 29.9052, -1.595 ], [ 29.9009, -1.5896 ], [ 29.9095, -1.5898 ], [ 29.9171, -1.5958 ], [ 29.9222, -1.5917 ], [ 29.9361, -1.5976 ] ] ] } },
{ "type": "Feature", "properties": { "iso3": "RWA", "unit_id": "40016504B54347378537695", "unit_name": "Gicumbi" }, "geometry": { "type": "Polygon", "coordinates": [ [ [ 30.2478, -1.8457 ], [ 30.2561, -1.8416 ], [ 30.2603, -1.8287 ], [ 30.2756, -1.8305 ], [ 30.2713, -1.8173 ], [ 30.2751, -1.807 ], [ 30.2742, -1.7953 ], [ 30.2634, -1.7812 ], [ 30.2559, -1.763 ], [ 30.2548, -1.7379 ], [ 30.2522, -1.7277 ], [ 30.2471, -1.722 ], [ 30.2478, -1.7185 ], [ 30.263, -1.7085 ], [ 30.2424, -1.674 ], [ 30.2274, -1.6674 ], [ 30.224, -1.6508 ], [ 30.2166, -1.6502 ], [ 30.2082, -1.6276 ], [ 30.1941, -1.6256 ], [ 30.1895, -1.6131 ], [ 30.1707, -1.5839 ], [ 30.1625, -1.5429 ], [ 30.167, -1.5343 ], [ 30.1781, -1.531 ], [ 30.1813, -1.5188 ], [ 30.1565, -1.5194 ], [ 30.1445, -1.5293 ], [ 30.1399, -1.5269 ], [ 30.1384, -1.5166 ], [ 30.1455, -1.5141 ], [ 30.1422, -1.5027 ], [ 30.1338, -1.4947 ], [ 30.1366, -1.491 ], [ 30.1338, -1.4819 ], [ 30.126, -1.4794 ], [ 30.1258, -1.4718 ], [ 30.1152, -1.4482 ], [ 30.1081, -1.4438 ], [ 30.1067, -1.4369 ], [ 30.0993, -1.4349 ], [ 30.0984, -1.4256 ], [ 30.0954, -1.4262 ], [ 30.0926, -1.4204 ], [ 30.0936, -1.4129 ], [ 30.0827, -1.4135 ], [ 30.0828, -1.4031 ], [ 30.0756, -1.3924 ], [ 30.0514, -1.3981 ], [ 30.0559, -1.4213 ], [ 30.0529, -1.4311 ], [ 30.0242, -1.4151 ], [ 30.0133, -1.4201 ], [ 30.0087, -1.4285 ], [ 30.0032, -1.4311 ], [ 29.9967, -1.4464 ], [ 29.9827, -1.4542 ], [ 29.9882, -1.4621 ], [ 29.9804, -1.4698 ], [ 29.9834, -1.4861 ], [ 29.9759, -1.493 ], [ 29.9807, -1.5015 ], [ 29.9934, -1.5008 ], [ 29.9955, -1.5096 ], [ 29.9828, -1.5213 ], [ 29.9694, -1.5182 ], [ 29.9668, -1.5257 ], [ 29.9615, -1.5277 ], [ 29.9664, -1.5398 ], [ 29.9698, -1.5408 ], [ 29.9707, -1.5362 ], [ 29.9726, -1.5378 ], [ 29.9741, -1.5437 ], [ 29.9898, -1.5565 ], [ 29.9976, -1.5689 ], [ 29.9911, -1.569 ], [ 29.9727, -1.5868 ], [ 29.9715, -1.5697 ], [ 29.9643, -1.5743 ], [ 29.9559, -1.5654 ], [ 29.9511, -1.5765 ], [ 29.9545, -1.5931 ], [ 29.9518, -1.5954 ], [ 29.9477, -1.5936 ], [ 29.949, -1.5975 ], [ 29.944, -1.5957 ], [ 29.9505, -1.6042 ], [ 29.9578, -1.6073 ], [ 29.9583, -1.6147 ], [ 29.9666, -1.6205 ], [ 29.9673, -1.6288 ], [ 29.9746, -1.6392 ], [ 29.9786, -1.6391 ], [ 29.9826, -1.6323 ], [ 29.9939, -1.6413 ], [ 29.9999, -1.6615 ], [ 30.0073, -1.6518 ], [ 30.0181, -1.6541 ], [ 30.0131, -1.643 ], [ 30.014, -1.6312 ], [ 30.0105, -1.6226 ], [ 30.0349, -1.6019 ], [ 30.0412, -1.611 ], [ 30.0532, -1.6178 ], [ 30.0764, -1.651 ], [ 30.0605, -1.6589 ], [ 30.0619, -1.6611 ], [ 30.055, -1.668 ], [ 30.0634, -1.6872 ], [ 30.0665, -1.6881 ], [ 30.0834, -1.7149 ], [ 30.0759, -1.7329 ], [ 30.0862, -1.7514 ], [ 30.0844, -1.7565 ], [ 30.0938, -1.7678 ], [ 30.0992, -1.7727 ], [ 30.1133, -1.7753 ], [ 30.1189, -1.7712 ], [ 30.1265, -1.7721 ], [ 30.133, -1.7796 ], [ 30.1329, -1.7839 ], [ 30.1426, -1.7807 ], [ 30.1479, -1.7927 ], [ 30.1605, -1.7899 ], [ 30.1657, -1.7919 ], [ 30.1899, -1.8133 ], [ 30.2035, -1.8307 ], [ 30.2184, -1.8415 ], [ 30.2478, -1.8457 ] ] ] } },
{ "type": "Feature", "properties": { "iso3": "RWA", "unit_id": "40016504B39461455537028", "unit_name": "Rwamagana" }, "geometry": { "type": "Polygon", "coordinates": [ [ [ 30.2359, -1.9812 ], [ 30.23, -2.0121 ], [ 30.2287, -2.0433 ], [ 30.2206, -2.0607 ], [ 30.222, -2.0662 ], [ 30.2317, -2.0707 ], [ 30.2332, -2.0688 ], [ 30.237, -2.0713 ], [ 30.2383, -2.0687 ], [ 30.2416, -2.0751 ], [ 30.2449, -2.0737 ], [ 30.242, -2.0774 ], [ 30.2462, -2.087 ], [ 30.2446, -2.0904 ], [ 30.2497, -2.0909 ], [ 30.2462, -2.0949 ], [ 30.253, -2.1002 ], [ 30.2498, -2.102 ], [ 30.2528, -2.1079 ], [ 30.2607, -2.1063 ], [ 30.269, -2.1126 ], [ 30.2707, -2.1229 ], [ 30.2658, -2.1253 ], [ 30.2663, -2.1333 ], [ 30.2808, -2.131 ], [ 30.2835, -2.1233 ], [ 30.2973, -2.1188 ], [ 30.3683, -2.0784 ], [ 30.395, -2.0795 ], [ 30.4091, -2.0857 ], [ 30.4469, -2.0785 ], [ 30.4493, -2.0668 ], [ 30.4541, -2.06 ], [ 30.4662, -2.0555 ], [ 30.4778, -2.0587 ], [ 30.4841, -2.0489 ], [ 30.4859, -2.0218 ], [ 30.4837, -2.01 ], [ 30.4751, -1.9986 ], [ 30.4715, -1.9847 ], [ 30.4688, -1.9644 ], [ 30.4704, -1.9345 ], [ 30.4667, -1.9222 ], [ 30.4592, -1.9116 ], [ 30.4615, -1.9029 ], [ 30.459, -1.8934 ], [ 30.4614, -1.8858 ], [ 30.4784, -1.8904 ], [ 30.4826, -1.888 ], [ 30.4889, -1.8591 ], [ 30.4724, -1.8453 ], [ 30.4622, -1.841 ], [ 30.4504, -1.8405 ], [ 30.4198, -1.8464 ], [ 30.3845, -1.8668 ], [ 30.3667, -1.8694 ], [ 30.353, -1.876 ], [ 30.3202, -1.8584 ], [ 30.2943, -1.8248 ], [ 30.2864, -1.8241 ], [ 30.2711, -1.8316 ], [ 30.2603, -1.8287 ], [ 30.2561, -1.8416 ], [ 30.2478, -1.8457 ], [ 30.2476, -1.8574 ], [ 30.2652, -1.8649 ], [ 30.2582, -1.8757 ], [ 30.2581, -1.8944 ], [ 30.2729, -1.9001 ], [ 30.2707, -1.9084 ], [ 30.2772, -1.9342 ], [ 30.2652, -1.9534 ], [ 30.2541, -1.9514 ], [ 30.234, -1.9615 ], [ 30.2318, -1.9685 ], [ 30.2359, -1.9812 ] ] ] } },
{ "type": "Feature", "properties": { "iso3": "RWA", "unit_id": "40016504B20936494228759", "unit_name": "Nyagatare" }, "geometry": { "type": "Polygon", "coordinates": [ [ [ 30.1813, -1.5188 ], [ 30.1942, -1.5128 ], [ 30.1974, -1.5081 ], [ 30.1959, -1.5004 ], [ 30.1994, -1.4979 ], [ 30.2046, -1.4988 ], [ 30.2098, -1.4949 ], [ 30.2157, -1.4979 ], [ 30.2249, -1.4925 ], [ 30.2275, -1.4952 ], [ 30.2347, -1.4907 ], [ 30.2476, -1.4896 ], [ 30.2479, -1.4854 ], [ 30.2568, -1.4822 ], [ 30.267, -1.4857 ], [ 30.2746, -1.4962 ], [ 30.2727, -1.5134 ], [ 30.2973, -1.5284 ], [ 30.312, -1.5321 ], [ 30.316, -1.5319 ], [ 30.3269, -1.5084 ], [ 30.347, -1.4965 ], [ 30.3454, -1.5459 ], [ 30.3809, -1.5428 ], [ 30.3927, -1.5479 ], [ 30.4033, -1.5229 ], [ 30.4077, -1.5011 ], [ 30.405, -1.482 ], [ 30.4158, -1.4854 ], [ 30.4308, -1.4844 ], [ 30.4339, -1.4773 ], [ 30.4437, -1.4756 ], [ 30.4532, -1.4684 ], [ 30.4629, -1.4716 ], [ 30.472, -1.489 ], [ 30.5107, -1.4789 ], [ 30.5243, -1.4784 ], [ 30.5529, -1.4693 ], [ 30.7391, -1.4582 ], [ 30.7411, -1.4528 ], [ 30.7379, -1.4454 ], [ 30.7359, -1.4497 ], [ 30.6786, -1.3936 ], [ 30.6292, -1.3844 ], [ 30.6133, -1.35 ], [ 30.5688, -1.3371 ], [ 30.567, -1.326 ], [ 30.5546, -1.3061 ], [ 30.5587, -1.2922 ], [ 30.5623, -1.2892 ], [ 30.5569, -1.2747 ], [ 30.5524, -1.2721 ], [ 30.5521, -1.2529 ], [ 30.5241, -1.2128 ], [ 30.5221, -1.2004 ], [ 30.5146, -1.1927 ], [ 30.5094, -1.1717 ], [ 30.5011, -1.164 ], [ 30.4914, -1.1601 ], [ 30.4776, -1.1613 ], [ 30.4707, -1.1575 ], [ 30.4677, -1.1398 ], [ 30.4701, -1.1293 ], [ 30.4765, -1.1221 ], [ 30.4727, -1.1188 ], [ 30.4591, -1.1177 ], [ 30.4532, -1.1037 ], [ 30.4512, -1.0889 ], [ 30.4527, -1.0816 ], [ 30.4731, -1.0568 ], [ 30.4704, -1.0525 ], [ 30.4671, -1.0552 ], [ 30.4675, -1.0522 ], [ 30.4604, -1.0529 ], [ 30.4479, -1.0472 ], [ 30.4446, -1.0503 ], [ 30.4393, -1.0483 ], [ 30.4286, -1.0643 ], [ 30.4029, -1.0609 ], [ 30.3916, -1.0684 ], [ 30.3769, -1.0609 ], [ 30.3721, -1.0657 ], [ 30.374, -1.0697 ], [ 30.3695, -1.0645 ], [ 30.3658, -1.0668 ], [ 30.3618, -1.0648 ], [ 30.359, -1.0603 ], [ 30.3545, -1.0644 ], [ 30.3521, -1.0622 ], [ 30.3523, -1.0689 ], [ 30.3485, -1.0722 ], [ 30.3509, -1.0762 ], [ 30.3487, -1.0868 ], [ 30.3407, -1.0925 ], [ 30.3385, -1.1006 ], [ 30.3446, -1.1315 ], [ 30.3348, -1.1313 ], [ 30.3072, -1.1448 ], [ 30.2976, -1.1585 ], [ 30.2923, -1.1893 ], [ 30.2782, -1.1981 ], [ 30.2756, -1.2097 ], [ 30.2537, -1.2202 ], [ 30.2431, -1.2411 ], [ 30.2129, -1.2698 ], [ 30.2108, -1.2761 ], [ 30.2052, -1.2729 ], [ 30.1981, -1.274 ], [ 30.1981, -1.2808 ], [ 30.1914, -1.2819 ], [ 30.1877, -1.2711 ], [ 30.1713, -1.273 ], [ 30.1751, -1.3017 ], [ 30.1658, -1.3068 ], [ 30.1657, -1.3133 ], [ 30.1616, -1.3181 ], [ 30.1644, -1.3272 ], [ 30.1624, -1.335 ], [ 30.1701, -1.3452 ], [ 30.1527, -1.3512 ], [ 30.1445, -1.351 ], [ 30.1389, -1.3559 ], [ 30.1376, -1.3616 ], [ 30.1293, -1.3629 ], [ 30.1234, -1.3844 ], [ 30.1183, -1.3849 ], [ 30.1127, -1.3769 ], [ 30.1037, -1.372 ], [ 30.0981, -1.3762 ], [ 30.0823, -1.3729 ], [ 30.0704, -1.3812 ], [ 30.0707, -1.3919 ], [ 30.0756, -1.3924 ], [ 30.0828, -1.4031 ], [ 30.0827, -1.4135 ], [ 30.0936, -1.4129 ], [ 30.0926, -1.4204 ], [ 30.0954, -1.4262 ], [ 30.0984, -1.4256 ], [ 30.0993, -1.4349 ], [ 30.1067, -1.4369 ], [ 30.1081, -1.4438 ], [ 30.1152, -1.4482 ], [ 30.1258, -1.4718 ], [ 30.126, -1.4794 ], [ 30.1338, -1.4819 ], [ 30.1366, -1.491 ], [ 30.1338, -1.4947 ], [ 30.1422, -1.5027 ], [ 30.1455, -1.5141 ], [ 30.1384, -1.5166 ], [ 30.1399, -1.5269 ], [ 30.1445, -1.5293 ], [ 30.1565, -1.5194 ], [ 30.1813, -1.5188 ] ] ] } },
{ "type": "Feature", "properties": { "iso3": "RWA", "unit_id": "40016504B59623636822814", "unit_name": "Gatsibo" }, "geometry": { "type": "Polygon", "coordinates": [ [ [ 30.2756, -1.8305 ], [ 30.2864, -1.8241 ], [ 30.2943, -1.8248 ], [ 30.3202, -1.8584 ], [ 30.353, -1.876 ], [ 30.3667, -1.8694 ], [ 30.3845, -1.8668 ], [ 30.4198, -1.8464 ], [ 30.4286, -1.8292 ], [ 30.446, -1.8097 ], [ 30.4492, -1.8002 ], [ 30.4492, -1.7755 ], [ 30.4591, -1.7665 ], [ 30.4599, -1.7451 ], [ 30.4434, -1.7273 ], [ 30.4448, -1.7097 ], [ 30.4657, -1.6739 ], [ 30.4785, -1.6708 ], [ 30.4886, -1.6738 ], [ 30.4966, -1.6666 ], [ 30.5261, -1.6643 ], [ 30.5299, -1.662 ], [ 30.5278, -1.6571 ], [ 30.5192, -1.6541 ], [ 30.5159, -1.6436 ], [ 30.6382, -1.5997 ], [ 30.8392, -1.6508 ], [ 30.746, -1.5221 ], [ 30.7391, -1.4582 ], [ 30.5529, -1.4693 ], [ 30.5243, -1.4784 ], [ 30.5107, -1.4789 ], [ 30.472, -1.489 ], [ 30.4629, -1.4716 ], [ 30.4532, -1.4684 ], [ 30.4437, -1.4756 ], [ 30.4339, -1.4773 ], [ 30.4308, -1.4844 ], [ 30.4158, -1.4854 ], [ 30.405, -1.482 ], [ 30.4077, -1.5011 ], [ 30.4033, -1.5229 ], [ 30.3927, -1.5479 ], [ 30.3809, -1.5428 ], [ 30.3454, -1.5459 ], [ 30.347, -1.4965 ], [ 30.3269, -1.5084 ], [ 30.316, -1.5319 ], [ 30.312, -1.5321 ], [ 30.2973, -1.5284 ], [ 30.2727, -1.5134 ], [ 30.2746, -1.4962 ], [ 30.267, -1.4857 ], [ 30.2568, -1.4822 ], [ 30.2479, -1.4854 ], [ 30.2476, -1.4896 ], [ 30.2347, -1.4907 ], [ 30.2275, -1.4952 ], [ 30.2205, -1.4931 ], [ 30.2157, -1.4979 ], [ 30.2098, -1.4949 ], [ 30.1959, -1.5004 ], [ 30.1974, -1.5081 ], [ 30.1942, -1.5128 ], [ 30.1813, -1.5188 ], [ 30.1781, -1.531 ], [ 30.1642, -1.5373 ], [ 30.1632, -1.556 ], [ 30.1698, -1.5693 ], [ 30.1707, -1.5839 ], [ 30.1895, -1.6131 ], [ 30.1941, -1.6256 ], [ 30.2082, -1.6276 ], [ 30.2166, -1.6502 ], [ 30.224, -1.6508 ], [ 30.2274, -1.6674 ], [ 30.2424, -1.674 ], [ 30.263, -1.7085 ], [ 30.2478, -1.7185 ], [ 30.2471, -1.722 ], [ 30.2522, -1.7277 ], [ 30.2548, -1.7379 ], [ 30.2559, -1.763 ], [ 30.2634, -1.7812 ], [ 30.2742, -1.7953 ], [ 30.2751, -1.807 ], [ 30.2713, -1.8173 ], [ 30.2756, -1.8305 ] ] ] } },
{ "type": "Feature", "properties": { "iso3": "RWA", "unit_id": "40016504B59526217959597", "unit_name": "Kayonza" }, "geometry": { "type": "Polygon", "coordinates": [ [ [ 30.483, -2.0536 ], [ 30.5025, -2.0455 ], [ 30.524, -2.0629 ], [ 30.529, -2.0637 ], [ 30.5407, -2.0545 ], [ 30.55, -2.0534 ], [ 30.5585, -2.0555 ], [ 30.5618, -2.0641 ], [ 30.5791, -2.0612 ], [ 30.5811, -2.0662 ], [ 30.575, -2.0819 ], [ 30.5761, -2.0922 ], [ 30.587, -2.0918 ], [ 30.6008, -2.0963 ], [ 30.6066, -2.1015 ], [ 30.6092, -2.0984 ], [ 30.6117, -2.1005 ], [ 30.6092, -2.1142 ], [ 30.6198, -2.1139 ], [ 30.6284, -2.125 ], [ 30.6748, -2.1128 ], [ 30.6839, -2.0883 ], [ 30.6937, -2.0824 ], [ 30.6915, -2.0908 ], [ 30.6962, -2.0919 ], [ 30.7073, -2.0862 ], [ 30.7091, -2.0577 ], [ 30.724, -2.0474 ], [ 30.7253, -2.0509 ], [ 30.7331, -2.051 ], [ 30.7443, -2.0574 ], [ 30.7628, -2.0528 ], [ 30.7684, -2.0377 ], [ 30.7871, -2.023 ], [ 30.8043, -2.0019 ], [ 30.8053, -1.9894 ], [ 30.8229, -1.9792 ], [ 30.8278, -1.9715 ], [ 30.8079, -1.9377 ], [ 30.831, -1.8114 ], [ 30.8215, -1.6932 ], [ 30.8392, -1.6508 ], [ 30.6382, -1.5997 ], [ 30.5159, -1.6436 ], [ 30.5192, -1.6541 ], [ 30.5278, -1.6571 ], [ 30.5299, -1.662 ], [ 30.5261, -1.6643 ], [ 30.4966, -1.6666 ], [ 30.4886, -1.6738 ], [ 30.4785, -1.6708 ], [ 30.4657, -1.6739 ], [ 30.4448, -1.7097 ], [ 30.4434, -1.7273 ], [ 30.4599, -1.7451 ], [ 30.4591, -1.7665 ], [ 30.4492, -1.7755 ], [ 30.4492, -1.8002 ], [ 30.446, -1.8097 ], [ 30.4286, -1.8292 ], [ 30.4198, -1.8464 ], [ 30.4504, -1.8405 ], [ 30.4622, -1.841 ], [ 30.4724, -1.8453 ], [ 30.4889, -1.8591 ], [ 30.4826, -1.888 ], [ 30.4784, -1.8904 ], [ 30.4614, -1.8858 ], [ 30.459, -1.8934 ], [ 30.4615, -1.9029 ], [ 30.4592, -1.9116 ], [ 30.4667, -1.9222 ], [ 30.4704, -1.9345 ], [ 30.4688, -1.9644 ], [ 30.4715, -1.9847 ], [ 30.4751, -1.9986 ], [ 30.4837, -2.01 ], [ 30.4859, -2.0218 ], [ 30.483, -2.0536 ] ] ] } },
{ "type": "Feature", "properties": { "iso3": "RWA", "unit_id": "40016504B76659668739767", "unit_name": "Kirehe" }, "geometry": { "type": "Polygon", "coordinates": [ [ [ 30.6561, -2.1159 ], [ 30.6567, -2.1409 ], [ 30.6541, -2.1443 ], [ 30.64, -2.1483 ], [ 30.6528, -2.1553 ], [ 30.6603, -2.167 ], [ 30.6447, -2.1867 ], [ 30.6369, -2.1917 ], [ 30.628, -2.1823 ], [ 30.6228, -2.1873 ], [ 30.6189, -2.1869 ], [ 30.616, -2.1992 ], [ 30.6035, -2.2021 ], [ 30.6013, -2.2075 ], [ 30.5835, -2.2095 ], [ 30.5815, -2.2198 ], [ 30.571, -2.2345 ], [ 30.5817, -2.2325 ], [ 30.5853, -2.2368 ], [ 30.5879, -2.2507 ], [ 30.577, -2.2624 ], [ 30.5608, -2.2665 ], [ 30.5465, -2.286 ], [ 30.5125, -2.2998 ], [ 30.5076, -2.2993 ], [ 30.4966, -2.2885 ], [ 30.491, -2.2872 ], [ 30.4851, -2.2949 ], [ 30.4848, -2.3086 ], [ 30.4664, -2.3128 ], [ 30.4596, -2.3204 ], [ 30.4626, -2.325 ], [ 30.4583, -2.3334 ], [ 30.4578, -2.3441 ], [ 30.4695, -2.3519 ], [ 30.4707, -2.3669 ], [ 30.4777, -2.3691 ], [ 30.4859, -2.3672 ], [ 30.4895, -2.3775 ], [ 30.4946, -2.3784 ], [ 30.508, -2.3904 ], [ 30.5106, -2.4019 ], [ 30.5203, -2.4058 ], [ 30.5338, -2.4059 ], [ 30.5423, -2.414 ], [ 30.5501, -2.4122 ], [ 30.5689, -2.4203 ], [ 30.5784, -2.4182 ], [ 30.5918, -2.4062 ], [ 30.6075, -2.4004 ], [ 30.6136, -2.4041 ], [ 30.6233, -2.4013 ], [ 30.6404, -2.4051 ], [ 30.6442, -2.4109 ], [ 30.6589, -2.4138 ], [ 30.6889, -2.3843 ], [ 30.6911, -2.3704 ], [ 30.6951, -2.365 ], [ 30.716, -2.3568 ], [ 30.7315, -2.3644 ], [ 30.742, -2.3777 ], [ 30.7623, -2.383 ], [ 30.7654, -2.3917 ], [ 30.7817, -2.3913 ], [ 30.7806, -2.3857 ], [ 30.7837, -2.3799 ], [ 30.7916, -2.3774 ], [ 30.7965, -2.3676 ], [ 30.8189, -2.3645 ], [ 30.8267, -2.3568 ], [ 30.8359, -2.3444 ], [ 30.8387, -2.3293 ], [ 30.8492, -2.3245 ], [ 30.8571, -2.314 ], [ 30.8511, -2.3122 ], [ 30.8531, -2.2743 ], [ 30.8459, -2.2589 ], [ 30.8423, -2.2402 ], [ 30.8426, -2.2272 ], [ 30.8464, -2.2245 ], [ 30.8442, -2.2058 ], [ 30.8496, -2.2002 ], [ 30.8523, -2.1873 ], [ 30.8599, -2.18 ], [ 30.859, -2.169 ], [ 30.8661, -2.1441 ], [ 30.8765, -2.1352 ], [ 30.8742, -2.1201 ], [ 30.8863, -2.1034 ], [ 30.8868, -2.0938 ], [ 30.8939, -2.0919 ], [ 30.8997, -2.078 ], [ 30.8982, -2.0701 ], [ 30.8847, -2.0529 ], [ 30.8774, -2.0497 ], [ 30.8765, -2.0374 ], [ 30.8639, -2.032 ], [ 30.8278, -1.9715 ], [ 30.8229, -1.9792 ], [ 30.8053, -1.9894 ], [ 30.8043, -2.0019 ], [ 30.7871, -2.023 ], [ 30.7684, -2.0377 ], [ 30.7628, -2.0528 ], [ 30.7443, -2.0574 ], [ 30.7331, -2.051 ], [ 30.7253, -2.0509 ], [ 30.724, -2.0474 ], [ 30.7182, -2.0506 ], [ 30.7091, -2.0577 ], [ 30.7073, -2.0862 ], [ 30.6962, -2.0919 ], [ 30.6915, -2.0908 ], [ 30.6937, -2.0824 ], [ 30.6884, -2.0852 ], [ 30.6801, -2.0932 ], [ 30.6748, -2.1128 ], [ 30.6638, -2.1138 ], [ 30.6607, -2.1175 ], [ 30.6561, -2.1159 ] ] ] } },
{ "type": "Feature", "properties": { "iso3": "RWA", "unit_id": "40016504B32282386804441", "unit_name": "Ngoma" }, "geometry": { "type": "Polygon", "coordinates": [ [ [ 30.2703, -2.1326 ], [ 30.2664, -2.138 ], [ 30.2696, -2.1378 ], [ 30.2663, -2.1454 ], [ 30.2706, -2.1453 ], [ 30.274, -2.1496 ], [ 30.2596, -2.1736 ], [ 30.2698, -2.179 ], [ 30.2663, -2.189 ], [ 30.2743, -2.1936 ], [ 30.2718, -2.1953 ], [ 30.276, -2.1955 ], [ 30.2793, -2.2094 ], [ 30.2935, -2.203 ], [ 30.2942, -2.2067 ], [ 30.2964, -2.2035 ], [ 30.297, -2.207 ], [ 30.2987, -2.2041 ], [ 30.3047, -2.2074 ], [ 30.3076, -2.2036 ], [ 30.31, -2.2067 ], [ 30.3125, -2.2027 ], [ 30.3142, -2.2055 ], [ 30.3178, -2.2045 ], [ 30.3221, -2.1981 ], [ 30.3259, -2.1995 ], [ 30.3273, -2.2027 ], [ 30.3219, -2.2086 ], [ 30.3339, -2.2173 ], [ 30.3336, -2.232 ], [ 30.3358, -2.2387 ], [ 30.3384, -2.2379 ], [ 30.3401, -2.2468 ], [ 30.3345, -2.2491 ], [ 30.3373, -2.267 ], [ 30.3349, -2.27 ], [ 30.3331, -2.2685 ], [ 30.3346, -2.2719 ], [ 30.3291, -2.274 ], [ 30.3281, -2.2883 ], [ 30.3433, -2.3002 ], [ 30.3443, -2.3074 ], [ 30.3536, -2.3114 ], [ 30.3594, -2.325 ], [ 30.3582, -2.3397 ], [ 30.3665, -2.3499 ], [ 30.3742, -2.3477 ], [ 30.3809, -2.3265 ], [ 30.3932, -2.3135 ], [ 30.4089, -2.3108 ], [ 30.4213, -2.3268 ], [ 30.4258, -2.3257 ], [ 30.4372, -2.3303 ], [ 30.4497, -2.3195 ], [ 30.4596, -2.3204 ], [ 30.4664, -2.3128 ], [ 30.4848, -2.3086 ], [ 30.4851, -2.2949 ], [ 30.491, -2.2872 ], [ 30.4966, -2.2885 ], [ 30.5076, -2.2993 ], [ 30.5125, -2.2998 ], [ 30.5465, -2.286 ], [ 30.5608, -2.2665 ], [ 30.5744, -2.2641 ], [ 30.5879, -2.2507 ], [ 30.5853, -2.2368 ], [ 30.5817, -2.2325 ], [ 30.571, -2.2345 ], [ 30.5815, -2.2198 ], [ 30.5835, -2.2095 ], [ 30.6013, -2.2075 ], [ 30.6035, -2.2021 ], [ 30.616, -2.1992 ], [ 30.6189, -2.1869 ], [ 30.6228, -2.1873 ], [ 30.628, -2.1823 ], [ 30.6369, -2.1917 ], [ 30.6447, -2.1867 ], [ 30.661, -2.1657 ], [ 30.6528, -2.1553 ], [ 30.64, -2.1483 ], [ 30.6541, -2.1443 ], [ 30.6567, -2.1409 ], [ 30.6557, -2.119 ], [ 30.6284, -2.125 ], [ 30.6198, -2.1139 ], [ 30.6092, -2.1142 ], [ 30.6117, -2.1005 ], [ 30.6092, -2.0984 ], [ 30.6066, -2.1015 ], [ 30.6008, -2.0963 ], [ 30.587, -2.0918 ], [ 30.5761, -2.0922 ], [ 30.575, -2.0819 ], [ 30.5811, -2.0662 ], [ 30.5791, -2.0612 ], [ 30.5618, -2.0641 ], [ 30.5585, -2.0555 ], [ 30.55, -2.0534 ], [ 30.5407, -2.0545 ], [ 30.529, -2.0637 ], [ 30.524, -2.0629 ], [ 30.5025, -2.0455 ], [ 30.483, -2.0536 ], [ 30.4778, -2.0587 ], [ 30.4662, -2.0555 ], [ 30.4541, -2.06 ], [ 30.4493, -2.0668 ], [ 30.4469, -2.0785 ], [ 30.4354, -2.0827 ], [ 30.4091, -2.0857 ], [ 30.395, -2.0795 ], [ 30.3683, -2.0784 ], [ 30.2973, -2.1188 ], [ 30.2835, -2.1233 ], [ 30.2808, -2.131 ], [ 30.2703, -2.1326 ] ] ] } },
{ "type": "Feature", "properties": { "iso3": "RWA", "unit_id": "40016504B23104663506581", "unit_name": "Bugesera" }, "geometry": { "type": "Polygon", "coordinates": [ [ [ 30.0193, -2.0742 ], [ 30.0149, -2.0935 ], [ 30.0176, -2.0982 ], [ 30.0156, -2.1039 ], [ 30.0208, -2.1118 ], [ 30.0181, -2.1182 ], [ 30.0113, -2.1218 ], [ 30.0097, -2.1315 ], [ 30.0033, -2.1391 ], [ 29.9938, -2.1456 ], [ 29.9887, -2.1441 ], [ 29.9861, -2.1465 ], [ 29.9833, -2.1555 ], [ 29.9817, -2.1713 ], [ 29.9864, -2.19 ], [ 29.9843, -2.1974 ], [ 29.9887, -2.202 ], [ 29.9907, -2.2156 ], [ 29.9838, -2.2301 ], [ 29.9845, -2.2433 ], [ 29.9793, -2.2483 ], [ 29.9792, -2.2559 ], [ 29.9733, -2.264 ], [ 29.9735, -2.2744 ], [ 29.9669, -2.2872 ], [ 29.9615, -2.2902 ], [ 29.9612, -2.304 ], [ 29.9662, -2.3176 ], [ 29.9596, -2.3272 ], [ 29.9976, -2.344 ], [ 30.0186, -2.3442 ], [ 30.0324, -2.3503 ], [ 30.0472, -2.3633 ], [ 30.063, -2.394 ], [ 30.0977, -2.4237 ], [ 30.1315, -2.4381 ], [ 30.1644, -2.427 ], [ 30.1842, -2.4291 ], [ 30.1969, -2.4097 ], [ 30.199, -2.3885 ], [ 30.2142, -2.3825 ], [ 30.2155, -2.3712 ], [ 30.2257, -2.3697 ], [ 30.2424, -2.36 ], [ 30.2548, -2.3739 ], [ 30.2776, -2.376 ], [ 30.3744, -2.356 ], [ 30.3742, -2.3477 ], [ 30.3665, -2.3499 ], [ 30.3628, -2.3426 ], [ 30.359, -2.3417 ], [ 30.3594, -2.325 ], [ 30.3536, -2.3114 ], [ 30.3443, -2.3074 ], [ 30.3433, -2.3002 ], [ 30.3281, -2.2883 ], [ 30.3291, -2.274 ], [ 30.3346, -2.2719 ], [ 30.3331, -2.2685 ], [ 30.3349, -2.27 ], [ 30.3373, -2.267 ], [ 30.3345, -2.2491 ], [ 30.3401, -2.2468 ], [ 30.3384, -2.2379 ], [ 30.3358, -2.2387 ], [ 30.3336, -2.232 ], [ 30.3339, -2.2173 ], [ 30.3219, -2.2086 ], [ 30.3273, -2.2027 ], [ 30.3259, -2.1995 ], [ 30.3221, -2.1981 ], [ 30.3178, -2.2045 ], [ 30.3142, -2.2055 ], [ 30.3125, -2.2027 ], [ 30.31, -2.2067 ], [ 30.3076, -2.2036 ], [ 30.3047, -2.2074 ], [ 30.2987, -2.2041 ], [ 30.297, -2.207 ], [ 30.2964, -2.2035 ], [ 30.2942, -2.2067 ], [ 30.2935, -2.203 ], [ 30.2793, -2.2094 ], [ 30.276, -2.1955 ], [ 30.2718, -2.1953 ], [ 30.2743, -2.1936 ], [ 30.2663, -2.189 ], [ 30.2698, -2.179 ], [ 30.2596, -2.1736 ], [ 30.274, -2.1496 ], [ 30.2706, -2.1453 ], [ 30.2663, -2.1454 ], [ 30.2696, -2.1378 ], [ 30.2664, -2.138 ], [ 30.2703, -2.1326 ], [ 30.2663, -2.1333 ], [ 30.2679, -2.1278 ], [ 30.2652, -2.1269 ], [ 30.2701, -2.1249 ], [ 30.2675, -2.1226 ], [ 30.2707, -2.1229 ], [ 30.269, -2.1126 ], [ 30.2607, -2.1063 ], [ 30.2528, -2.1079 ], [ 30.2498, -2.102 ], [ 30.253, -2.1002 ], [ 30.2462, -2.0949 ], [ 30.2497, -2.0909 ], [ 30.2446, -2.0904 ], [ 30.2462, -2.087 ], [ 30.242, -2.0774 ], [ 30.2449, -2.0737 ], [ 30.2416, -2.0751 ], [ 30.2383, -2.0687 ], [ 30.237, -2.0713 ], [ 30.2332, -2.0688 ], [ 30.2317, -2.0707 ], [ 30.222, -2.0662 ], [ 30.2218, -2.0724 ], [ 30.2109, -2.0756 ], [ 30.2081, -2.0797 ], [ 30.2047, -2.0735 ], [ 30.2068, -2.068 ], [ 30.2039, -2.0679 ], [ 30.2048, -2.0653 ], [ 30.2009, -2.0665 ], [ 30.1991, -2.057 ], [ 30.1951, -2.0618 ], [ 30.1927, -2.0605 ], [ 30.1908, -2.0557 ], [ 30.1938, -2.0536 ], [ 30.1897, -2.0426 ], [ 30.181, -2.0336 ], [ 30.1754, -2.0352 ], [ 30.1726, -2.0282 ], [ 30.1719, -2.0313 ], [ 30.1667, -2.0301 ], [ 30.1656, -2.0339 ], [ 30.1624, -2.0295 ], [ 30.1616, -2.032 ], [ 30.158, -2.0308 ], [ 30.1575, -2.0356 ], [ 30.1527, -2.0344 ], [ 30.1472, -2.0409 ], [ 30.1372, -2.0395 ], [ 30.1382, -2.0433 ], [ 30.1347, -2.043 ], [ 30.1371, -2.0461 ], [ 30.1347, -2.0476 ], [ 30.1329, -2.0439 ], [ 30.1279, -2.0528 ], [ 30.1236, -2.0496 ], [ 30.1257, -2.0554 ], [ 30.1198, -2.0563 ], [ 30.1193, -2.0596 ], [ 30.1182, -2.0547 ], [ 30.1137, -2.0603 ], [ 30.1101, -2.0563 ], [ 30.1042, -2.06 ], [ 30.1017, -2.0559 ], [ 30.0962, -2.0645 ], [ 30.095, -2.0611 ], [ 30.0913, -2.064 ], [ 30.0908, -2.0594 ], [ 30.0816, -2.0648 ], [ 30.0791, -2.0624 ], [ 30.0769, -2.0693 ], [ 30.0758, -2.0647 ], [ 30.0726, -2.0643 ], [ 30.0714, -2.0685 ], [ 30.0646, -2.0711 ], [ 30.0623, -2.0667 ], [ 30.0545, -2.0645 ], [ 30.058, -2.0558 ], [ 30.0467, -2.0547 ], [ 30.0452, -2.0596 ], [ 30.0385, -2.0592 ], [ 30.0399, -2.0619 ], [ 30.0366, -2.0656 ], [ 30.0403, -2.0657 ], [ 30.0394, -2.0689 ], [ 30.0272, -2.0639 ], [ 30.0278, -2.0695 ], [ 30.0245, -2.0682 ], [ 30.0193, -2.0742 ] ] ] } }
]
}
