{
"type": "FeatureCollection",
"name": "SOM",
"crs": { "type": "name", "properties": { "name": "urn:ogc:def:crs:OGC:1.3:CRS84" } },
"xy_coordinate_resolution": 0.0001,
"features": [
{ "type": "Feature", "properties": { "iso3": "SOM", "unit_id": "28964504B93281006610468", "unit_name": "Borama" }, "geometry": { "type": "Polygon", "coordinates": [ [ [ 43.3709, 9.801 ], [ 43.3309, 9.841 ], [ 43.3509, 10.0509 ], [ 43.3909, 10.4109 ], [ 43.3709, 10.5309 ], [ 43.2209, 10.5009 ], [ 42.8609, 10.3509 ], [ 42.8175, 10.3183 ], [ 42.8326, 10.2779 ], [ 42.8653, 10.2242 ], [ 42.9786, 10.1171 ], [ 43.0106, 10.0914 ], [ 43.0174, 10.0808 ], [ 43.0895, 9.9045 ], [ 43.1153, 9.8888 ], [ 43.1288, 9.8863 ], [ 43.1381, 9.8863 ], [ 43.1445, 9.8926 ], [ 43.1453, 9.8989 ], [ 43.1499, 9.8994 ], [ 43.2569, 9.8426 ], [ 43.2691, 9.7874 ], [ 43.27, 9.7685 ], [ 43.2896, 9.6572 ], [ 43.3709, 9.801 ] ] ] } },
{ "type": "Feature", "properties": { "iso3": "SOM", "unit_id": "28964504B51525057828714", "unit_name": "Baki" }, "geometry": { "type": "Polygon", "coordinates": [ [ [ 43.3709, 9.801 ], [ 43.5309, 9.9909 ], [ 43.721, 10.2609 ], [ 43.7609, 10.3009 ], [ 43.8209, 10.2909 ], [ 44.041, 10.1709 ], [ 44.151, 10.3209 ], [ 44.2366, 10.4731 ], [ 44.2017, 10.5077 ], [ 44.1404, 10.5527 ], [ 44.1175, 10.558 ], [ 44.0961, 10.5719 ], [ 44.0724, 10.5979 ], [ 43.4609, 10.3809 ], [ 43.3909, 10.4109 ], [ 43.3509, 10.0509 ], [ 43.3309, 9.841 ], [ 43.3709, 9.801 ] ] ] } },
{ "type": "Feature", "properties": { "iso3": "SOM", "unit_id": "28964504B64347292078880", "unit_name": "Lughaye" }, "geometry": { "type": "Polygon", "coordinates": [ [ [ 43.3909, 10.4109 ], [ 43.4609, 10.3809 ], [ 44.0724, 10.5979 ], [ 44.0644, 10.6087 ], [ 43.995, 10.6621 ], [ 43.9567, 10.6813 ], [ 43.8571, 10.7674 ], [ 43.7891, 10.8354 ], [ 43.6978, 10.9352 ], [ 43.1309, 10.6909 ], [ 43.2209, 10.5009 ], [ 43.3709, 10.5309 ], [ 43.3909, 10.4109 ] ] ] } },
{ "type": "Feature", "properties": { "iso3": "SOM", "unit_id": "28964504B76794328974516", "unit_name": "Zeylac" }, "geometry": { "type": "MultiPolygon", "coordinates": [ [ [ [ 43.4552, 11.4209 ], [ 43.468, 11.4274 ], [ 43.472, 11.4332 ], [ 43.4727, 11.4461 ], [ 43.4691, 11.4481 ], [ 43.4587, 11.4456 ], [ 43.4506, 11.4319 ], [ 43.4547, 11.428 ], [ 43.4552, 11.4209 ] ] ], [ [ [ 43.2209, 10.5009 ], [ 43.1309, 10.6909 ], [ 43.6978, 10.9352 ], [ 43.6745, 10.9646 ], [ 43.6257, 11.0449 ], [ 43.5986, 11.0823 ], [ 43.565, 11.1471 ], [ 43.556, 11.1789 ], [ 43.528, 11.1884 ], [ 43.5248, 11.1867 ], [ 43.5277, 11.1838 ], [ 43.54, 11.1783 ], [ 43.529, 11.1776 ], [ 43.5214, 11.183 ], [ 43.518, 11.19 ], [ 43.4961, 11.2436 ], [ 43.4934, 11.2902 ], [ 43.4866, 11.3032 ], [ 43.4795, 11.329 ], [ 43.4837, 11.3493 ], [ 43.4921, 11.3599 ], [ 43.5045, 11.3675 ], [ 43.5033, 11.3707 ], [ 43.4984, 11.3713 ], [ 43.4781, 11.3577 ], [ 43.4596, 11.3513 ], [ 43.4318, 11.3675 ], [ 43.4276, 11.3789 ], [ 43.41, 11.3834 ], [ 43.391, 11.3798 ], [ 43.3543, 11.4137 ], [ 43.3436, 11.433 ], [ 43.3344, 11.4254 ], [ 43.3312, 11.4263 ], [ 43.3076, 11.4793 ], [ 43.3023, 11.4852 ], [ 43.2905, 11.4904 ], [ 43.2845, 11.4869 ], [ 43.3001, 11.4808 ], [ 43.3062, 11.4694 ], [ 43.3059, 11.4623 ], [ 43.3017, 11.4615 ], [ 43.2875, 11.4708 ], [ 43.266, 11.4682 ], [ 43.2612, 11.462 ], [ 42.9615, 10.9842 ], [ 42.9313, 10.948 ], [ 42.91, 10.9137 ], [ 42.8642, 10.8543 ], [ 42.8557, 10.8382 ], [ 42.8409, 10.8229 ], [ 42.7665, 10.722 ], [ 42.7226, 10.6512 ], [ 42.693, 10.6252 ], [ 42.683, 10.6063 ], [ 42.6832, 10.5925 ], [ 42.6984, 10.5462 ], [ 42.7169, 10.5304 ], [ 42.7394, 10.5212 ], [ 42.7467, 10.5122 ], [ 42.7631, 10.4567 ], [ 42.7918, 10.4041 ], [ 42.8048, 10.3519 ], [ 42.8175, 10.3183 ], [ 42.8609, 10.3509 ], [ 43.2209, 10.5009 ] ] ], [ [ [ 43.335, 11.4476 ], [ 43.36, 11.4642 ], [ 43.3675, 11.4929 ], [ 43.3638, 11.4955 ], [ 43.3563, 11.4668 ], [ 43.335, 11.4476 ] ] ], [ [ [ 43.4514, 11.4912 ], [ 43.4664, 11.509 ], [ 43.4647, 11.5115 ], [ 43.4521, 11.5004 ], [ 43.4514, 11.4912 ] ] ] ] } },
{ "type": "Feature", "properties": { "iso3": "SOM", "unit_id": "28964504B24471023198676", "unit_name": "Hargeysa" }, "geometry": { "type": "Polygon", "coordinates": [ [ [ 44.041, 10.1709 ], [ 44.101, 10.1309 ], [ 43.931, 9.861 ], [ 43.5709, 9.391 ], [ 43.5554, 9.3755 ], [ 43.6015, 9.359 ], [ 43.6467, 9.3583 ], [ 43.6568, 9.35 ], [ 43.8719, 9.1302 ], [ 43.8973, 9.1004 ], [ 44.0059, 8.9966 ], [ 44.1796, 8.9383 ], [ 44.5201, 8.8305 ], [ 44.5568, 8.8157 ], [ 44.691, 8.7718 ], [ 44.691, 9.311 ], [ 44.831, 9.861 ], [ 44.8977, 9.9411 ], [ 44.731, 9.9509 ], [ 44.231, 10.2809 ], [ 44.151, 10.3209 ], [ 44.041, 10.1709 ] ] ] } },
{ "type": "Feature", "properties": { "iso3": "SOM", "unit_id": "28964504B49931807650520", "unit_name": "Berbera" }, "geometry": { "type": "Polygon", "coordinates": [ [ [ 44.151, 10.3209 ], [ 44.231, 10.2809 ], [ 44.731, 9.9509 ], [ 44.8977, 9.9411 ], [ 45.101, 10.1709 ], [ 45.9075, 10.0997 ], [ 46.011, 10.0809 ], [ 46.0314, 10.7731 ], [ 45.9746, 10.7812 ], [ 45.912, 10.8215 ], [ 45.8786, 10.8358 ], [ 45.8655, 10.8356 ], [ 45.8649, 10.8322 ], [ 45.8828, 10.8184 ], [ 45.8838, 10.811 ], [ 45.8734, 10.8173 ], [ 45.8658, 10.8172 ], [ 45.8594, 10.8252 ], [ 45.8545, 10.8394 ], [ 45.8405, 10.8454 ], [ 45.8074, 10.8675 ], [ 45.8019, 10.8631 ], [ 45.7738, 10.8574 ], [ 45.7556, 10.8303 ], [ 45.7155, 10.8171 ], [ 45.6711, 10.7869 ], [ 45.6181, 10.7654 ], [ 45.5972, 10.7649 ], [ 45.572, 10.7262 ], [ 45.5648, 10.7208 ], [ 45.5329, 10.7084 ], [ 45.5144, 10.6914 ], [ 45.4907, 10.6883 ], [ 45.4801, 10.6838 ], [ 45.4668, 10.667 ], [ 45.4606, 10.6639 ], [ 45.406, 10.6604 ], [ 45.339, 10.6631 ], [ 45.3245, 10.6601 ], [ 45.2698, 10.6025 ], [ 45.2564, 10.5837 ], [ 45.2333, 10.562 ], [ 45.1631, 10.5326 ], [ 45.1447, 10.5209 ], [ 45.0824, 10.5061 ], [ 45.0646, 10.4861 ], [ 45.0479, 10.475 ], [ 44.9856, 10.4508 ], [ 44.9831, 10.4432 ], [ 44.9926, 10.4486 ], [ 45.0042, 10.4486 ], [ 45.0018, 10.4386 ], [ 44.9956, 10.4335 ], [ 44.9435, 10.4108 ], [ 44.8816, 10.4052 ], [ 44.8434, 10.4103 ], [ 44.8212, 10.4185 ], [ 44.8085, 10.4166 ], [ 44.8017, 10.4197 ], [ 44.7832, 10.4155 ], [ 44.762, 10.417 ], [ 44.7522, 10.421 ], [ 44.7258, 10.4175 ], [ 44.7164, 10.4112 ], [ 44.6587, 10.4015 ], [ 44.6383, 10.3882 ], [ 44.6156, 10.3821 ], [ 44.5945, 10.3833 ], [ 44.5646, 10.3796 ], [ 44.4816, 10.399 ], [ 44.4476, 10.401 ], [ 44.4104, 10.3918 ], [ 44.3666, 10.4013 ], [ 44.2882, 10.4314 ], [ 44.2366, 10.4731 ], [ 44.151, 10.3209 ] ] ] } },
{ "type": "Feature", "properties": { "iso3": "SOM", "unit_id": "28964504B72497664723273", "unit_name": "Gebiley" }, "geometry": { "type": "Polygon", "coordinates": [ [ [ 43.2896, 9.6572 ], [ 43.2992, 9.6111 ], [ 43.3406, 9.6003 ], [ 43.3607, 9.5862 ], [ 43.3752, 9.5691 ], [ 43.4049, 9.5458 ], [ 43.4137, 9.5127 ], [ 43.4322, 9.4708 ], [ 43.4455, 9.4449 ], [ 43.4683, 9.4194 ], [ 43.4914, 9.4015 ], [ 43.5349, 9.3811 ], [ 43.5554, 9.3755 ], [ 43.5709, 9.391 ], [ 43.931, 9.861 ], [ 44.101, 10.1309 ], [ 44.041, 10.1709 ], [ 43.8209, 10.2909 ], [ 43.7609, 10.3009 ], [ 43.721, 10.2609 ], [ 43.5309, 9.9909 ], [ 43.3709, 9.801 ], [ 43.2896, 9.6572 ] ] ] } },
{ "type": "Feature", "properties": { "iso3": "SOM", "unit_id": "28964504B13106826395137", "unit_name": "Burco" }, "geometry": { "type": "Polygon", "coordinates": [ [ [ 45.9075, 10.0997 ], [ 45.831, 10.0309 ], [ 45.801, 9.9209 ], [ 45.851, 9.781 ], [ 45.281, 9.871 ], [ 45.281, 9.411 ], [ 45.291, 8.5712 ], [ 45.6116, 8.4678 ], [ 45.9269, 8.3601 ], [ 46.0885, 8.3081 ], [ 46.0991, 8.3073 ], [ 46.1934, 8.2719 ], [ 46.251, 8.2552 ], [ 46.191, 8.821 ], [ 46.221, 9.001 ], [ 46.0494, 10.0504 ], [ 46.011, 10.0809 ], [ 45.9075, 10.0997 ] ] ] } },
{ "type": "Feature", "properties": { "iso3": "SOM", "unit_id": "28964504B67520969159523", "unit_name": "Buuhoodle" }, "geometry": { "type": "Polygon", "coordinates": [ [ [ 46.251, 8.2552 ], [ 46.5791, 8.1461 ], [ 46.6155, 8.1313 ], [ 46.9186, 8.0288 ], [ 46.9897, 8.0031 ], [ 46.9897, 8.0 ], [ 47.0126, 8.0 ], [ 47.101, 8.5611 ], [ 47.001, 8.751 ], [ 46.921, 8.761 ], [ 46.921, 8.7826 ], [ 46.191, 8.821 ], [ 46.251, 8.2552 ] ] ] } },
{ "type": "Feature", "properties": { "iso3": "SOM", "unit_id": "28964504B48054957999880", "unit_name": "Owdweyne" }, "geometry": { "type": "Polygon", "coordinates": [ [ [ 44.691, 8.7718 ], [ 44.8049, 8.7329 ], [ 44.8308, 8.7199 ], [ 44.8669, 8.7107 ], [ 45.291, 8.5712 ], [ 45.281, 9.411 ], [ 45.281, 9.871 ], [ 44.8977, 9.9411 ], [ 44.831, 9.861 ], [ 44.691, 9.311 ], [ 44.691, 8.7718 ] ] ] } },
{ "type": "Feature", "properties": { "iso3": "SOM", "unit_id": "28964504B21029937537664", "unit_name": "Sheikh" }, "geometry": { "type": "Polygon", "coordinates": [ [ [ 44.8977, 9.9411 ], [ 45.281, 9.871 ], [ 45.851, 9.781 ], [ 45.801, 9.9209 ], [ 45.831, 10.0309 ], [ 45.9075, 10.0997 ], [ 45.101, 10.1709 ], [ 44.8977, 9.9411 ] ] ] } },
{ "type": "Feature", "properties": { "iso3": "SOM", "unit_id": "28964504B86553152298159", "unit_name": "Laas Caanood" }, "geometry": { "type": "Polygon", "coordinates": [ [ [ 47.0126, 8.0 ], [ 47.9199, 8.0 ], [ 48.131, 8.2111 ], [ 48.051, 8.2411 ], [ 48.561, 8.781 ], [ 48.041, 8.781 ], [ 46.9206, 8.8433 ], [ 46.921, 8.761 ], [ 47.001, 8.751 ], [ 47.101, 8.5611 ], [ 47.0126, 8.0 ] ] ] } },
{ "type": "Feature", "properties": { "iso3": "SOM", "unit_id": "28964504B67493389064435", "unit_name": "Caynabo" }, "geometry": { "type": "Polygon", "coordinates": [ [ [ 46.191, 8.821 ], [ 46.921, 8.7826 ], [ 46.911, 9.431 ], [ 46.841, 9.421 ], [ 46.0494, 10.0504 ], [ 46.221, 9.001 ], [ 46.191, 8.821 ] ] ] } },
{ "type": "Feature", "properties": { "iso3": "SOM", "unit_id": "28964504B1531418988797", "unit_name": "Taleex" }, "geometry": { "type": "Polygon", "coordinates": [ [ [ 48.041, 8.781 ], [ 48.731, 8.781 ], [ 49.0811, 9.1405 ], [ 49.0611, 9.571 ], [ 48.5795, 9.5421 ], [ 48.0795, 9.5025 ], [ 48.041, 8.781 ] ] ] } },
{ "type": "Feature", "properties": { "iso3": "SOM", "unit_id": "28964504B701923571926", "unit_name": "Xudun" }, "geometry": { "type": "Polygon", "coordinates": [ [ [ 48.041, 8.781 ], [ 48.0795, 9.5025 ], [ 46.911, 9.431 ], [ 46.9206, 8.8433 ], [ 48.041, 8.781 ] ] ] } },
{ "type": "Feature", "properties": { "iso3": "SOM", "unit_id": "28964504B52307983727411", "unit_name": "Ceerigaabo" }, "geometry": { "type": "Polygon", "coordinates": [ [ [ 48.5795, 9.5421 ], [ 48.611, 10.5209 ], [ 48.581, 10.5309 ], [ 48.481, 10.6209 ], [ 48.431, 10.6509 ], [ 48.381, 10.7209 ], [ 47.981, 11.0408 ], [ 47.9101, 11.1206 ], [ 47.8812, 11.111 ], [ 47.8642, 11.1102 ], [ 47.8183, 11.1168 ], [ 47.8022, 11.122 ], [ 47.7641, 11.1119 ], [ 47.7205, 11.0947 ], [ 47.6844, 11.0891 ], [ 47.6665, 11.0936 ], [ 47.6265, 11.1177 ], [ 47.5769, 11.1505 ], [ 47.5488, 11.1747 ], [ 47.491, 11.1807 ], [ 47.474, 11.1774 ], [ 47.4609, 11.1791 ], [ 47.4456, 11.1728 ], [ 47.4221, 11.1754 ], [ 47.3923, 11.1683 ], [ 47.3782, 11.1585 ], [ 47.3341, 11.1451 ], [ 47.2761, 11.1184 ], [ 47.2563, 11.1144 ], [ 47.2388, 11.097 ], [ 47.2179, 11.0863 ], [ 47.1504, 11.0625 ], [ 47.146, 11.0588 ], [ 47.1422, 11.041 ], [ 47.1186, 11.0225 ], [ 47.1127, 11.0141 ], [ 47.1075, 10.9925 ], [ 47.0997, 10.9837 ], [ 47.083, 10.9757 ], [ 47.0628, 10.9728 ], [ 47.0503, 10.9635 ], [ 47.0173, 10.9607 ], [ 47.008, 10.9533 ], [ 46.9929, 10.9317 ], [ 46.9722, 10.9233 ], [ 46.9626, 10.9147 ], [ 46.9337, 10.9121 ], [ 46.9264, 10.8987 ], [ 46.9213, 10.8955 ], [ 46.9009, 10.8921 ], [ 46.8705, 10.8585 ], [ 46.8457, 10.8502 ], [ 46.8345, 10.8354 ], [ 46.8157, 10.8278 ], [ 46.8076, 10.8188 ], [ 46.7879, 10.8106 ], [ 46.801, 10.7909 ], [ 46.941, 10.6309 ], [ 47.011, 10.5609 ], [ 47.381, 10.1709 ], [ 47.361, 9.9109 ], [ 47.1009, 9.4428 ], [ 48.0795, 9.5025 ], [ 48.5795, 9.5421 ] ] ] } },
{ "type": "Feature", "properties": { "iso3": "SOM", "unit_id": "28964504B94444246465179", "unit_name": "Ceel Afweyn" }, "geometry": { "type": "Polygon", "coordinates": [ [ [ 46.011, 10.0809 ], [ 46.841, 9.421 ], [ 46.911, 9.431 ], [ 47.1009, 9.4428 ], [ 47.361, 9.9109 ], [ 47.381, 10.1709 ], [ 47.011, 10.5609 ], [ 46.941, 10.6309 ], [ 46.801, 10.7909 ], [ 46.7879, 10.8106 ], [ 46.7711, 10.7978 ], [ 46.7169, 10.7768 ], [ 46.7061, 10.7659 ], [ 46.6899, 10.7609 ], [ 46.6668, 10.745 ], [ 46.6102, 10.7272 ], [ 46.5884, 10.7275 ], [ 46.5188, 10.7104 ], [ 46.493, 10.6966 ], [ 46.4497, 10.6807 ], [ 46.398, 10.6815 ], [ 46.3824, 10.6873 ], [ 46.3447, 10.6897 ], [ 46.3205, 10.7106 ], [ 46.292, 10.747 ], [ 46.2362, 10.7804 ], [ 46.206, 10.7807 ], [ 46.0969, 10.7624 ], [ 46.048, 10.768 ], [ 46.0314, 10.7731 ], [ 46.011, 10.0809 ] ] ] } },
{ "type": "Feature", "properties": { "iso3": "SOM", "unit_id": "28964504B5603780042730", "unit_name": "Laasqoray" }, "geometry": { "type": "Polygon", "coordinates": [ [ [ 49.0611, 9.571 ], [ 49.0311, 10.7809 ], [ 48.9191, 11.2387 ], [ 48.8796, 11.2465 ], [ 48.8367, 11.2628 ], [ 48.7936, 11.2843 ], [ 48.7019, 11.3075 ], [ 48.6621, 11.3225 ], [ 48.646, 11.3216 ], [ 48.6041, 11.307 ], [ 48.575, 11.306 ], [ 48.53, 11.3097 ], [ 48.4742, 11.2826 ], [ 48.4621, 11.2803 ], [ 48.4041, 11.2808 ], [ 48.3931, 11.2791 ], [ 48.3862, 11.2724 ], [ 48.3601, 11.2698 ], [ 48.3464, 11.2599 ], [ 48.3172, 11.2301 ], [ 48.3007, 11.2192 ], [ 48.2881, 11.2134 ], [ 48.2416, 11.2045 ], [ 48.2346, 11.2008 ], [ 48.2235, 11.1867 ], [ 48.208, 11.1786 ], [ 48.1853, 11.1525 ], [ 48.1535, 11.1292 ], [ 48.1356, 11.125 ], [ 48.1223, 11.1279 ], [ 48.1077, 11.1239 ], [ 48.0927, 11.1287 ], [ 48.0737, 11.124 ], [ 48.0583, 11.1244 ], [ 48.0246, 11.115 ], [ 47.9869, 11.1164 ], [ 47.9718, 11.1124 ], [ 47.9405, 11.1171 ], [ 47.9256, 11.123 ], [ 47.9101, 11.1206 ], [ 47.981, 11.0408 ], [ 48.381, 10.7209 ], [ 48.431, 10.6509 ], [ 48.481, 10.6209 ], [ 48.581, 10.5309 ], [ 48.611, 10.5209 ], [ 48.5795, 9.5421 ], [ 49.0611, 9.571 ] ] ] } },
{ "type": "Feature", "properties": { "iso3": "SOM", "unit_id": "28964504B81670004475528", "unit_name": "Bossaso" }, "geometry": { "type": "Polygon", "coordinates": [ [ [ 49.0411, 10.3509 ], [ 49.1111, 10.4209 ], [ 49.1911, 10.5209 ], [ 49.3511, 10.5609 ], [ 49.4611, 10.5009 ], [ 49.5611, 10.5009 ], [ 49.6211, 10.5109 ], [ 49.9011, 10.8009 ], [ 49.9111, 10.9008 ], [ 49.7611, 11.1408 ], [ 49.7211, 11.1808 ], [ 49.5808, 11.4514 ], [ 49.5532, 11.4455 ], [ 49.5469, 11.4395 ], [ 49.5285, 11.4027 ], [ 49.5094, 11.3809 ], [ 49.4991, 11.3761 ], [ 49.4742, 11.3733 ], [ 49.4647, 11.3593 ], [ 49.4456, 11.354 ], [ 49.4437, 11.3478 ], [ 49.4353, 11.3397 ], [ 49.422, 11.3335 ], [ 49.3862, 11.3278 ], [ 49.3344, 11.3292 ], [ 49.2995, 11.3342 ], [ 49.2813, 11.3176 ], [ 49.2396, 11.2985 ], [ 49.1835, 11.2902 ], [ 49.1439, 11.2787 ], [ 49.0512, 11.2638 ], [ 49.0319, 11.2555 ], [ 49.0149, 11.2546 ], [ 48.9553, 11.2384 ], [ 48.9191, 11.2387 ], [ 49.0311, 10.7809 ], [ 49.0411, 10.3509 ] ] ] } },
{ "type": "Feature", "properties": { "iso3": "SOM", "unit_id": "28964504B18478472346734", "unit_name": "Bandarbeyla" }, "geometry": { "type": "Polygon", "coordinates": [ [ [ 50.1761, 8.3291 ], [ 50.1832, 8.3319 ], [ 50.1913, 8.3656 ], [ 50.2034, 8.386 ], [ 50.2239, 8.405 ], [ 50.2286, 8.4231 ], [ 50.2349, 8.4339 ], [ 50.2446, 8.4462 ], [ 50.276, 8.4737 ], [ 50.2816, 8.4833 ], [ 50.2917, 8.4895 ], [ 50.3248, 8.5342 ], [ 50.332, 8.5509 ], [ 50.3339, 8.5708 ], [ 50.3257, 8.5998 ], [ 50.3304, 8.6296 ], [ 50.3385, 8.6502 ], [ 50.3543, 8.6715 ], [ 50.3795, 8.6962 ], [ 50.3878, 8.7483 ], [ 50.4047, 8.7808 ], [ 50.4079, 8.826 ], [ 50.4174, 8.8531 ], [ 50.4227, 8.8563 ], [ 50.4399, 8.8803 ], [ 50.4457, 8.8968 ], [ 50.5025, 8.9494 ], [ 50.5748, 9.0072 ], [ 50.5864, 9.0276 ], [ 50.6038, 9.0432 ], [ 50.6214, 9.0514 ], [ 50.6409, 9.077 ], [ 50.6472, 9.0942 ], [ 50.6512, 9.119 ], [ 50.6504, 9.1332 ], [ 50.6451, 9.1466 ], [ 50.6457, 9.1725 ], [ 50.655, 9.2035 ], [ 50.6716, 9.2273 ], [ 50.6878, 9.2417 ], [ 50.7052, 9.268 ], [ 50.7196, 9.2806 ], [ 50.7382, 9.2876 ], [ 50.7456, 9.2944 ], [ 50.7635, 9.3182 ], [ 50.7722, 9.3352 ], [ 50.7907, 9.3556 ], [ 50.8101, 9.3846 ], [ 50.8271, 9.4176 ], [ 50.8466, 9.4657 ], [ 50.8381, 9.4787 ], [ 50.8161, 9.4891 ], [ 50.806, 9.5015 ], [ 50.8021, 9.5507 ], [ 50.7986, 9.5606 ], [ 50.8006, 9.5815 ], [ 50.807, 9.6171 ], [ 50.8175, 9.6361 ], [ 50.8239, 9.6574 ], [ 50.8207, 9.6673 ], [ 50.8284, 9.6801 ], [ 50.8349, 9.7348 ], [ 50.8322, 9.7477 ], [ 50.8514, 9.8546 ], [ 50.8682, 9.8761 ], [ 50.8778, 9.9209 ], [ 50.5111, 9.9109 ], [ 50.4011, 9.8809 ], [ 50.0911, 9.8109 ], [ 50.0811, 9.701 ], [ 50.0611, 9.281 ], [ 49.9211, 9.121 ], [ 49.8911, 9.031 ], [ 49.8911, 8.4011 ], [ 49.9311, 8.4611 ], [ 50.0511, 8.4411 ], [ 50.1761, 8.3291 ] ] ] } },
{ "type": "Feature", "properties": { "iso3": "SOM", "unit_id": "28964504B46470366116915", "unit_name": "Caluula" }, "geometry": { "type": "Polygon", "coordinates": [ [ [ 51.1244, 11.5015 ], [ 51.1497, 11.535 ], [ 51.1648, 11.5646 ], [ 51.1871, 11.5874 ], [ 51.2071, 11.6172 ], [ 51.2193, 11.6254 ], [ 51.2254, 11.6419 ], [ 51.2407, 11.6505 ], [ 51.2553, 11.6874 ], [ 51.2445, 11.7123 ], [ 51.2556, 11.7311 ], [ 51.2586, 11.7642 ], [ 51.2846, 11.8116 ], [ 51.2868, 11.8238 ], [ 51.2848, 11.8337 ], [ 51.2731, 11.8418 ], [ 51.2458, 11.8353 ], [ 51.2322, 11.8354 ], [ 51.215, 11.8433 ], [ 51.1689, 11.8556 ], [ 51.1403, 11.8739 ], [ 51.1001, 11.87 ], [ 51.0544, 11.8726 ], [ 50.9559, 11.9218 ], [ 50.9202, 11.9312 ], [ 50.9041, 11.9398 ], [ 50.8929, 11.9387 ], [ 50.8586, 11.9437 ], [ 50.8313, 11.9574 ], [ 50.7988, 11.9836 ], [ 50.7738, 11.9844 ], [ 50.763, 11.972 ], [ 50.7655, 11.9704 ], [ 50.7719, 11.9775 ], [ 50.7798, 11.9807 ], [ 50.7934, 11.9778 ], [ 50.7877, 11.9733 ], [ 50.7761, 11.9722 ], [ 50.766, 11.9649 ], [ 50.7265, 11.954 ], [ 50.6734, 11.9331 ], [ 50.6325, 11.9409 ], [ 50.6231, 11.9271 ], [ 50.6035, 11.9244 ], [ 50.5815, 11.9121 ], [ 50.5588, 11.892 ], [ 50.5393, 11.8601 ], [ 50.5218, 11.7997 ], [ 50.5225, 11.796 ], [ 50.5258, 11.7967 ], [ 50.5371, 11.8399 ], [ 50.5548, 11.8748 ], [ 50.5625, 11.8837 ], [ 50.5413, 11.8337 ], [ 50.5311, 11.7949 ], [ 50.5213, 11.7843 ], [ 50.4929, 11.7316 ], [ 50.4837, 11.7199 ], [ 50.4315, 11.6704 ], [ 50.3876, 11.6563 ], [ 50.3556, 11.6362 ], [ 50.3211, 11.4808 ], [ 50.3011, 11.4508 ], [ 50.4111, 11.4008 ], [ 50.6911, 11.4108 ], [ 51.1244, 11.5015 ] ] ] } },
{ "type": "Feature", "properties": { "iso3": "SOM", "unit_id": "28964504B15096736201955", "unit_name": "Iskushuban" }, "geometry": { "type": "Polygon", "coordinates": [ [ [ 49.5611, 10.5009 ], [ 49.7011, 10.0209 ], [ 50.0111, 9.8109 ], [ 50.0911, 9.8109 ], [ 50.4011, 9.8809 ], [ 50.5111, 9.9109 ], [ 50.8778, 9.9209 ], [ 50.8863, 9.9647 ], [ 50.8983, 9.992 ], [ 50.8946, 10.0102 ], [ 50.8959, 10.0249 ], [ 50.8877, 10.0527 ], [ 50.8821, 10.0957 ], [ 50.8939, 10.1349 ], [ 50.902, 10.1829 ], [ 50.894, 10.2565 ], [ 50.8992, 10.31 ], [ 51.0158, 10.3822 ], [ 51.047, 10.3958 ], [ 51.0663, 10.3969 ], [ 51.1616, 10.4177 ], [ 51.2121, 10.4236 ], [ 51.2448, 10.4217 ], [ 51.2624, 10.4131 ], [ 51.2683, 10.4027 ], [ 51.2638, 10.3846 ], [ 51.2654, 10.3796 ], [ 51.2849, 10.3695 ], [ 51.3362, 10.3756 ], [ 51.3482, 10.3673 ], [ 51.3603, 10.3688 ], [ 51.374, 10.362 ], [ 51.371, 10.3775 ], [ 51.3729, 10.3816 ], [ 51.3897, 10.3897 ], [ 51.3961, 10.4104 ], [ 51.4017, 10.4149 ], [ 51.413, 10.4397 ], [ 51.4124, 10.4434 ], [ 51.398, 10.4517 ], [ 51.388, 10.4748 ], [ 51.3745, 10.4797 ], [ 51.3513, 10.4801 ], [ 51.3294, 10.4708 ], [ 51.3185, 10.4707 ], [ 51.2999, 10.4756 ], [ 51.2729, 10.4916 ], [ 51.2596, 10.4947 ], [ 51.2367, 10.5066 ], [ 51.2185, 10.5235 ], [ 51.1992, 10.5312 ], [ 51.1921, 10.5381 ], [ 51.1815, 10.5589 ], [ 51.1776, 10.5605 ], [ 51.1755, 10.5571 ], [ 51.1828, 10.5416 ], [ 51.1971, 10.5266 ], [ 51.1987, 10.5202 ], [ 51.2005, 10.5091 ], [ 51.1922, 10.4857 ], [ 51.1938, 10.4788 ], [ 51.2121, 10.4626 ], [ 51.222, 10.4479 ], [ 51.2239, 10.4534 ], [ 51.2273, 10.452 ], [ 51.2284, 10.4451 ], [ 51.2356, 10.436 ], [ 51.2337, 10.4322 ], [ 51.1833, 10.4334 ], [ 51.1201, 10.4301 ], [ 51.0873, 10.4213 ], [ 51.0636, 10.4187 ], [ 51.0427, 10.4044 ], [ 51.0297, 10.407 ], [ 51.0218, 10.4049 ], [ 51.019, 10.4077 ], [ 51.0172, 10.4197 ], [ 51.0193, 10.4217 ], [ 51.0295, 10.4152 ], [ 51.0298, 10.4384 ], [ 51.0259, 10.4421 ], [ 51.0322, 10.4527 ], [ 51.0399, 10.4568 ], [ 51.0845, 10.4616 ], [ 51.1016, 10.4821 ], [ 51.1106, 10.5051 ], [ 51.1102, 10.5124 ], [ 51.1049, 10.5184 ], [ 51.1074, 10.523 ], [ 51.1047, 10.5315 ], [ 51.1103, 10.5366 ], [ 51.1029, 10.5446 ], [ 51.1053, 10.5499 ], [ 51.1239, 10.5597 ], [ 51.1604, 10.5638 ], [ 51.1658, 10.5663 ], [ 51.1693, 10.5737 ], [ 51.151, 10.6142 ], [ 51.1454, 10.6593 ], [ 51.1422, 10.666 ], [ 51.1313, 10.6729 ], [ 51.1274, 10.7228 ], [ 51.1299, 10.7541 ], [ 51.1166, 10.9399 ], [ 51.1242, 11.0053 ], [ 51.1323, 11.0388 ], [ 51.158, 11.0957 ], [ 51.1602, 11.1065 ], [ 51.1785, 11.1314 ], [ 51.1804, 11.1388 ], [ 51.1769, 11.1471 ], [ 51.17, 11.1494 ], [ 51.1579, 11.1465 ], [ 51.1483, 11.1511 ], [ 51.1111, 11.156 ], [ 51.1002, 11.1641 ], [ 51.0864, 11.1869 ], [ 51.0758, 11.2198 ], [ 51.074, 11.2624 ], [ 51.0809, 11.2833 ], [ 51.0779, 11.2962 ], [ 51.0799, 11.3175 ], [ 51.084, 11.3389 ], [ 51.1062, 11.3914 ], [ 51.1128, 11.4003 ], [ 51.1119, 11.4051 ], [ 51.1206, 11.4285 ], [ 51.1255, 11.4582 ], [ 51.1198, 11.4917 ], [ 51.1244, 11.5015 ], [ 50.6911, 11.4108 ], [ 50.4111, 11.4008 ], [ 50.3411, 11.1608 ], [ 50.5511, 10.8308 ], [ 50.4611, 10.6609 ], [ 49.5611, 10.5009 ] ] ] } },
{ "type": "Feature", "properties": { "iso3": "SOM", "unit_id": "28964504B1684001955092", "unit_name": "Qandala" }, "geometry": { "type": "Polygon", "coordinates": [ [ [ 49.6211, 10.5109 ], [ 50.4611, 10.6609 ], [ 50.5511, 10.8308 ], [ 50.3411, 11.1608 ], [ 50.4111, 11.4008 ], [ 50.3011, 11.4508 ], [ 50.3211, 11.4808 ], [ 50.3556, 11.6362 ], [ 50.2893, 11.6063 ], [ 50.2699, 11.5843 ], [ 50.2346, 11.5747 ], [ 50.2157, 11.5617 ], [ 50.1935, 11.5606 ], [ 50.184, 11.556 ], [ 50.1672, 11.554 ], [ 50.1473, 11.5455 ], [ 50.1375, 11.537 ], [ 50.1221, 11.5375 ], [ 50.1119, 11.5247 ], [ 50.0785, 11.5068 ], [ 50.03, 11.501 ], [ 49.9799, 11.5018 ], [ 49.9549, 11.5092 ], [ 49.9395, 11.5094 ], [ 49.9272, 11.5046 ], [ 49.9241, 11.4979 ], [ 49.94, 11.4887 ], [ 49.9395, 11.4807 ], [ 49.9171, 11.4986 ], [ 49.9118, 11.4989 ], [ 49.8614, 11.4682 ], [ 49.8241, 11.4574 ], [ 49.7427, 11.458 ], [ 49.7243, 11.4628 ], [ 49.6922, 11.4773 ], [ 49.6558, 11.459 ], [ 49.6287, 11.4537 ], [ 49.5808, 11.4514 ], [ 49.7211, 11.1808 ], [ 49.7611, 11.1408 ], [ 49.9111, 10.9008 ], [ 49.9011, 10.8009 ], [ 49.6211, 10.5109 ] ] ] } },
{ "type": "Feature", "properties": { "iso3": "SOM", "unit_id": "28964504B75202934517402", "unit_name": "Qardho" }, "geometry": { "type": "Polygon", "coordinates": [ [ [ 49.0811, 9.1405 ], [ 49.1111, 8.901 ], [ 49.1811, 8.771 ], [ 49.3001, 8.6854 ], [ 49.4511, 8.5911 ], [ 49.6811, 8.5811 ], [ 49.7811, 8.5311 ], [ 49.8411, 8.3311 ], [ 49.8911, 8.4011 ], [ 49.8911, 9.031 ], [ 49.9211, 9.121 ], [ 50.0611, 9.281 ], [ 50.0811, 9.701 ], [ 50.0911, 9.8109 ], [ 50.0111, 9.8109 ], [ 49.7011, 10.0209 ], [ 49.5611, 10.5009 ], [ 49.4611, 10.5009 ], [ 49.3511, 10.5609 ], [ 49.1911, 10.5209 ], [ 49.1111, 10.4209 ], [ 49.0411, 10.3509 ], [ 49.0611, 9.571 ], [ 49.0811, 9.1405 ] ] ] } },
{ "type": "Feature", "properties": { "iso3": "SOM", "unit_id": "28964504B46236152751189", "unit_name": "Garoowe" }, "geometry": { "type": "Polygon", "coordinates": [ [ [ 48.131, 8.2111 ], [ 49.191, 8.0211 ], [ 49.2111, 8.1011 ], [ 49.1811, 8.4111 ], [ 49.3001, 8.6854 ], [ 49.1811, 8.771 ], [ 49.1111, 8.901 ], [ 49.0811, 9.1405 ], [ 48.731, 8.781 ], [ 48.561, 8.781 ], [ 48.051, 8.2411 ], [ 48.131, 8.2111 ] ] ] } },
{ "type": "Feature", "properties": { "iso3": "SOM", "unit_id": "28964504B32015952157426", "unit_name": "Burtinle" }, "geometry": { "type": "Polygon", "coordinates": [ [ [ 47.9199, 8.0 ], [ 47.9862, 8.0 ], [ 47.5592, 7.5619 ], [ 48.501, 7.4112 ], [ 49.031, 7.7111 ], [ 49.0515, 7.7099 ], [ 49.191, 8.0211 ], [ 48.131, 8.2111 ], [ 47.9199, 8.0 ] ] ] } },
{ "type": "Feature", "properties": { "iso3": "SOM", "unit_id": "28964504B69332481250729", "unit_name": "Eyl" }, "geometry": { "type": "Polygon", "coordinates": [ [ [ 49.9311, 8.4611 ], [ 49.8411, 8.3311 ], [ 49.7811, 8.5311 ], [ 49.6811, 8.5811 ], [ 49.4511, 8.5911 ], [ 49.3001, 8.6854 ], [ 49.1811, 8.4111 ], [ 49.2111, 8.1011 ], [ 49.191, 8.0211 ], [ 49.0515, 7.7099 ], [ 49.191, 7.7011 ], [ 49.4411, 7.5811 ], [ 49.5011, 7.5711 ], [ 49.6506, 7.3992 ], [ 49.6983, 7.4757 ], [ 49.7594, 7.5956 ], [ 49.7667, 7.617 ], [ 49.7728, 7.6535 ], [ 49.7803, 7.6701 ], [ 49.7968, 7.6883 ], [ 49.8311, 7.7385 ], [ 49.8255, 7.7472 ], [ 49.8363, 7.7651 ], [ 49.83, 7.7724 ], [ 49.8389, 7.7874 ], [ 49.8189, 7.7926 ], [ 49.8175, 7.8061 ], [ 49.8096, 7.8183 ], [ 49.8162, 7.8816 ], [ 49.8219, 7.9078 ], [ 49.8273, 7.9219 ], [ 49.85, 7.9536 ], [ 49.8398, 7.964 ], [ 49.8502, 7.9577 ], [ 49.8603, 7.9599 ], [ 49.8921, 8.0 ], [ 49.9844, 8.0958 ], [ 50.0181, 8.1166 ], [ 50.0621, 8.1365 ], [ 50.1292, 8.1985 ], [ 50.1376, 8.2361 ], [ 50.1462, 8.2565 ], [ 50.1471, 8.2836 ], [ 50.1536, 8.2928 ], [ 50.1569, 8.31 ], [ 50.1622, 8.3198 ], [ 50.1761, 8.3291 ], [ 50.0511, 8.4411 ], [ 49.9311, 8.4611 ] ] ] } },
{ "type": "Feature", "properties": { "iso3": "SOM", "unit_id": "28964504B19764862234244", "unit_name": "Gaalkacyo" }, "geometry": { "type": "Polygon", "coordinates": [ [ [ 47.5592, 7.5619 ], [ 47.3623, 7.3599 ], [ 47.531, 7.1912 ], [ 47.111, 6.7312 ], [ 46.8986, 6.8841 ], [ 46.5415, 6.5177 ], [ 47.601, 6.2813 ], [ 47.691, 6.6112 ], [ 47.891, 6.7712 ], [ 48.491, 6.7412 ], [ 48.5315, 7.4284 ], [ 48.501, 7.4112 ], [ 47.5592, 7.5619 ] ] ] } },
{ "type": "Feature", "properties": { "iso3": "SOM", "unit_id": "28964504B3099471876542", "unit_name": "Galdogob" }, "geometry": { "type": "Polygon", "coordinates": [ [ [ 47.3623, 7.3599 ], [ 46.8986, 6.8841 ], [ 47.111, 6.7312 ], [ 47.531, 7.1912 ], [ 47.3623, 7.3599 ] ] ] } },
{ "type": "Feature", "properties": { "iso3": "SOM", "unit_id": "28964504B54405348425445", "unit_name": "Hobyo" }, "geometry": { "type": "Polygon", "coordinates": [ [ [ 47.601, 6.2813 ], [ 47.3517, 5.7529 ], [ 47.471, 5.5713 ], [ 47.608, 5.1995 ], [ 47.641, 5.2014 ], [ 48.221, 5.0414 ], [ 48.2956, 5.0289 ], [ 48.3627, 5.1178 ], [ 48.3739, 5.1278 ], [ 48.4326, 5.2098 ], [ 48.5343, 5.3343 ], [ 48.5372, 5.3497 ], [ 48.5718, 5.3881 ], [ 48.6514, 5.4927 ], [ 48.7259, 5.6238 ], [ 48.8289, 5.78 ], [ 48.9044, 5.9039 ], [ 48.9477, 5.9848 ], [ 48.9655, 6.0088 ], [ 48.9871, 6.0478 ], [ 49.0618, 6.213 ], [ 49.0837, 6.2825 ], [ 49.085, 6.2989 ], [ 49.0792, 6.3227 ], [ 49.0852, 6.3913 ], [ 49.09, 6.4115 ], [ 49.1133, 6.4873 ], [ 49.1442, 6.5511 ], [ 49.1464, 6.5663 ], [ 49.1641, 6.6011 ], [ 48.671, 6.6312 ], [ 48.491, 6.7412 ], [ 47.891, 6.7712 ], [ 47.691, 6.6112 ], [ 47.601, 6.2813 ] ] ] } },
{ "type": "Feature", "properties": { "iso3": "SOM", "unit_id": "28964504B92890106151171", "unit_name": "Jariiban" }, "geometry": { "type": "Polygon", "coordinates": [ [ [ 48.5315, 7.4284 ], [ 48.491, 6.7412 ], [ 48.671, 6.6312 ], [ 49.1641, 6.6011 ], [ 49.2071, 6.7035 ], [ 49.2111, 6.7336 ], [ 49.2278, 6.7574 ], [ 49.2455, 6.791 ], [ 49.257, 6.8042 ], [ 49.2595, 6.8131 ], [ 49.3073, 6.8943 ], [ 49.3123, 6.9078 ], [ 49.3197, 6.915 ], [ 49.3249, 6.9288 ], [ 49.3612, 6.9802 ], [ 49.3974, 7.0495 ], [ 49.4263, 7.0813 ], [ 49.4754, 7.1599 ], [ 49.6039, 7.33 ], [ 49.6506, 7.3992 ], [ 49.5011, 7.5711 ], [ 49.4411, 7.5811 ], [ 49.191, 7.7011 ], [ 49.031, 7.7111 ], [ 48.5315, 7.4284 ] ] ] } },
{ "type": "Feature", "properties": { "iso3": "SOM", "unit_id": "28964504B33676291081525", "unit_name": "Xarardheere" }, "geometry": { "type": "Polygon", "coordinates": [ [ [ 47.608, 5.1995 ], [ 47.611, 5.1914 ], [ 47.501, 4.4914 ], [ 47.8348, 4.3329 ], [ 47.8743, 4.3773 ], [ 47.9394, 4.4389 ], [ 47.9685, 4.4757 ], [ 48.0078, 4.5371 ], [ 48.0386, 4.5987 ], [ 48.0863, 4.6673 ], [ 48.1646, 4.8105 ], [ 48.1715, 4.8312 ], [ 48.1974, 4.8836 ], [ 48.2956, 5.0289 ], [ 48.221, 5.0414 ], [ 47.641, 5.2014 ], [ 47.608, 5.1995 ] ] ] } },
{ "type": "Feature", "properties": { "iso3": "SOM", "unit_id": "28964504B11080899914561", "unit_name": "Dhuusamarreeb" }, "geometry": { "type": "Polygon", "coordinates": [ [ [ 47.3517, 5.7529 ], [ 46.711, 5.8613 ], [ 46.671, 5.9313 ], [ 46.451, 5.9013 ], [ 46.271, 5.6913 ], [ 45.6728, 5.1877 ], [ 45.711, 5.1114 ], [ 46.041, 5.0314 ], [ 46.231, 5.0814 ], [ 46.2298, 5.0733 ], [ 46.491, 5.1414 ], [ 47.111, 5.1714 ], [ 47.608, 5.1995 ], [ 47.471, 5.5713 ], [ 47.3517, 5.7529 ] ] ] } },
{ "type": "Feature", "properties": { "iso3": "SOM", "unit_id": "28964504B39783229115752", "unit_name": "Cabudwaaq" }, "geometry": { "type": "Polygon", "coordinates": [ [ [ 46.671, 5.9313 ], [ 46.5242, 6.5 ], [ 45.5362, 5.4862 ], [ 45.6728, 5.1877 ], [ 46.271, 5.6913 ], [ 46.451, 5.9013 ], [ 46.671, 5.9313 ] ] ] } },
{ "type": "Feature", "properties": { "iso3": "SOM", "unit_id": "28964504B33183423266647", "unit_name": "Cadaado" }, "geometry": { "type": "Polygon", "coordinates": [ [ [ 46.5415, 6.5177 ], [ 46.5242, 6.5 ], [ 46.671, 5.9313 ], [ 46.711, 5.8613 ], [ 47.3517, 5.7529 ], [ 47.601, 6.2813 ], [ 46.5415, 6.5177 ] ] ] } },
{ "type": "Feature", "properties": { "iso3": "SOM", "unit_id": "28964504B25845021070452", "unit_name": "Ceel Buur" }, "geometry": { "type": "Polygon", "coordinates": [ [ [ 47.608, 5.1995 ], [ 47.111, 5.1714 ], [ 46.491, 5.1414 ], [ 46.2298, 5.0733 ], [ 46.211, 4.9414 ], [ 46.111, 4.7414 ], [ 46.151, 4.4314 ], [ 46.3968, 4.2348 ], [ 46.711, 4.3314 ], [ 47.5016, 4.4953 ], [ 47.611, 5.1914 ], [ 47.608, 5.1995 ] ] ] } },
{ "type": "Feature", "properties": { "iso3": "SOM", "unit_id": "28964504B63536168645853", "unit_name": "Ceel Dheer" }, "geometry": { "type": "Polygon", "coordinates": [ [ [ 47.5016, 4.4953 ], [ 46.711, 4.3314 ], [ 46.3968, 4.2348 ], [ 46.401, 4.2315 ], [ 46.391, 3.8915 ], [ 47.038, 3.4723 ], [ 47.0722, 3.503 ], [ 47.1384, 3.5743 ], [ 47.2158, 3.6687 ], [ 47.2483, 3.6984 ], [ 47.2874, 3.7415 ], [ 47.378, 3.8268 ], [ 47.4285, 3.8695 ], [ 47.624, 4.0961 ], [ 47.6595, 4.1329 ], [ 47.6757, 4.1454 ], [ 47.6907, 4.1681 ], [ 47.715, 4.1936 ], [ 47.751, 4.226 ], [ 47.8348, 4.3329 ], [ 47.501, 4.4914 ], [ 47.5016, 4.4953 ] ] ] } },
{ "type": "Feature", "properties": { "iso3": "SOM", "unit_id": "28964504B93785306678185", "unit_name": "Belet Weyne" }, "geometry": { "type": "Polygon", "coordinates": [ [ [ 45.6728, 5.1877 ], [ 45.5362, 5.4862 ], [ 44.9817, 4.9173 ], [ 44.5921, 4.9348 ], [ 44.6776, 4.4314 ], [ 44.7497, 4.0778 ], [ 45.001, 4.1215 ], [ 45.071, 4.2615 ], [ 45.121, 4.2815 ], [ 45.421, 4.3714 ], [ 45.561, 4.3115 ], [ 45.741, 4.4214 ], [ 46.151, 4.4314 ], [ 46.111, 4.7414 ], [ 46.211, 4.9414 ], [ 46.231, 5.0814 ], [ 46.041, 5.0314 ], [ 45.711, 5.1114 ], [ 45.6728, 5.1877 ] ] ] } },
{ "type": "Feature", "properties": { "iso3": "SOM", "unit_id": "28964504B84118389990830", "unit_name": "Bulo Burto" }, "geometry": { "type": "Polygon", "coordinates": [ [ [ 46.151, 4.4314 ], [ 45.741, 4.4214 ], [ 45.561, 4.3115 ], [ 45.421, 4.3714 ], [ 45.121, 4.2815 ], [ 45.071, 4.2615 ], [ 45.001, 4.1215 ], [ 44.7497, 4.0778 ], [ 44.801, 3.8615 ], [ 44.771, 3.7015 ], [ 44.781, 3.2715 ], [ 45.071, 3.2516 ], [ 45.151, 3.2116 ], [ 45.271, 3.2016 ], [ 45.297, 3.2035 ], [ 45.181, 3.5515 ], [ 46.091, 3.5715 ], [ 46.2252, 3.7987 ], [ 46.391, 3.8915 ], [ 46.401, 4.2315 ], [ 46.151, 4.4314 ] ] ] } },
{ "type": "Feature", "properties": { "iso3": "SOM", "unit_id": "28964504B27182335125696", "unit_name": "Jalalaqsi" }, "geometry": { "type": "Polygon", "coordinates": [ [ [ 45.297, 3.2035 ], [ 45.941, 3.2515 ], [ 46.0124, 3.4659 ], [ 46.0307, 3.4995 ], [ 46.061, 3.5315 ], [ 46.091, 3.5715 ], [ 45.181, 3.5515 ], [ 45.297, 3.2035 ] ] ] } },
{ "type": "Feature", "properties": { "iso3": "SOM", "unit_id": "28964504B24020223151760", "unit_name": "Jowhar" }, "geometry": { "type": "Polygon", "coordinates": [ [ [ 45.071, 3.2516 ], [ 45.121, 3.0416 ], [ 45.3337, 2.7322 ], [ 45.461, 2.7616 ], [ 45.501, 2.7316 ], [ 45.531, 2.7216 ], [ 45.871, 2.7416 ], [ 45.961, 2.7316 ], [ 45.941, 3.2515 ], [ 45.271, 3.2016 ], [ 45.151, 3.2116 ], [ 45.071, 3.2516 ] ] ] } },
{ "type": "Feature", "properties": { "iso3": "SOM", "unit_id": "28964504B50772382862136", "unit_name": "Adan Yabaal" }, "geometry": { "type": "Polygon", "coordinates": [ [ [ 46.391, 3.8915 ], [ 46.2252, 3.7987 ], [ 46.091, 3.5715 ], [ 46.061, 3.5315 ], [ 46.671, 3.3115 ], [ 46.7555, 3.1532 ], [ 46.8069, 3.2042 ], [ 46.8366, 3.2389 ], [ 46.8721, 3.2932 ], [ 46.9114, 3.3393 ], [ 47.0043, 3.4399 ], [ 47.038, 3.4723 ], [ 46.391, 3.8915 ] ] ] } },
{ "type": "Feature", "properties": { "iso3": "SOM", "unit_id": "28964504B45996416410947", "unit_name": "Balcad" }, "geometry": { "type": "Polygon", "coordinates": [ [ [ 45.461, 2.7616 ], [ 45.331, 2.7316 ], [ 45.341, 2.7216 ], [ 45.331, 2.1816 ], [ 45.391, 2.1517 ], [ 45.461, 2.1716 ], [ 45.6187, 2.186 ], [ 45.639, 2.2008 ], [ 45.6604, 2.2074 ], [ 45.6736, 2.2184 ], [ 45.7571, 2.2667 ], [ 45.7936, 2.2928 ], [ 45.8066, 2.2968 ], [ 45.8173, 2.3066 ], [ 45.831, 2.3086 ], [ 45.835, 2.3169 ], [ 45.8983, 2.3519 ], [ 46.002, 2.4232 ], [ 46.0641, 2.4859 ], [ 46.1041, 2.5152 ], [ 46.1177, 2.5312 ], [ 46.1299, 2.5538 ], [ 46.121, 2.5716 ], [ 46.091, 2.5716 ], [ 46.041, 2.6916 ], [ 45.961, 2.7316 ], [ 45.871, 2.7416 ], [ 45.531, 2.7216 ], [ 45.501, 2.7316 ], [ 45.461, 2.7616 ] ] ] } },
{ "type": "Feature", "properties": { "iso3": "SOM", "unit_id": "28964504B30686694295567", "unit_name": "Cadale" }, "geometry": { "type": "Polygon", "coordinates": [ [ [ 45.941, 3.2515 ], [ 45.961, 2.7316 ], [ 46.041, 2.6916 ], [ 46.091, 2.5716 ], [ 46.121, 2.5716 ], [ 46.1299, 2.5538 ], [ 46.1561, 2.5805 ], [ 46.1673, 2.5861 ], [ 46.1704, 2.5951 ], [ 46.1912, 2.6215 ], [ 46.2282, 2.6619 ], [ 46.2828, 2.6996 ], [ 46.2953, 2.7119 ], [ 46.3014, 2.7388 ], [ 46.3103, 2.7479 ], [ 46.3306, 2.7582 ], [ 46.3386, 2.7806 ], [ 46.4053, 2.8285 ], [ 46.4606, 2.8865 ], [ 46.5166, 2.9244 ], [ 46.5366, 2.9432 ], [ 46.5757, 2.9718 ], [ 46.6743, 3.0646 ], [ 46.743, 3.1432 ], [ 46.7555, 3.1532 ], [ 46.671, 3.3115 ], [ 46.061, 3.5315 ], [ 46.0307, 3.4995 ], [ 46.0124, 3.4659 ], [ 45.941, 3.2515 ] ] ] } },
{ "type": "Feature", "properties": { "iso3": "SOM", "unit_id": "28964504B20215174369801", "unit_name": "Banadir" }, "geometry": { "type": "Polygon", "coordinates": [ [ [ 45.391, 2.1517 ], [ 45.2595, 1.9797 ], [ 45.2895, 1.9988 ], [ 45.3194, 2.0083 ], [ 45.3487, 2.0275 ], [ 45.3942, 2.0474 ], [ 45.4528, 2.0882 ], [ 45.5194, 2.1254 ], [ 45.5658, 2.1562 ], [ 45.5965, 2.1698 ], [ 45.6187, 2.186 ], [ 45.461, 2.1716 ], [ 45.391, 2.1517 ] ] ] } },
{ "type": "Feature", "properties": { "iso3": "SOM", "unit_id": "28964504B66873689295478", "unit_name": "Marka" }, "geometry": { "type": "Polygon", "coordinates": [ [ [ 44.503, 1.5137 ], [ 44.525, 1.5276 ], [ 44.5683, 1.5646 ], [ 44.5826, 1.5726 ], [ 44.6045, 1.5965 ], [ 44.6164, 1.5957 ], [ 44.6218, 1.5983 ], [ 44.6592, 1.6336 ], [ 44.691, 1.6473 ], [ 44.7162, 1.6682 ], [ 44.75, 1.6856 ], [ 44.7615, 1.7034 ], [ 44.8803, 1.7738 ], [ 44.9178, 1.7995 ], [ 44.9735, 1.8283 ], [ 45.0634, 1.889 ], [ 45.0866, 1.8978 ], [ 45.1036, 1.9096 ], [ 45.1203, 1.9139 ], [ 45.1301, 1.9217 ], [ 44.841, 1.9217 ], [ 44.5109, 1.6717 ], [ 44.471, 1.6317 ], [ 44.4209, 1.5617 ], [ 44.3809, 1.5317 ], [ 44.431, 1.5017 ], [ 44.503, 1.5137 ] ] ] } },
{ "type": "Feature", "properties": { "iso3": "SOM", "unit_id": "28964504B45030014152328", "unit_name": "Afgooye" }, "geometry": { "type": "Polygon", "coordinates": [ [ [ 45.331, 2.7316 ], [ 44.971, 2.4116 ], [ 44.881, 2.3416 ], [ 44.731, 2.2816 ], [ 44.661, 2.2416 ], [ 44.731, 2.1317 ], [ 44.791, 2.0217 ], [ 44.841, 1.9217 ], [ 45.1301, 1.9217 ], [ 45.1599, 1.9304 ], [ 45.193, 1.9521 ], [ 45.2038, 1.9511 ], [ 45.2079, 1.9525 ], [ 45.2106, 1.9587 ], [ 45.2268, 1.9603 ], [ 45.2361, 1.9689 ], [ 45.2595, 1.9797 ], [ 45.391, 2.1517 ], [ 45.331, 2.1816 ], [ 45.341, 2.7216 ], [ 45.331, 2.7316 ] ] ] } },
{ "type": "Feature", "properties": { "iso3": "SOM", "unit_id": "28964504B22414225258004", "unit_name": "Baraawe" }, "geometry": { "type": "Polygon", "coordinates": [ [ [ 44.3809, 1.5317 ], [ 44.1509, 1.4417 ], [ 43.3397, 0.9372 ], [ 43.5208, 0.6755 ], [ 43.5882, 0.7338 ], [ 43.6553, 0.7989 ], [ 43.746, 0.8659 ], [ 43.7602, 0.8872 ], [ 43.7818, 0.9086 ], [ 43.8108, 0.9268 ], [ 43.8465, 0.9601 ], [ 43.8719, 0.9742 ], [ 43.9172, 1.0089 ], [ 43.9247, 1.0131 ], [ 43.9382, 1.0124 ], [ 43.9422, 1.0165 ], [ 43.9365, 1.0225 ], [ 43.9371, 1.0275 ], [ 43.9606, 1.0487 ], [ 44.0048, 1.0802 ], [ 44.0219, 1.0848 ], [ 44.0371, 1.1116 ], [ 44.0511, 1.1269 ], [ 44.1097, 1.1724 ], [ 44.1204, 1.1782 ], [ 44.1327, 1.1777 ], [ 44.1357, 1.2016 ], [ 44.168, 1.2339 ], [ 44.2171, 1.2682 ], [ 44.2272, 1.2874 ], [ 44.2507, 1.3102 ], [ 44.4031, 1.4348 ], [ 44.4725, 1.4829 ], [ 44.503, 1.5137 ], [ 44.431, 1.5017 ], [ 44.3809, 1.5317 ] ] ] } },
{ "type": "Feature", "properties": { "iso3": "SOM", "unit_id": "28964504B47490188482474", "unit_name": "Kurtunwaarey" }, "geometry": { "type": "Polygon", "coordinates": [ [ [ 44.5109, 1.6717 ], [ 43.9014, 1.8907 ], [ 43.5854, 1.7635 ], [ 44.1509, 1.4417 ], [ 44.3809, 1.5317 ], [ 44.4209, 1.5617 ], [ 44.471, 1.6317 ], [ 44.5109, 1.6717 ] ] ] } },
{ "type": "Feature", "properties": { "iso3": "SOM", "unit_id": "28964504B52893424364730", "unit_name": "Qoryooley" }, "geometry": { "type": "Polygon", "coordinates": [ [ [ 44.841, 1.9217 ], [ 44.791, 2.0217 ], [ 44.731, 2.1317 ], [ 44.661, 2.2416 ], [ 44.6494, 2.235 ], [ 44.651, 2.2216 ], [ 43.9014, 1.8907 ], [ 44.5109, 1.6717 ], [ 44.841, 1.9217 ] ] ] } },
{ "type": "Feature", "properties": { "iso3": "SOM", "unit_id": "28964504B94545184619455", "unit_name": "Sablaale" }, "geometry": { "type": "Polygon", "coordinates": [ [ [ 44.1509, 1.4417 ], [ 43.5854, 1.7635 ], [ 42.9809, 1.4617 ], [ 43.261, 1.0464 ], [ 43.3397, 0.9372 ], [ 44.1509, 1.4417 ] ] ] } },
{ "type": "Feature", "properties": { "iso3": "SOM", "unit_id": "28964504B65188625425566", "unit_name": "Wanla Weyn" }, "geometry": { "type": "Polygon", "coordinates": [ [ [ 44.781, 3.2715 ], [ 44.661, 3.2516 ], [ 44.691, 3.0516 ], [ 44.641, 2.8116 ], [ 44.661, 2.7516 ], [ 44.621, 2.4816 ], [ 44.6494, 2.235 ], [ 44.731, 2.2816 ], [ 44.881, 2.3416 ], [ 44.971, 2.4116 ], [ 45.3337, 2.7322 ], [ 45.121, 3.0416 ], [ 45.071, 3.2516 ], [ 44.781, 3.2715 ] ] ] } },
{ "type": "Feature", "properties": { "iso3": "SOM", "unit_id": "28964504B17672363231804", "unit_name": "Baydhaba" }, "geometry": { "type": "Polygon", "coordinates": [ [ [ 44.2809, 3.3415 ], [ 44.3109, 3.3915 ], [ 44.3109, 3.5715 ], [ 44.1809, 3.8515 ], [ 43.9509, 3.9215 ], [ 43.8809, 3.9215 ], [ 43.7909, 3.8815 ], [ 43.7509, 3.8515 ], [ 43.6809, 3.7215 ], [ 43.5809, 3.6115 ], [ 43.4109, 3.5715 ], [ 43.1209, 3.6715 ], [ 43.1009, 3.2316 ], [ 43.1009, 3.0816 ], [ 43.1209, 3.0816 ], [ 43.1209, 2.5716 ], [ 43.4409, 2.5216 ], [ 43.5309, 2.6516 ], [ 43.7309, 2.8616 ], [ 44.2809, 3.3415 ] ] ] } },
{ "type": "Feature", "properties": { "iso3": "SOM", "unit_id": "28964504B64175889984127", "unit_name": "Buur Hakaba" }, "geometry": { "type": "Polygon", "coordinates": [ [ [ 43.9014, 1.8907 ], [ 44.651, 2.2216 ], [ 44.621, 2.4816 ], [ 44.661, 2.7516 ], [ 44.641, 2.8116 ], [ 44.691, 3.0516 ], [ 44.661, 3.2516 ], [ 44.611, 3.2715 ], [ 44.4109, 3.2616 ], [ 44.2809, 3.3415 ], [ 43.7309, 2.8616 ], [ 43.5309, 2.6516 ], [ 43.3509, 2.3916 ], [ 43.2009, 2.0417 ], [ 43.2209, 1.9517 ], [ 43.3109, 1.8117 ], [ 43.3109, 1.6267 ], [ 43.5854, 1.7635 ], [ 43.9014, 1.8907 ] ] ] } },
{ "type": "Feature", "properties": { "iso3": "SOM", "unit_id": "28964504B13977427746207", "unit_name": "Diinsoor" }, "geometry": { "type": "Polygon", "coordinates": [ [ [ 43.3109, 1.6267 ], [ 43.3109, 1.8117 ], [ 43.2209, 1.9517 ], [ 43.2009, 2.0417 ], [ 43.3509, 2.3916 ], [ 43.4409, 2.5216 ], [ 43.1209, 2.5716 ], [ 42.516, 2.6004 ], [ 42.4009, 1.9517 ], [ 42.5209, 1.8817 ], [ 42.9009, 1.5217 ], [ 42.9809, 1.4617 ], [ 43.3109, 1.6267 ] ] ] } },
{ "type": "Feature", "properties": { "iso3": "SOM", "unit_id": "28964504B63865546984351", "unit_name": "Qansax Dheere" }, "geometry": { "type": "Polygon", "coordinates": [ [ [ 43.1009, 3.0816 ], [ 43.1009, 3.0616 ], [ 42.9309, 3.0416 ], [ 42.6009, 3.0716 ], [ 42.516, 2.6004 ], [ 43.1209, 2.5716 ], [ 43.1209, 3.0816 ], [ 43.1009, 3.0816 ] ] ] } },
{ "type": "Feature", "properties": { "iso3": "SOM", "unit_id": "28964504B58844851683795", "unit_name": "Xudur" }, "geometry": { "type": "Polygon", "coordinates": [ [ [ 44.2909, 3.6115 ], [ 44.2909, 4.4314 ], [ 43.2809, 4.4814 ], [ 43.6309, 4.0515 ], [ 43.7979, 3.8846 ], [ 43.8809, 3.9215 ], [ 43.9509, 3.9215 ], [ 44.1809, 3.8515 ], [ 44.2909, 3.6115 ] ] ] } },
{ "type": "Feature", "properties": { "iso3": "SOM", "unit_id": "28964504B47716347949942", "unit_name": "Ceel Barde" }, "geometry": { "type": "Polygon", "coordinates": [ [ [ 44.5921, 4.9348 ], [ 44.0076, 4.959 ], [ 43.6591, 4.868 ], [ 43.4349, 4.7947 ], [ 43.2352, 4.6963 ], [ 43.1279, 4.6345 ], [ 43.2809, 4.4814 ], [ 44.2909, 4.4314 ], [ 44.6776, 4.4314 ], [ 44.5921, 4.9348 ] ] ] } },
{ "type": "Feature", "properties": { "iso3": "SOM", "unit_id": "28964504B68310012753416", "unit_name": "Tayeeglow" }, "geometry": { "type": "Polygon", "coordinates": [ [ [ 44.6776, 4.4314 ], [ 44.2909, 4.4314 ], [ 44.2909, 3.6115 ], [ 44.3109, 3.5715 ], [ 44.3109, 3.3915 ], [ 44.2809, 3.3415 ], [ 44.4109, 3.2616 ], [ 44.611, 3.2715 ], [ 44.661, 3.2516 ], [ 44.781, 3.2715 ], [ 44.771, 3.7015 ], [ 44.801, 3.8615 ], [ 44.7497, 4.0778 ], [ 44.6776, 4.4314 ] ] ] } },
{ "type": "Feature", "properties": { "iso3": "SOM", "unit_id": "28964504B64358646516494", "unit_name": "Waajid" }, "geometry": { "type": "Polygon", "coordinates": [ [ [ 43.7979, 3.8846 ], [ 43.6309, 4.0515 ], [ 43.0914, 3.9477 ], [ 43.1409, 3.8515 ], [ 43.1209, 3.6715 ], [ 43.4109, 3.5715 ], [ 43.5809, 3.6115 ], [ 43.6809, 3.7215 ], [ 43.7509, 3.8515 ], [ 43.7979, 3.8846 ] ] ] } },
{ "type": "Feature", "properties": { "iso3": "SOM", "unit_id": "28964504B16042638638957", "unit_name": "Rab Dhuure" }, "geometry": { "type": "Polygon", "coordinates": [ [ [ 43.2809, 4.4814 ], [ 43.1279, 4.6345 ], [ 43.0801, 4.6027 ], [ 43.0443, 4.5721 ], [ 43.0348, 4.5603 ], [ 43.0239, 4.5353 ], [ 43.0097, 4.474 ], [ 42.9902, 4.437 ], [ 42.9692, 4.4033 ], [ 42.9397, 4.3644 ], [ 42.8853, 4.3079 ], [ 42.8909, 4.2915 ], [ 43.0914, 3.9477 ], [ 43.6309, 4.0515 ], [ 43.2809, 4.4814 ] ] ] } },
{ "type": "Feature", "properties": { "iso3": "SOM", "unit_id": "28964504B44815178356109", "unit_name": "Garbahaarey" }, "geometry": { "type": "Polygon", "coordinates": [ [ [ 43.1021, 3.2574 ], [ 42.8509, 3.3515 ], [ 42.6409, 3.4415 ], [ 42.0409, 3.6815 ], [ 42.0409, 3.6715 ], [ 41.7209, 3.0016 ], [ 41.9709, 2.9416 ], [ 42.5426, 2.751 ], [ 42.6009, 3.0716 ], [ 42.9309, 3.0416 ], [ 43.1009, 3.0616 ], [ 43.1021, 3.2574 ] ] ] } },
{ "type": "Feature", "properties": { "iso3": "SOM", "unit_id": "28964504B5881044845291", "unit_name": "Baardheere" }, "geometry": { "type": "Polygon", "coordinates": [ [ [ 42.4009, 1.9517 ], [ 42.5426, 2.751 ], [ 41.9709, 2.9416 ], [ 41.7809, 2.3016 ], [ 40.9949, 2.3116 ], [ 40.9956, 1.2327 ], [ 41.4209, 1.2617 ], [ 41.6409, 1.9417 ], [ 42.4009, 1.9517 ] ] ] } },
{ "type": "Feature", "properties": { "iso3": "SOM", "unit_id": "28964504B91179591885558", "unit_name": "Belet Xaawo" }, "geometry": { "type": "Polygon", "coordinates": [ [ [ 42.0409, 3.6815 ], [ 42.1009, 3.8115 ], [ 41.8607, 3.9116 ], [ 41.3332, 3.1564 ], [ 41.3163, 3.1397 ], [ 41.7209, 3.0016 ], [ 42.0409, 3.6715 ], [ 42.0409, 3.6815 ] ] ] } },
{ "type": "Feature", "properties": { "iso3": "SOM", "unit_id": "28964504B77924980069177", "unit_name": "Ceel Waaq" }, "geometry": { "type": "Polygon", "coordinates": [ [ [ 41.7209, 3.0016 ], [ 41.3163, 3.1397 ], [ 40.9956, 2.8217 ], [ 40.9949, 2.3116 ], [ 41.7809, 2.3016 ], [ 41.9709, 2.9416 ], [ 41.7209, 3.0016 ] ] ] } },
{ "type": "Feature", "properties": { "iso3": "SOM", "unit_id": "28964504B94766348166594", "unit_name": "Doolow" }, "geometry": { "type": "Polygon", "coordinates": [ [ [ 42.1009, 3.8115 ], [ 42.2309, 3.7915 ], [ 42.4016, 4.1931 ], [ 42.1967, 4.1789 ], [ 42.0877, 4.1794 ], [ 42.0611, 4.1615 ], [ 42.0, 4.0934 ], [ 41.9791, 4.0952 ], [ 41.9742, 4.0806 ], [ 41.9669, 4.0801 ], [ 41.9462, 4.0557 ], [ 41.949, 4.0279 ], [ 41.9435, 4.0167 ], [ 41.9264, 4.0026 ], [ 41.9214, 3.9941 ], [ 41.9131, 3.9907 ], [ 41.9101, 3.9823 ], [ 41.8607, 3.9116 ], [ 42.1009, 3.8115 ] ] ] } },
{ "type": "Feature", "properties": { "iso3": "SOM", "unit_id": "28964504B65173997316589", "unit_name": "Luuq" }, "geometry": { "type": "Polygon", "coordinates": [ [ [ 43.1209, 3.6715 ], [ 43.1409, 3.8515 ], [ 43.1009, 3.9315 ], [ 42.8909, 4.2915 ], [ 42.8853, 4.3079 ], [ 42.849, 4.2796 ], [ 42.8173, 4.2649 ], [ 42.7099, 4.2618 ], [ 42.6716, 4.2505 ], [ 42.5879, 4.2154 ], [ 42.5545, 4.2062 ], [ 42.5266, 4.2029 ], [ 42.4755, 4.2027 ], [ 42.4016, 4.1931 ], [ 42.2309, 3.7915 ], [ 42.1009, 3.8115 ], [ 42.0409, 3.6815 ], [ 42.6409, 3.4415 ], [ 42.8509, 3.3515 ], [ 43.1021, 3.2574 ], [ 43.1209, 3.6715 ] ] ] } },
{ "type": "Feature", "properties": { "iso3": "SOM", "unit_id": "28964504B22895063407859", "unit_name": "Bu'aale" }, "geometry": { "type": "Polygon", "coordinates": [ [ [ 42.9809, 1.4617 ], [ 42.9533, 1.4824 ], [ 42.2309, 1.5117 ], [ 42.1709, 1.3717 ], [ 42.1389, 1.3078 ], [ 42.4309, 1.3217 ], [ 42.6209, 0.7518 ], [ 43.261, 1.0464 ], [ 42.9809, 1.4617 ] ] ] } },
{ "type": "Feature", "properties": { "iso3": "SOM", "unit_id": "28964504B60974708164016", "unit_name": "Jilib" }, "geometry": { "type": "Polygon", "coordinates": [ [ [ 43.5208, 0.6755 ], [ 43.261, 1.0464 ], [ 42.6209, 0.7518 ], [ 42.6309, 0.7218 ], [ 42.7309, 0.3118 ], [ 43.1913, 0.3285 ], [ 43.2935, 0.4349 ], [ 43.4009, 0.5591 ], [ 43.4338, 0.5879 ], [ 43.4861, 0.6439 ], [ 43.5208, 0.6755 ] ] ] } },
{ "type": "Feature", "properties": { "iso3": "SOM", "unit_id": "28964504B23902204706918", "unit_name": "Saakow" }, "geometry": { "type": "Polygon", "coordinates": [ [ [ 42.4009, 1.9517 ], [ 41.6409, 1.9417 ], [ 41.4209, 1.2617 ], [ 42.1389, 1.3078 ], [ 42.1709, 1.3717 ], [ 42.2309, 1.5117 ], [ 42.9533, 1.4824 ], [ 42.9009, 1.5217 ], [ 42.5209, 1.8817 ], [ 42.4009, 1.9517 ] ] ] } },
{ "type": "Feature", "properties": { "iso3": "SOM", "unit_id": "28964504B79920399549036", "unit_name": "Kismaayo" }, "geometry": { "type": "MultiPolygon", "coordinates": [ [ [ [ 42.0241, -1.0225 ], [ 42.0354, -1.0159 ], [ 42.0321, -1.0095 ], [ 42.0417, -1.0048 ], [ 42.0418, -0.9998 ], [ 42.0466, -0.9972 ], [ 42.0533, -0.9812 ], [ 42.034, -0.9911 ], [ 42.0321, -1.0022 ], [ 42.0157, -1.0113 ], [ 42.0155, -1.0145 ], [ 42.0212, -1.0165 ], [ 42.0241, -1.0225 ] ] ], [ [ [ 42.0997, -0.9479 ], [ 42.106, -0.9358 ], [ 42.1064, -0.9283 ], [ 42.0971, -0.9401 ], [ 42.0963, -0.9465 ], [ 42.0997, -0.9479 ] ] ], [ [ [ 42.1142, -0.916 ], [ 42.118, -0.907 ], [ 42.1171, -0.9049 ], [ 42.1105, -0.9096 ], [ 42.1142, -0.916 ] ] ], [ [ [ 42.1801, -0.8422 ], [ 42.1861, -0.8313 ], [ 42.2071, -0.8136 ], [ 42.2222, -0.7957 ], [ 42.2197, -0.7944 ], [ 42.1906, -0.8232 ], [ 42.1828, -0.8254 ], [ 42.1745, -0.8392 ], [ 42.1654, -0.8377 ], [ 42.1581, -0.8551 ], [ 42.1447, -0.8642 ], [ 42.1337, -0.8788 ], [ 42.1328, -0.8829 ], [ 42.1374, -0.8886 ], [ 42.1413, -0.8879 ], [ 42.1475, -0.8687 ], [ 42.155, -0.8659 ], [ 42.1644, -0.8538 ], [ 42.1801, -0.8422 ] ] ], [ [ [ 42.229, -0.7901 ], [ 42.2378, -0.7813 ], [ 42.2385, -0.7765 ], [ 42.2321, -0.7777 ], [ 42.2242, -0.7879 ], [ 42.229, -0.7901 ] ] ], [ [ [ 42.2505, -0.7511 ], [ 42.2573, -0.748 ], [ 42.2563, -0.7407 ], [ 42.2502, -0.7442 ], [ 42.2482, -0.7486 ], [ 42.2505, -0.7511 ] ] ], [ [ [ 42.2623, -0.746 ], [ 42.2766, -0.7338 ], [ 42.2826, -0.7238 ], [ 42.2984, -0.7103 ], [ 42.2927, -0.7099 ], [ 42.2728, -0.7267 ], [ 42.2623, -0.746 ] ] ], [ [ [ 42.3341, -0.6557 ], [ 42.3473, -0.6319 ], [ 42.3467, -0.6229 ], [ 42.3433, -0.6225 ], [ 42.3343, -0.6364 ], [ 42.3202, -0.6411 ], [ 42.3251, -0.6464 ], [ 42.3247, -0.6493 ], [ 42.3178, -0.6506 ], [ 42.3216, -0.6595 ], [ 42.3341, -0.6557 ] ] ], [ [ [ 42.5433, -0.3943 ], [ 42.5592, -0.3831 ], [ 42.5634, -0.373 ], [ 42.5532, -0.3772 ], [ 42.5428, -0.3898 ], [ 42.5433, -0.3943 ] ] ], [ [ [ 41.9612, -0.9699 ], [ 41.9607, -0.9354 ], [ 41.9653, -0.9165 ], [ 41.9615, -0.906 ], [ 41.9386, -0.8807 ], [ 41.9206, -0.8834 ], [ 41.9151, -0.8814 ], [ 41.9116, -0.8766 ], [ 41.913, -0.8734 ], [ 41.937, -0.8757 ], [ 41.9484, -0.8804 ], [ 41.9725, -0.9063 ], [ 41.9751, -0.9157 ], [ 41.9666, -0.9503 ], [ 41.9795, -0.9763 ], [ 41.9726, -0.9957 ], [ 41.9733, -1.0014 ], [ 41.9789, -1.0076 ], [ 42.0251, -0.9694 ], [ 42.0372, -0.9318 ], [ 42.062, -0.9023 ], [ 42.0716, -0.9006 ], [ 42.0739, -0.8879 ], [ 42.0893, -0.8533 ], [ 42.086, -0.8434 ], [ 42.0812, -0.8412 ], [ 42.0548, -0.85 ], [ 42.0467, -0.843 ], [ 42.0406, -0.8279 ], [ 42.045, -0.8113 ], [ 42.0428, -0.8049 ], [ 42.0382, -0.8026 ], [ 42.0004, -0.8115 ], [ 41.9873, -0.8029 ], [ 41.9807, -0.7867 ], [ 41.9886, -0.7328 ], [ 41.9928, -0.7241 ], [ 41.999, -0.7258 ], [ 42.0021, -0.738 ], [ 41.9921, -0.7811 ], [ 41.9931, -0.7884 ], [ 42.0044, -0.7977 ], [ 42.0172, -0.7969 ], [ 42.0234, -0.8 ], [ 42.0354, -0.7951 ], [ 42.0455, -0.7956 ], [ 42.0602, -0.7695 ], [ 42.0722, -0.7565 ], [ 42.0744, -0.7457 ], [ 42.0821, -0.7408 ], [ 42.0824, -0.7493 ], [ 42.0683, -0.7713 ], [ 42.0483, -0.8271 ], [ 42.0547, -0.8433 ], [ 42.0588, -0.8437 ], [ 42.0669, -0.8356 ], [ 42.0797, -0.8329 ], [ 42.1133, -0.8346 ], [ 42.1371, -0.8185 ], [ 42.1479, -0.823 ], [ 42.1802, -0.793 ], [ 42.1982, -0.7684 ], [ 42.2138, -0.7558 ], [ 42.2263, -0.7357 ], [ 42.2342, -0.7287 ], [ 42.2373, -0.7186 ], [ 42.2535, -0.7154 ], [ 42.2551, -0.6986 ], [ 42.2601, -0.6917 ], [ 42.2881, -0.6633 ], [ 42.2965, -0.6465 ], [ 42.3146, -0.6304 ], [ 42.324, -0.6091 ], [ 42.342, -0.5862 ], [ 42.3528, -0.5771 ], [ 42.3672, -0.5567 ], [ 42.3909, -0.5376 ], [ 42.4136, -0.5027 ], [ 42.445, -0.478 ], [ 42.4571, -0.4588 ], [ 42.4698, -0.4508 ], [ 42.4735, -0.4551 ], [ 42.472, -0.465 ], [ 42.4744, -0.4691 ], [ 42.4776, -0.4686 ], [ 42.4791, -0.4613 ], [ 42.4867, -0.4515 ], [ 42.4844, -0.4451 ], [ 42.4749, -0.4406 ], [ 42.4778, -0.4303 ], [ 42.4947, -0.414 ], [ 42.5259, -0.3702 ], [ 42.5389, -0.3657 ], [ 42.5521, -0.3676 ], [ 42.5619, -0.364 ], [ 42.5642, -0.3613 ], [ 42.5618, -0.3569 ], [ 42.5571, -0.3577 ], [ 42.5561, -0.3549 ], [ 42.5656, -0.3507 ], [ 42.57, -0.3325 ], [ 42.5796, -0.3128 ], [ 42.6065, -0.2765 ], [ 42.6234, -0.2607 ], [ 42.6513, -0.242 ], [ 42.7245, -0.1711 ], [ 42.5309, -0.0182 ], [ 41.8509, -0.0382 ], [ 41.3109, -0.1481 ], [ 41.2909, -0.1981 ], [ 41.9612, -0.9699 ] ] ] ] } },
{ "type": "Feature", "properties": { "iso3": "SOM", "unit_id": "28964504B57072621511963", "unit_name": "Afmadow" }, "geometry": { "type": "Polygon", "coordinates": [ [ [ 40.9956, 1.2327 ], [ 40.9956, -0.1973 ], [ 41.3109, -0.1481 ], [ 41.8509, -0.0382 ], [ 42.5309, -0.0182 ], [ 42.5409, 0.1118 ], [ 42.7268, 0.3287 ], [ 42.6309, 0.7218 ], [ 42.4309, 1.3217 ], [ 42.2009, 1.3117 ], [ 40.9956, 1.2327 ] ] ] } },
{ "type": "Feature", "properties": { "iso3": "SOM", "unit_id": "28964504B13531235104222", "unit_name": "Badhaadhe" }, "geometry": { "type": "MultiPolygon", "coordinates": [ [ [ [ 41.9226, -1.1629 ], [ 41.9267, -1.1619 ], [ 41.931, -1.1534 ], [ 41.9409, -1.1448 ], [ 41.9451, -1.1314 ], [ 41.9396, -1.1324 ], [ 41.9168, -1.1561 ], [ 41.9226, -1.1629 ] ] ], [ [ [ 41.9743, -1.0858 ], [ 41.9925, -1.0771 ], [ 41.9908, -1.0695 ], [ 41.983, -1.0705 ], [ 41.9711, -1.0826 ], [ 41.9743, -1.0858 ] ] ], [ [ [ 41.3109, -0.1481 ], [ 40.9956, -0.1973 ], [ 40.9956, -0.8332 ], [ 41.5645, -1.6012 ], [ 41.5645, -1.6649 ], [ 41.5825, -1.6392 ], [ 41.5866, -1.6387 ], [ 41.5922, -1.6483 ], [ 41.5979, -1.643 ], [ 41.601, -1.6354 ], [ 41.5989, -1.6301 ], [ 41.5927, -1.6283 ], [ 41.5989, -1.6154 ], [ 41.6153, -1.5892 ], [ 41.6315, -1.578 ], [ 41.6602, -1.5349 ], [ 41.7332, -1.4107 ], [ 41.7474, -1.3912 ], [ 41.7502, -1.3808 ], [ 41.7753, -1.3541 ], [ 41.8013, -1.3122 ], [ 41.8347, -1.2537 ], [ 41.8436, -1.2311 ], [ 41.8394, -1.2047 ], [ 41.831, -1.1855 ], [ 41.8311, -1.1719 ], [ 41.8059, -1.1628 ], [ 41.7987, -1.1539 ], [ 41.7801, -1.1495 ], [ 41.7519, -1.1622 ], [ 41.7103, -1.1974 ], [ 41.7006, -1.2154 ], [ 41.6983, -1.2269 ], [ 41.6876, -1.2383 ], [ 41.6929, -1.2178 ], [ 41.7025, -1.1984 ], [ 41.7212, -1.1768 ], [ 41.7666, -1.1427 ], [ 41.7961, -1.1461 ], [ 41.8001, -1.1412 ], [ 41.8127, -1.1611 ], [ 41.8321, -1.165 ], [ 41.8414, -1.1716 ], [ 41.8462, -1.1793 ], [ 41.8471, -1.194 ], [ 41.858, -1.2091 ], [ 41.866, -1.2118 ], [ 41.8735, -1.2082 ], [ 41.8765, -1.2124 ], [ 41.8753, -1.2195 ], [ 41.8871, -1.2132 ], [ 41.9083, -1.1927 ], [ 41.9101, -1.1874 ], [ 41.9089, -1.1823 ], [ 41.9018, -1.1845 ], [ 41.8858, -1.2017 ], [ 41.88, -1.196 ], [ 41.8835, -1.1835 ], [ 41.8933, -1.1752 ], [ 41.9033, -1.1493 ], [ 41.9268, -1.1279 ], [ 41.9415, -1.0946 ], [ 41.951, -1.087 ], [ 41.9599, -1.0698 ], [ 41.9622, -1.0498 ], [ 41.9804, -1.0209 ], [ 41.9776, -1.0154 ], [ 41.9689, -1.0118 ], [ 41.9651, -1.0027 ], [ 41.9665, -0.9815 ], [ 41.9612, -0.9699 ], [ 41.2909, -0.1981 ], [ 41.3109, -0.1481 ] ] ] ] } },
{ "type": "Feature", "properties": { "iso3": "SOM", "unit_id": "28964504B48898302510657", "unit_name": "Jamaame" }, "geometry": { "type": "Polygon", "coordinates": [ [ [ 42.7268, 0.3287 ], [ 42.5409, 0.1118 ], [ 42.5309, -0.0182 ], [ 42.7245, -0.1711 ], [ 42.7648, -0.135 ], [ 42.7801, -0.1146 ], [ 42.8851, -0.012 ], [ 42.9716, 0.0856 ], [ 43.0394, 0.1556 ], [ 43.1913, 0.3285 ], [ 42.7309, 0.3118 ], [ 42.7268, 0.3287 ] ] ] } }
]
}
