{
"type": "FeatureCollection",
"name": "STP",
"crs": { "type": "name", "properties": { "name": "urn:ogc:def:crs:OGC:1.3:CRS84" } },
"xy_coordinate_resolution": 0.0001,
"features": [
{ "type": "Feature", "properties": { "iso3": "STP", "unit_id": "44275118B12142788779564", "unit_name": "Pagué" }, "geometry": { "type": "MultiPolygon", "coordinates": [ [ [ [ 7.4041, 1.7011 ], [ 7.4015, 1.7005 ], [ 7.4013, 1.6943 ], [ 7.4047, 1.6971 ], [ 7.4041, 1.7011 ] ] ], [ [ [ 7.3399, 1.5557 ], [ 7.3443, 1.5515 ], [ 7.3467, 1.5575 ], [ 7.3549, 1.5597 ], [ 7.3665, 1.5465 ], [ 7.3711, 1.5457 ], [ 7.3761, 1.5493 ], [ 7.3811, 1.5439 ], [ 7.3833, 1.5323 ], [ 7.3861, 1.5369 ], [ 7.3977, 1.5391 ], [ 7.3991, 1.5269 ], [ 7.4021, 1.5263 ], [ 7.4057, 1.5359 ], [ 7.3999, 1.5469 ], [ 7.4127, 1.5575 ], [ 7.4183, 1.5575 ], [ 7.4215, 1.5513 ], [ 7.4269, 1.5551 ], [ 7.4227, 1.5627 ], [ 7.4255, 1.5683 ], [ 7.4291, 1.5685 ], [ 7.4271, 1.5721 ], [ 7.4307, 1.5793 ], [ 7.4305, 1.5855 ], [ 7.4241, 1.5935 ], [ 7.4261, 1.6041 ], [ 7.4321, 1.6055 ], [ 7.4399, 1.6161 ], [ 7.4515, 1.6141 ], [ 7.4627, 1.6249 ], [ 7.4583, 1.6347 ], [ 7.4563, 1.6315 ], [ 7.4521, 1.6329 ], [ 7.4555, 1.6399 ], [ 7.4493, 1.6413 ], [ 7.4451, 1.6387 ], [ 7.4377, 1.6491 ], [ 7.4285, 1.6455 ], [ 7.4249, 1.6401 ], [ 7.4213, 1.6427 ], [ 7.4333, 1.6599 ], [ 7.4493, 1.6621 ], [ 7.4449, 1.6683 ], [ 7.4507, 1.6741 ], [ 7.4621, 1.6683 ], [ 7.4601, 1.6749 ], [ 7.4627, 1.6807 ], [ 7.4529, 1.6825 ], [ 7.4413, 1.6927 ], [ 7.4357, 1.6843 ], [ 7.4299, 1.6871 ], [ 7.4257, 1.6841 ], [ 7.4233, 1.6875 ], [ 7.4023, 1.6943 ], [ 7.3999, 1.6907 ], [ 7.3929, 1.6933 ], [ 7.3955, 1.6857 ], [ 7.3897, 1.6813 ], [ 7.3797, 1.6793 ], [ 7.3721, 1.6839 ], [ 7.3685, 1.6819 ], [ 7.3661, 1.6703 ], [ 7.3691, 1.6633 ], [ 7.3655, 1.6555 ], [ 7.3691, 1.6555 ], [ 7.3725, 1.6483 ], [ 7.3643, 1.6419 ], [ 7.3641, 1.6337 ], [ 7.3677, 1.6313 ], [ 7.3697, 1.6221 ], [ 7.3635, 1.6105 ], [ 7.3639, 1.6049 ], [ 7.3597, 1.6053 ], [ 7.3569, 1.6015 ], [ 7.3435, 1.6013 ], [ 7.3337, 1.6089 ], [ 7.3269, 1.6039 ], [ 7.3277, 1.5985 ], [ 7.3361, 1.5941 ], [ 7.3337, 1.5847 ], [ 7.3393, 1.5751 ], [ 7.3399, 1.5557 ] ] ], [ [ [ 7.4343, 1.5141 ], [ 7.4279, 1.5169 ], [ 7.4251, 1.5129 ], [ 7.4325, 1.5101 ], [ 7.4343, 1.5141 ] ] ], [ [ [ 7.2847, 1.3819 ], [ 7.2809, 1.3833 ], [ 7.2817, 1.3801 ], [ 7.2847, 1.3819 ] ] ], [ [ [ 7.2933, 1.3443 ], [ 7.2897, 1.3429 ], [ 7.2907, 1.3391 ], [ 7.2943, 1.3417 ], [ 7.2933, 1.3443 ] ] ] ] } },
{ "type": "Feature", "properties": { "iso3": "STP", "unit_id": "44275118B71111591277037", "unit_name": "Água Grande" }, "geometry": { "type": "Polygon", "coordinates": [ [ [ 6.7041, 0.3177 ], [ 6.7177, 0.3175 ], [ 6.7245, 0.3123 ], [ 6.7409, 0.3141 ], [ 6.7489, 0.3093 ], [ 6.7489, 0.3135 ], [ 6.7415, 0.3183 ], [ 6.7401, 0.3467 ], [ 6.7369, 0.3491 ], [ 6.7343, 0.3401 ], [ 6.7271, 0.3409 ], [ 6.7221, 0.3491 ], [ 6.7269, 0.3585 ], [ 6.7225, 0.3619 ], [ 6.7177, 0.3593 ], [ 6.7137, 0.3621 ], [ 6.7133, 0.3713 ], [ 6.7225, 0.3751 ], [ 6.7203, 0.3819 ], [ 6.7027, 0.3843 ], [ 6.7021, 0.3793 ], [ 6.7117, 0.3607 ], [ 6.7105, 0.3523 ], [ 6.7055, 0.3453 ], [ 6.7107, 0.3333 ], [ 6.7041, 0.3177 ] ] ] } },
{ "type": "Feature", "properties": { "iso3": "STP", "unit_id": "44275118B1990519246591", "unit_name": "Cantagalo" }, "geometry": { "type": "MultiPolygon", "coordinates": [ [ [ [ 6.6273, 0.2423 ], [ 6.6251, 0.2113 ], [ 6.6301, 0.1911 ], [ 6.6407, 0.1891 ], [ 6.6585, 0.1783 ], [ 6.6651, 0.1625 ], [ 6.6735, 0.1579 ], [ 6.6761, 0.1607 ], [ 6.6835, 0.1571 ], [ 6.6793, 0.1689 ], [ 6.6913, 0.1703 ], [ 6.6871, 0.1775 ], [ 6.6991, 0.1839 ], [ 6.7063, 0.2013 ], [ 6.7219, 0.2043 ], [ 6.7235, 0.2133 ], [ 6.7285, 0.2129 ], [ 6.7257, 0.2163 ], [ 6.7333, 0.2207 ], [ 6.7357, 0.2285 ], [ 6.7425, 0.2327 ], [ 6.7457, 0.2311 ], [ 6.7439, 0.2375 ], [ 6.7493, 0.2427 ], [ 6.7451, 0.2465 ], [ 6.7433, 0.2597 ], [ 6.7471, 0.2607 ], [ 6.7471, 0.2661 ], [ 6.7501, 0.2679 ], [ 6.7457, 0.2755 ], [ 6.7511, 0.2879 ], [ 6.7583, 0.2859 ], [ 6.7619, 0.2961 ], [ 6.7445, 0.2949 ], [ 6.7379, 0.2895 ], [ 6.7225, 0.2881 ], [ 6.7133, 0.2847 ], [ 6.7019, 0.2751 ], [ 6.6885, 0.2775 ], [ 6.6773, 0.2749 ], [ 6.6681, 0.2641 ], [ 6.6739, 0.2405 ], [ 6.6525, 0.2429 ], [ 6.6463, 0.2481 ], [ 6.6381, 0.2419 ], [ 6.6273, 0.2423 ] ] ], [ [ [ 6.7597, 0.2425 ], [ 6.7579, 0.2401 ], [ 6.7613, 0.2393 ], [ 6.7619, 0.2407 ], [ 6.7597, 0.2425 ] ] ] ] } },
{ "type": "Feature", "properties": { "iso3": "STP", "unit_id": "44275118B47142543934077", "unit_name": "Caué" }, "geometry": { "type": "MultiPolygon", "coordinates": [ [ [ [ 6.6273, 0.2423 ], [ 6.6127, 0.2491 ], [ 6.5881, 0.2523 ], [ 6.5807, 0.2599 ], [ 6.5777, 0.2685 ], [ 6.5701, 0.2633 ], [ 6.5551, 0.2597 ], [ 6.5577, 0.2323 ], [ 6.5517, 0.2145 ], [ 6.5515, 0.1949 ], [ 6.5225, 0.1463 ], [ 6.4957, 0.1251 ], [ 6.4955, 0.1161 ], [ 6.4907, 0.1107 ], [ 6.4975, 0.1113 ], [ 6.5005, 0.1061 ], [ 6.5111, 0.1071 ], [ 6.5163, 0.0985 ], [ 6.5135, 0.0927 ], [ 6.5179, 0.0773 ], [ 6.5155, 0.0719 ], [ 6.5121, 0.0713 ], [ 6.5163, 0.0687 ], [ 6.5133, 0.0601 ], [ 6.5149, 0.0541 ], [ 6.5085, 0.0539 ], [ 6.5057, 0.0491 ], [ 6.5129, 0.0389 ], [ 6.5115, 0.0235 ], [ 6.5171, 0.0187 ], [ 6.5207, 0.0247 ], [ 6.5319, 0.0263 ], [ 6.5341, 0.0327 ], [ 6.5369, 0.0323 ], [ 6.5343, 0.0453 ], [ 6.5371, 0.0479 ], [ 6.5449, 0.0415 ], [ 6.5465, 0.0343 ], [ 6.5521, 0.0371 ], [ 6.5543, 0.0339 ], [ 6.5583, 0.0359 ], [ 6.5583, 0.0493 ], [ 6.5641, 0.0513 ], [ 6.5637, 0.0547 ], [ 6.5669, 0.0561 ], [ 6.5641, 0.0719 ], [ 6.5697, 0.0847 ], [ 6.5783, 0.0857 ], [ 6.5805, 0.0815 ], [ 6.5847, 0.0837 ], [ 6.5857, 0.0765 ], [ 6.5893, 0.0755 ], [ 6.5901, 0.0785 ], [ 6.5991, 0.0757 ], [ 6.5979, 0.0813 ], [ 6.6015, 0.0841 ], [ 6.6149, 0.0811 ], [ 6.6119, 0.0861 ], [ 6.6157, 0.0873 ], [ 6.6215, 0.0977 ], [ 6.6283, 0.0959 ], [ 6.6271, 0.1011 ], [ 6.6369, 0.1011 ], [ 6.6377, 0.1069 ], [ 6.6527, 0.1077 ], [ 6.6547, 0.1201 ], [ 6.6463, 0.1255 ], [ 6.6471, 0.1311 ], [ 6.6563, 0.1313 ], [ 6.6553, 0.1375 ], [ 6.6735, 0.1457 ], [ 6.6675, 0.1499 ], [ 6.6697, 0.1547 ], [ 6.6761, 0.1549 ], [ 6.6651, 0.1625 ], [ 6.6585, 0.1783 ], [ 6.6407, 0.1891 ], [ 6.6301, 0.1911 ], [ 6.6251, 0.2113 ], [ 6.6273, 0.2423 ] ] ], [ [ [ 6.5293, 0.0035 ], [ 6.5187, 0.0021 ], [ 6.5129, -0.0024 ], [ 6.5111, -0.0085 ], [ 6.5149, -0.0089 ], [ 6.5149, -0.0132 ], [ 6.5247, -0.0135 ], [ 6.5299, -0.0057 ], [ 6.5261, -0.0015 ], [ 6.5293, 0.0035 ] ] ] ] } },
{ "type": "Feature", "properties": { "iso3": "STP", "unit_id": "44275118B2059761803726", "unit_name": "Lembá" }, "geometry": { "type": "MultiPolygon", "coordinates": [ [ [ [ 6.5777, 0.2685 ], [ 6.5865, 0.2849 ], [ 6.5907, 0.3187 ], [ 6.5879, 0.3443 ], [ 6.5967, 0.3555 ], [ 6.5963, 0.3677 ], [ 6.5907, 0.3849 ], [ 6.5725, 0.3651 ], [ 6.5615, 0.3589 ], [ 6.5453, 0.3603 ], [ 6.5413, 0.3575 ], [ 6.5391, 0.3493 ], [ 6.5287, 0.3455 ], [ 6.5227, 0.3319 ], [ 6.5115, 0.3319 ], [ 6.5049, 0.3227 ], [ 6.4927, 0.3191 ], [ 6.4889, 0.3115 ], [ 6.4885, 0.2927 ], [ 6.4849, 0.2889 ], [ 6.4819, 0.2751 ], [ 6.4799, 0.2719 ], [ 6.4707, 0.2697 ], [ 6.4663, 0.2627 ], [ 6.4651, 0.2513 ], [ 6.4599, 0.2435 ], [ 6.4657, 0.2369 ], [ 6.4611, 0.2249 ], [ 6.4651, 0.2199 ], [ 6.4635, 0.2137 ], [ 6.4673, 0.2077 ], [ 6.4651, 0.2051 ], [ 6.4669, 0.1999 ], [ 6.4623, 0.1961 ], [ 6.4667, 0.1975 ], [ 6.4679, 0.1871 ], [ 6.4785, 0.1739 ], [ 6.4771, 0.1679 ], [ 6.4805, 0.1569 ], [ 6.4779, 0.1457 ], [ 6.4885, 0.1379 ], [ 6.4843, 0.1321 ], [ 6.4957, 0.1251 ], [ 6.5225, 0.1463 ], [ 6.5515, 0.1949 ], [ 6.5517, 0.2145 ], [ 6.5577, 0.2323 ], [ 6.5551, 0.2597 ], [ 6.5701, 0.2633 ], [ 6.5777, 0.2685 ] ] ], [ [ [ 6.4847, 0.1371 ], [ 6.4807, 0.1387 ], [ 6.4799, 0.1371 ], [ 6.4847, 0.1371 ] ] ], [ [ [ 6.4811, 0.1327 ], [ 6.4789, 0.1325 ], [ 6.4783, 0.1299 ], [ 6.4803, 0.1293 ], [ 6.4811, 0.1327 ] ] ] ] } },
{ "type": "Feature", "properties": { "iso3": "STP", "unit_id": "44275118B56711780751116", "unit_name": "Lobata" }, "geometry": { "type": "MultiPolygon", "coordinates": [ [ [ [ 6.7027, 0.3843 ], [ 6.6951, 0.3911 ], [ 6.6913, 0.4033 ], [ 6.6697, 0.4085 ], [ 6.6613, 0.4135 ], [ 6.6391, 0.4093 ], [ 6.6383, 0.4069 ], [ 6.6263, 0.4107 ], [ 6.6219, 0.4069 ], [ 6.6089, 0.4077 ], [ 6.6049, 0.3957 ], [ 6.5907, 0.3849 ], [ 6.5963, 0.3677 ], [ 6.5967, 0.3555 ], [ 6.5879, 0.3443 ], [ 6.5907, 0.3187 ], [ 6.6149, 0.3185 ], [ 6.6375, 0.3435 ], [ 6.6647, 0.3467 ], [ 6.6631, 0.3381 ], [ 6.6657, 0.3337 ], [ 6.6787, 0.3341 ], [ 6.6789, 0.3293 ], [ 6.6849, 0.3249 ], [ 6.6943, 0.3251 ], [ 6.6985, 0.3177 ], [ 6.7041, 0.3177 ], [ 6.7107, 0.3333 ], [ 6.7055, 0.3453 ], [ 6.7105, 0.3523 ], [ 6.7117, 0.3607 ], [ 6.7021, 0.3793 ], [ 6.7027, 0.3843 ] ] ], [ [ [ 6.7183, 0.4113 ], [ 6.7123, 0.4083 ], [ 6.7113, 0.4047 ], [ 6.7169, 0.4071 ], [ 6.7183, 0.4113 ] ] ] ] } },
{ "type": "Feature", "properties": { "iso3": "STP", "unit_id": "44275118B82368785819347", "unit_name": "Mé-Zóchi" }, "geometry": { "type": "Polygon", "coordinates": [ [ [ 6.7177, 0.3175 ], [ 6.6985, 0.3177 ], [ 6.6943, 0.3251 ], [ 6.6849, 0.3249 ], [ 6.6789, 0.3293 ], [ 6.6787, 0.3341 ], [ 6.6657, 0.3337 ], [ 6.6631, 0.3381 ], [ 6.6647, 0.3467 ], [ 6.6375, 0.3435 ], [ 6.6149, 0.3185 ], [ 6.5907, 0.3187 ], [ 6.5865, 0.2849 ], [ 6.5777, 0.2685 ], [ 6.5807, 0.2599 ], [ 6.5881, 0.2523 ], [ 6.6127, 0.2491 ], [ 6.6301, 0.2409 ], [ 6.6381, 0.2419 ], [ 6.6463, 0.2481 ], [ 6.6525, 0.2429 ], [ 6.6739, 0.2405 ], [ 6.6681, 0.2641 ], [ 6.6773, 0.2749 ], [ 6.6885, 0.2775 ], [ 6.7019, 0.2751 ], [ 6.7133, 0.2847 ], [ 6.7379, 0.2895 ], [ 6.7445, 0.2949 ], [ 6.7561, 0.2969 ], [ 6.7489, 0.3093 ], [ 6.7409, 0.3141 ], [ 6.7245, 0.3123 ], [ 6.7177, 0.3175 ] ] ] } }
]
}
