{
"type": "FeatureCollection",
"name": "SWZ",
"crs": { "type": "name", "properties": { "name": "urn:ogc:def:crs:OGC:1.3:CRS84" } },
"xy_coordinate_resolution": 0.0001,
"features": [
{ "type": "Feature", "properties": { "iso3": "SWZ", "unit_id": "95383942B8408918347967", "unit_name": "Timphisini" }, "geometry": { "type": "Polygon", "coordinates": [ [ [ 31.488, -25.7644 ], [ 31.4152, -25.718 ], [ 31.4207, -25.7269 ], [ 31.3606, -25.7578 ], [ 31.3772, -25.7681 ], [ 31.3798, -25.775 ], [ 31.3847, -25.7746 ], [ 31.3914, -25.7813 ], [ 31.3888, -25.7865 ], [ 31.3974, -25.7915 ], [ 31.3899, -25.808 ], [ 31.3807, -25.8076 ], [ 31.4305, -25.8448 ], [ 31.4511, -25.8206 ], [ 31.4419, -25.8132 ], [ 31.4433, -25.8072 ], [ 31.4545, -25.801 ], [ 31.4601, -25.8059 ], [ 31.4626, -25.8134 ], [ 31.4666, -25.8051 ], [ 31.4753, -25.8032 ], [ 31.4751, -25.7917 ], [ 31.4808, -25.7865 ], [ 31.4843, -25.7671 ], [ 31.488, -25.7644 ] ] ] } },
{ "type": "Feature", "properties": { "iso3": "SWZ", "unit_id": "95383942B29845517908894", "unit_name": "Ntfonjeni" }, "geometry": { "type": "Polygon", "coordinates": [ [ [ 31.4152, -25.718 ], [ 31.3155, -25.7431 ], [ 31.2644, -25.8087 ], [ 31.2394, -25.8292 ], [ 31.2501, -25.8412 ], [ 31.281, -25.8903 ], [ 31.2786, -25.8961 ], [ 31.2851, -25.8993 ], [ 31.288, -25.9098 ], [ 31.2854, -25.915 ], [ 31.294, -25.9197 ], [ 31.2985, -25.9173 ], [ 31.3022, -25.9231 ], [ 31.3074, -25.9155 ], [ 31.3056, -25.9095 ], [ 31.3308, -25.9081 ], [ 31.4593, -25.8721 ], [ 31.4585, -25.8657 ], [ 31.4534, -25.8619 ], [ 31.4597, -25.8564 ], [ 31.4534, -25.843 ], [ 31.4541, -25.838 ], [ 31.4456, -25.8321 ], [ 31.448, -25.8265 ], [ 31.4533, -25.824 ], [ 31.4538, -25.817 ], [ 31.4305, -25.8448 ], [ 31.3807, -25.8076 ], [ 31.3899, -25.808 ], [ 31.3974, -25.7915 ], [ 31.3888, -25.7865 ], [ 31.3914, -25.7813 ], [ 31.3847, -25.7746 ], [ 31.3798, -25.775 ], [ 31.3772, -25.7681 ], [ 31.3606, -25.7578 ], [ 31.4207, -25.7269 ], [ 31.4152, -25.718 ] ] ] } },
{ "type": "Feature", "properties": { "iso3": "SWZ", "unit_id": "95383942B61278792489023", "unit_name": "Mayiwane" }, "geometry": { "type": "Polygon", "coordinates": [ [ [ 31.4511, -25.8206 ], [ 31.4538, -25.817 ], [ 31.4533, -25.824 ], [ 31.448, -25.8265 ], [ 31.4456, -25.8321 ], [ 31.4541, -25.838 ], [ 31.4534, -25.843 ], [ 31.4597, -25.8564 ], [ 31.4534, -25.8619 ], [ 31.4585, -25.8657 ], [ 31.4593, -25.8721 ], [ 31.437, -25.8783 ], [ 31.428, -25.9147 ], [ 31.4328, -25.9235 ], [ 31.4413, -25.9191 ], [ 31.4485, -25.9086 ], [ 31.4525, -25.9072 ], [ 31.456, -25.9101 ], [ 31.461, -25.9073 ], [ 31.4781, -25.921 ], [ 31.5288, -25.9255 ], [ 31.5505, -25.9397 ], [ 31.559, -25.941 ], [ 31.562, -25.946 ], [ 31.5811, -25.9323 ], [ 31.5785, -25.9302 ], [ 31.5817, -25.9294 ], [ 31.5827, -25.9143 ], [ 31.5796, -25.9046 ], [ 31.5723, -25.8993 ], [ 31.5624, -25.9008 ], [ 31.5575, -25.8879 ], [ 31.5659, -25.8832 ], [ 31.5763, -25.8828 ], [ 31.5832, -25.8765 ], [ 31.583, -25.8716 ], [ 31.5741, -25.862 ], [ 31.5627, -25.8589 ], [ 31.5567, -25.8535 ], [ 31.554, -25.8398 ], [ 31.5596, -25.837 ], [ 31.5608, -25.8223 ], [ 31.5716, -25.8198 ], [ 31.5643, -25.8117 ], [ 31.488, -25.7644 ], [ 31.4843, -25.7671 ], [ 31.4808, -25.7865 ], [ 31.4751, -25.7917 ], [ 31.4753, -25.8032 ], [ 31.4666, -25.8051 ], [ 31.4626, -25.8134 ], [ 31.4601, -25.8059 ], [ 31.4545, -25.801 ], [ 31.4433, -25.8072 ], [ 31.4419, -25.8132 ], [ 31.4511, -25.8206 ] ] ] } },
{ "type": "Feature", "properties": { "iso3": "SWZ", "unit_id": "95383942B58698205084287", "unit_name": "Mhlangatane" }, "geometry": { "type": "Polygon", "coordinates": [ [ [ 31.5101, -25.9251 ], [ 31.5098, -25.9347 ], [ 31.5145, -25.9321 ], [ 31.5195, -25.9358 ], [ 31.5261, -25.9323 ], [ 31.5291, -25.9368 ], [ 31.5363, -25.9385 ], [ 31.5348, -26.0315 ], [ 31.5489, -26.0405 ], [ 31.5509, -26.0315 ], [ 31.5483, -26.0232 ], [ 31.5585, -26.017 ], [ 31.568, -26.019 ], [ 31.5723, -26.0119 ], [ 31.5771, -26.0129 ], [ 31.5818, -26.008 ], [ 31.5891, -26.0148 ], [ 31.5949, -26.0103 ], [ 31.5918, -26.001 ], [ 31.5963, -26.0015 ], [ 31.6143, -26.0262 ], [ 31.6068, -26.0378 ], [ 31.6195, -26.0437 ], [ 31.6251, -26.0389 ], [ 31.6338, -26.0513 ], [ 31.6533, -26.0481 ], [ 31.6673, -26.053 ], [ 31.6633, -26.0202 ], [ 31.6645, -25.9456 ], [ 31.6724, -25.9422 ], [ 31.6826, -25.9495 ], [ 31.6928, -25.9515 ], [ 31.6989, -25.9471 ], [ 31.7213, -25.9414 ], [ 31.7238, -25.9437 ], [ 31.7199, -25.9476 ], [ 31.7218, -25.95 ], [ 31.7367, -25.9483 ], [ 31.7395, -25.9525 ], [ 31.7439, -25.953 ], [ 31.7494, -25.9505 ], [ 31.7478, -25.9443 ], [ 31.7598, -25.9331 ], [ 31.5643, -25.8117 ], [ 31.5716, -25.8198 ], [ 31.5608, -25.8223 ], [ 31.5596, -25.837 ], [ 31.554, -25.8398 ], [ 31.5567, -25.8535 ], [ 31.5627, -25.8589 ], [ 31.5741, -25.862 ], [ 31.583, -25.8716 ], [ 31.5832, -25.8765 ], [ 31.5763, -25.8828 ], [ 31.5659, -25.8832 ], [ 31.5575, -25.8879 ], [ 31.5624, -25.9008 ], [ 31.5723, -25.8993 ], [ 31.5796, -25.9046 ], [ 31.5827, -25.9143 ], [ 31.5817, -25.9294 ], [ 31.5785, -25.9302 ], [ 31.5811, -25.9323 ], [ 31.562, -25.946 ], [ 31.559, -25.941 ], [ 31.5505, -25.9397 ], [ 31.5288, -25.9255 ], [ 31.5101, -25.9251 ] ] ] } },
{ "type": "Feature", "properties": { "iso3": "SWZ", "unit_id": "95383942B20916066165469", "unit_name": "Ndzingeni" }, "geometry": { "type": "Polygon", "coordinates": [ [ [ 31.428, -25.9147 ], [ 31.4175, -25.9563 ], [ 31.3653, -25.9274 ], [ 31.3436, -25.9461 ], [ 31.3868, -25.9765 ], [ 31.3556, -26.0091 ], [ 31.362, -26.0183 ], [ 31.357, -26.0233 ], [ 31.3057, -26.015 ], [ 31.31, -26.0206 ], [ 31.3117, -26.0344 ], [ 31.3206, -26.0381 ], [ 31.3259, -26.0485 ], [ 31.3362, -26.0581 ], [ 31.3398, -26.0573 ], [ 31.3394, -26.0617 ], [ 31.3455, -26.0663 ], [ 31.3459, -26.0704 ], [ 31.3433, -26.0686 ], [ 31.3405, -26.0733 ], [ 31.3471, -26.0761 ], [ 31.347, -26.0813 ], [ 31.358, -26.0825 ], [ 31.3656, -26.0934 ], [ 31.3696, -26.0878 ], [ 31.3875, -26.0833 ], [ 31.3949, -26.0959 ], [ 31.4085, -26.1051 ], [ 31.4211, -26.0962 ], [ 31.437, -26.0907 ], [ 31.4302, -26.0782 ], [ 31.4368, -26.0607 ], [ 31.4406, -26.0587 ], [ 31.4401, -26.0534 ], [ 31.4452, -26.0619 ], [ 31.4783, -26.0854 ], [ 31.4953, -26.0371 ], [ 31.4725, -26.0217 ], [ 31.4862, -26.0234 ], [ 31.501, -26.0312 ], [ 31.505, -26.026 ], [ 31.5258, -26.0327 ], [ 31.5349, -26.0252 ], [ 31.5363, -25.9385 ], [ 31.5291, -25.9368 ], [ 31.5261, -25.9323 ], [ 31.5195, -25.9358 ], [ 31.5145, -25.9321 ], [ 31.5098, -25.9347 ], [ 31.5101, -25.9251 ], [ 31.4781, -25.921 ], [ 31.461, -25.9073 ], [ 31.456, -25.9101 ], [ 31.4525, -25.9072 ], [ 31.4485, -25.9086 ], [ 31.4413, -25.9191 ], [ 31.4328, -25.9235 ], [ 31.428, -25.9147 ] ] ] } },
{ "type": "Feature", "properties": { "iso3": "SWZ", "unit_id": "95383942B60156589732792", "unit_name": "Madlangempisi" }, "geometry": { "type": "Polygon", "coordinates": [ [ [ 31.5349, -26.0252 ], [ 31.5258, -26.0327 ], [ 31.505, -26.026 ], [ 31.501, -26.0312 ], [ 31.4862, -26.0234 ], [ 31.4725, -26.0217 ], [ 31.4953, -26.0371 ], [ 31.4783, -26.0854 ], [ 31.4452, -26.0619 ], [ 31.4401, -26.0534 ], [ 31.4406, -26.0587 ], [ 31.4368, -26.0607 ], [ 31.4302, -26.0782 ], [ 31.437, -26.0907 ], [ 31.4405, -26.0907 ], [ 31.4498, -26.101 ], [ 31.4542, -26.1149 ], [ 31.4657, -26.1164 ], [ 31.4565, -26.1269 ], [ 31.4553, -26.141 ], [ 31.4654, -26.1397 ], [ 31.4679, -26.1536 ], [ 31.5174, -26.1363 ], [ 31.5174, -26.1789 ], [ 31.5425, -26.1829 ], [ 31.5442, -26.1788 ], [ 31.5536, -26.1779 ], [ 31.5652, -26.1705 ], [ 31.5712, -26.1701 ], [ 31.5671, -26.1642 ], [ 31.5699, -26.1628 ], [ 31.5866, -26.1719 ], [ 31.5912, -26.1653 ], [ 31.5936, -26.1683 ], [ 31.6003, -26.1668 ], [ 31.6116, -26.1718 ], [ 31.625, -26.1662 ], [ 31.6279, -26.1715 ], [ 31.6349, -26.1687 ], [ 31.64, -26.1704 ], [ 31.6435, -26.1644 ], [ 31.6674, -26.1621 ], [ 31.6748, -26.1587 ], [ 31.6748, -26.1507 ], [ 31.6827, -26.1533 ], [ 31.686, -26.137 ], [ 31.682, -26.1282 ], [ 31.6764, -26.1261 ], [ 31.6673, -26.053 ], [ 31.6533, -26.0481 ], [ 31.6338, -26.0513 ], [ 31.6251, -26.0389 ], [ 31.6195, -26.0437 ], [ 31.6068, -26.0378 ], [ 31.6143, -26.0262 ], [ 31.5963, -26.0015 ], [ 31.5918, -26.001 ], [ 31.5949, -26.0103 ], [ 31.5891, -26.0148 ], [ 31.5818, -26.008 ], [ 31.5771, -26.0129 ], [ 31.5723, -26.0119 ], [ 31.568, -26.019 ], [ 31.5585, -26.017 ], [ 31.5483, -26.0232 ], [ 31.5509, -26.0315 ], [ 31.5489, -26.0405 ], [ 31.5348, -26.0315 ], [ 31.5349, -26.0252 ] ] ] } },
{ "type": "Feature", "properties": { "iso3": "SWZ", "unit_id": "95383942B83205784285541", "unit_name": "Maphalaleni" }, "geometry": { "type": "Polygon", "coordinates": [ [ [ 31.358, -26.0825 ], [ 31.337, -26.0809 ], [ 31.3313, -26.0846 ], [ 31.3221, -26.0731 ], [ 31.3062, -26.0819 ], [ 31.3042, -26.087 ], [ 31.2997, -26.086 ], [ 31.2946, -26.0942 ], [ 31.302, -26.0983 ], [ 31.3047, -26.0966 ], [ 31.3077, -26.1022 ], [ 31.2966, -26.1109 ], [ 31.3008, -26.1215 ], [ 31.2896, -26.123 ], [ 31.2897, -26.128 ], [ 31.2844, -26.1235 ], [ 31.2691, -26.133 ], [ 31.269, -26.1181 ], [ 31.2392, -26.1181 ], [ 31.2391, -26.1814 ], [ 31.2217, -26.1742 ], [ 31.2078, -26.1924 ], [ 31.2223, -26.2045 ], [ 31.2127, -26.2208 ], [ 31.2194, -26.2267 ], [ 31.2247, -26.2393 ], [ 31.2206, -26.2445 ], [ 31.2291, -26.2509 ], [ 31.2338, -26.2645 ], [ 31.2494, -26.2695 ], [ 31.2505, -26.2731 ], [ 31.2565, -26.2705 ], [ 31.2604, -26.2773 ], [ 31.2661, -26.28 ], [ 31.2688, -26.2934 ], [ 31.2755, -26.2962 ], [ 31.278, -26.3008 ], [ 31.2723, -26.3309 ], [ 31.2791, -26.3321 ], [ 31.2974, -26.3202 ], [ 31.2972, -26.3164 ], [ 31.3523, -26.3048 ], [ 31.3705, -26.2758 ], [ 31.3737, -26.2766 ], [ 31.3725, -26.2819 ], [ 31.3818, -26.2909 ], [ 31.388, -26.2876 ], [ 31.3895, -26.2831 ], [ 31.4001, -26.2812 ], [ 31.404, -26.2846 ], [ 31.4016, -26.2908 ], [ 31.4063, -26.2966 ], [ 31.4332, -26.2807 ], [ 31.4371, -26.2689 ], [ 31.4559, -26.2683 ], [ 31.4598, -26.2643 ], [ 31.4592, -26.2575 ], [ 31.4695, -26.2495 ], [ 31.4854, -26.2478 ], [ 31.4831, -26.2552 ], [ 31.4942, -26.2542 ], [ 31.5024, -26.2573 ], [ 31.5155, -26.2466 ], [ 31.5086, -26.2412 ], [ 31.5146, -26.2328 ], [ 31.5277, -26.2328 ], [ 31.5254, -26.2287 ], [ 31.5122, -26.2237 ], [ 31.5133, -26.2213 ], [ 31.5081, -26.2163 ], [ 31.5207, -26.2131 ], [ 31.5245, -26.2178 ], [ 31.5381, -26.2183 ], [ 31.5396, -26.2061 ], [ 31.549, -26.2038 ], [ 31.5453, -26.1973 ], [ 31.5472, -26.1891 ], [ 31.5425, -26.1829 ], [ 31.5174, -26.1789 ], [ 31.5174, -26.1363 ], [ 31.4679, -26.1536 ], [ 31.4654, -26.1397 ], [ 31.4553, -26.141 ], [ 31.4565, -26.1269 ], [ 31.4657, -26.1164 ], [ 31.4542, -26.1149 ], [ 31.4498, -26.101 ], [ 31.4405, -26.0907 ], [ 31.4211, -26.0962 ], [ 31.4085, -26.1051 ], [ 31.3949, -26.0959 ], [ 31.3875, -26.0833 ], [ 31.3696, -26.0878 ], [ 31.3656, -26.0934 ], [ 31.358, -26.0825 ] ] ] } },
{ "type": "Feature", "properties": { "iso3": "SWZ", "unit_id": "95383942B54504876195491", "unit_name": "Pigg's Peak" }, "geometry": { "type": "Polygon", "coordinates": [ [ [ 31.2394, -25.8292 ], [ 31.1266, -25.9213 ], [ 31.1162, -25.9668 ], [ 31.1317, -25.9791 ], [ 31.1421, -25.9949 ], [ 31.1526, -25.9931 ], [ 31.1507, -25.9948 ], [ 31.1538, -25.9992 ], [ 31.1384, -26.0287 ], [ 31.1449, -26.0409 ], [ 31.1424, -26.0538 ], [ 31.1491, -26.0554 ], [ 31.1541, -26.0526 ], [ 31.1637, -26.0389 ], [ 31.168, -26.0399 ], [ 31.1764, -26.0501 ], [ 31.181, -26.063 ], [ 31.188, -26.0664 ], [ 31.2266, -26.0589 ], [ 31.2358, -26.051 ], [ 31.2535, -26.0567 ], [ 31.2527, -26.0609 ], [ 31.246, -26.0645 ], [ 31.2463, -26.0689 ], [ 31.25, -26.072 ], [ 31.2575, -26.0711 ], [ 31.2676, -26.0867 ], [ 31.277, -26.0852 ], [ 31.2764, -26.0801 ], [ 31.281, -26.0728 ], [ 31.2901, -26.0738 ], [ 31.2915, -26.0815 ], [ 31.3042, -26.087 ], [ 31.3062, -26.0819 ], [ 31.3221, -26.0731 ], [ 31.3313, -26.0846 ], [ 31.337, -26.0809 ], [ 31.347, -26.0813 ], [ 31.3471, -26.0761 ], [ 31.3405, -26.0733 ], [ 31.3433, -26.0686 ], [ 31.3459, -26.0704 ], [ 31.3455, -26.0663 ], [ 31.3394, -26.0617 ], [ 31.3398, -26.0573 ], [ 31.3362, -26.0581 ], [ 31.3259, -26.0485 ], [ 31.3206, -26.0381 ], [ 31.3117, -26.0344 ], [ 31.31, -26.0206 ], [ 31.3057, -26.015 ], [ 31.357, -26.0233 ], [ 31.362, -26.0183 ], [ 31.3556, -26.0091 ], [ 31.3868, -25.9765 ], [ 31.3436, -25.9461 ], [ 31.3653, -25.9274 ], [ 31.4175, -25.9563 ], [ 31.437, -25.8783 ], [ 31.3308, -25.9081 ], [ 31.3056, -25.9095 ], [ 31.3074, -25.9155 ], [ 31.3022, -25.9231 ], [ 31.2985, -25.9173 ], [ 31.294, -25.9197 ], [ 31.2854, -25.915 ], [ 31.288, -25.9098 ], [ 31.2851, -25.8993 ], [ 31.2786, -25.8961 ], [ 31.281, -25.8903 ], [ 31.2501, -25.8412 ], [ 31.2394, -25.8292 ] ] ] } },
{ "type": "Feature", "properties": { "iso3": "SWZ", "unit_id": "95383942B54236089780022", "unit_name": "Nkhaba" }, "geometry": { "type": "Polygon", "coordinates": [ [ [ 31.2997, -26.086 ], [ 31.2915, -26.0815 ], [ 31.2901, -26.0738 ], [ 31.281, -26.0728 ], [ 31.2764, -26.0801 ], [ 31.277, -26.0852 ], [ 31.2676, -26.0867 ], [ 31.2575, -26.0711 ], [ 31.25, -26.072 ], [ 31.2463, -26.0689 ], [ 31.246, -26.0645 ], [ 31.2527, -26.0609 ], [ 31.2535, -26.0567 ], [ 31.2358, -26.051 ], [ 31.2266, -26.0589 ], [ 31.188, -26.0664 ], [ 31.181, -26.063 ], [ 31.1764, -26.0501 ], [ 31.168, -26.0399 ], [ 31.1637, -26.0389 ], [ 31.1541, -26.0526 ], [ 31.1491, -26.0554 ], [ 31.1424, -26.0538 ], [ 31.1449, -26.0409 ], [ 31.1384, -26.0287 ], [ 31.1538, -25.9992 ], [ 31.1507, -25.9948 ], [ 31.1526, -25.9931 ], [ 31.1421, -25.9949 ], [ 31.1317, -25.9791 ], [ 31.1162, -25.9668 ], [ 31.1126, -25.9825 ], [ 31.0713, -26.067 ], [ 31.0195, -26.1589 ], [ 31.0304, -26.1674 ], [ 31.0326, -26.1734 ], [ 31.0305, -26.178 ], [ 31.0124, -26.1856 ], [ 31.015, -26.1954 ], [ 31.0114, -26.2005 ], [ 31.0242, -26.2116 ], [ 31.0233, -26.2138 ], [ 31.0377, -26.2222 ], [ 31.0478, -26.2145 ], [ 31.048, -26.1974 ], [ 31.0521, -26.1954 ], [ 31.0508, -26.1928 ], [ 31.0575, -26.1933 ], [ 31.0708, -26.1685 ], [ 31.0774, -26.1671 ], [ 31.0799, -26.1619 ], [ 31.0974, -26.1595 ], [ 31.1059, -26.1524 ], [ 31.1054, -26.1641 ], [ 31.0991, -26.1709 ], [ 31.0912, -26.172 ], [ 31.0805, -26.1885 ], [ 31.0777, -26.2 ], [ 31.082, -26.216 ], [ 31.0772, -26.2228 ], [ 31.0786, -26.2333 ], [ 31.0728, -26.2347 ], [ 31.082, -26.2434 ], [ 31.0847, -26.27 ], [ 31.0969, -26.2767 ], [ 31.1009, -26.2733 ], [ 31.1089, -26.2758 ], [ 31.114, -26.2902 ], [ 31.1217, -26.2883 ], [ 31.1286, -26.2783 ], [ 31.1263, -26.2711 ], [ 31.1175, -26.2629 ], [ 31.1217, -26.2604 ], [ 31.1208, -26.2554 ], [ 31.1251, -26.2544 ], [ 31.1299, -26.2702 ], [ 31.1366, -26.2696 ], [ 31.145, -26.2805 ], [ 31.1573, -26.2727 ], [ 31.1609, -26.2623 ], [ 31.1663, -26.2611 ], [ 31.1723, -26.2522 ], [ 31.1785, -26.2513 ], [ 31.1808, -26.2544 ], [ 31.184, -26.2445 ], [ 31.1766, -26.2312 ], [ 31.1845, -26.2164 ], [ 31.1946, -26.2192 ], [ 31.1974, -26.2128 ], [ 31.2039, -26.216 ], [ 31.2068, -26.2218 ], [ 31.2127, -26.2208 ], [ 31.2223, -26.2045 ], [ 31.2078, -26.1924 ], [ 31.2217, -26.1742 ], [ 31.2391, -26.1814 ], [ 31.2392, -26.1181 ], [ 31.269, -26.1181 ], [ 31.2691, -26.133 ], [ 31.2844, -26.1235 ], [ 31.2897, -26.128 ], [ 31.2896, -26.123 ], [ 31.3008, -26.1215 ], [ 31.2966, -26.1109 ], [ 31.3077, -26.1022 ], [ 31.3047, -26.0966 ], [ 31.302, -26.0983 ], [ 31.2946, -26.0942 ], [ 31.2997, -26.086 ] ] ] } },
{ "type": "Feature", "properties": { "iso3": "SWZ", "unit_id": "95383942B89913231388455", "unit_name": "Motjane" }, "geometry": { "type": "Polygon", "coordinates": [ [ [ 31.0195, -26.1589 ], [ 30.9615, -26.2619 ], [ 30.9005, -26.3138 ], [ 30.9014, -26.318 ], [ 30.909, -26.3272 ], [ 30.9245, -26.3356 ], [ 30.9497, -26.3444 ], [ 30.9816, -26.3643 ], [ 31.045, -26.3941 ], [ 31.0728, -26.44 ], [ 31.0914, -26.4398 ], [ 31.1006, -26.4461 ], [ 31.1246, -26.4375 ], [ 31.1263, -26.4344 ], [ 31.1262, -26.4203 ], [ 31.1207, -26.4143 ], [ 31.1223, -26.4078 ], [ 31.1122, -26.3961 ], [ 31.1264, -26.3834 ], [ 31.1089, -26.3636 ], [ 31.1009, -26.3725 ], [ 31.0969, -26.3704 ], [ 31.0903, -26.3766 ], [ 31.0833, -26.3671 ], [ 31.0745, -26.3425 ], [ 31.0642, -26.3412 ], [ 31.0541, -26.3315 ], [ 31.0589, -26.3329 ], [ 31.061, -26.3301 ], [ 31.0674, -26.334 ], [ 31.0676, -26.3297 ], [ 31.0997, -26.3099 ], [ 31.0924, -26.303 ], [ 31.0844, -26.2877 ], [ 31.082, -26.2434 ], [ 31.0728, -26.2347 ], [ 31.0786, -26.2333 ], [ 31.0772, -26.2228 ], [ 31.082, -26.216 ], [ 31.0777, -26.2 ], [ 31.0805, -26.1885 ], [ 31.0912, -26.172 ], [ 31.0991, -26.1709 ], [ 31.1054, -26.1641 ], [ 31.1059, -26.1524 ], [ 31.0974, -26.1595 ], [ 31.0799, -26.1619 ], [ 31.0774, -26.1671 ], [ 31.0708, -26.1685 ], [ 31.0575, -26.1933 ], [ 31.0508, -26.1928 ], [ 31.0521, -26.1954 ], [ 31.048, -26.1974 ], [ 31.0478, -26.2145 ], [ 31.0377, -26.2222 ], [ 31.0233, -26.2138 ], [ 31.0242, -26.2116 ], [ 31.0114, -26.2005 ], [ 31.015, -26.1954 ], [ 31.0124, -26.1856 ], [ 31.0305, -26.178 ], [ 31.0326, -26.1734 ], [ 31.0304, -26.1674 ], [ 31.0195, -26.1589 ] ] ] } },
{ "type": "Feature", "properties": { "iso3": "SWZ", "unit_id": "95383942B8684245531784", "unit_name": "Mbabane West" }, "geometry": { "type": "Polygon", "coordinates": [ [ [ 31.1182, -26.3719 ], [ 31.1218, -26.364 ], [ 31.1304, -26.3561 ], [ 31.128, -26.3524 ], [ 31.1302, -26.3473 ], [ 31.1245, -26.3455 ], [ 31.1246, -26.3423 ], [ 31.1513, -26.3528 ], [ 31.1549, -26.3746 ], [ 31.1605, -26.3806 ], [ 31.1624, -26.3794 ], [ 31.1592, -26.3686 ], [ 31.1634, -26.3622 ], [ 31.1556, -26.3544 ], [ 31.1568, -26.352 ], [ 31.154, -26.3523 ], [ 31.1546, -26.3405 ], [ 31.149, -26.3339 ], [ 31.1485, -26.3269 ], [ 31.137, -26.3272 ], [ 31.1215, -26.3186 ], [ 31.1136, -26.3082 ], [ 31.1137, -26.3015 ], [ 31.0845, -26.2768 ], [ 31.0844, -26.2877 ], [ 31.0924, -26.303 ], [ 31.0997, -26.3099 ], [ 31.0676, -26.3297 ], [ 31.0674, -26.334 ], [ 31.061, -26.3301 ], [ 31.0589, -26.3329 ], [ 31.0541, -26.3315 ], [ 31.0642, -26.3412 ], [ 31.0745, -26.3425 ], [ 31.0833, -26.3671 ], [ 31.0903, -26.3766 ], [ 31.0969, -26.3704 ], [ 31.1009, -26.3725 ], [ 31.1089, -26.3636 ], [ 31.1182, -26.3719 ] ] ] } },
{ "type": "Feature", "properties": { "iso3": "SWZ", "unit_id": "95383942B96591499220713", "unit_name": "Mbabane East" }, "geometry": { "type": "Polygon", "coordinates": [ [ [ 31.0847, -26.27 ], [ 31.0845, -26.2768 ], [ 31.1137, -26.3015 ], [ 31.1136, -26.3082 ], [ 31.1215, -26.3186 ], [ 31.137, -26.3272 ], [ 31.1485, -26.3269 ], [ 31.149, -26.3339 ], [ 31.1546, -26.3405 ], [ 31.154, -26.3523 ], [ 31.1568, -26.352 ], [ 31.1608, -26.3436 ], [ 31.1704, -26.3519 ], [ 31.1779, -26.3127 ], [ 31.1637, -26.3059 ], [ 31.1657, -26.2884 ], [ 31.1602, -26.2751 ], [ 31.1663, -26.2611 ], [ 31.1609, -26.2623 ], [ 31.1573, -26.2727 ], [ 31.145, -26.2805 ], [ 31.1366, -26.2696 ], [ 31.1299, -26.2702 ], [ 31.1251, -26.2544 ], [ 31.1208, -26.2554 ], [ 31.1217, -26.2604 ], [ 31.1175, -26.2629 ], [ 31.1263, -26.2711 ], [ 31.1286, -26.2783 ], [ 31.1217, -26.2883 ], [ 31.114, -26.2902 ], [ 31.1089, -26.2758 ], [ 31.1009, -26.2733 ], [ 31.0969, -26.2767 ], [ 31.0847, -26.27 ] ] ] } },
{ "type": "Feature", "properties": { "iso3": "SWZ", "unit_id": "95383942B19019587786804", "unit_name": "Hhukwini" }, "geometry": { "type": "Polygon", "coordinates": [ [ [ 31.2127, -26.2208 ], [ 31.2068, -26.2218 ], [ 31.2039, -26.216 ], [ 31.1974, -26.2128 ], [ 31.1946, -26.2192 ], [ 31.1845, -26.2164 ], [ 31.1766, -26.2312 ], [ 31.184, -26.2445 ], [ 31.1808, -26.2544 ], [ 31.1785, -26.2513 ], [ 31.1723, -26.2522 ], [ 31.1602, -26.2751 ], [ 31.1657, -26.2884 ], [ 31.1637, -26.3059 ], [ 31.1779, -26.3127 ], [ 31.1704, -26.3519 ], [ 31.1908, -26.3753 ], [ 31.2232, -26.3975 ], [ 31.2585, -26.4438 ], [ 31.2575, -26.4255 ], [ 31.2672, -26.4053 ], [ 31.263, -26.3885 ], [ 31.2846, -26.3622 ], [ 31.2774, -26.3437 ], [ 31.2791, -26.3321 ], [ 31.2723, -26.3309 ], [ 31.278, -26.3008 ], [ 31.2755, -26.2962 ], [ 31.2688, -26.2934 ], [ 31.2661, -26.28 ], [ 31.2604, -26.2773 ], [ 31.2565, -26.2705 ], [ 31.2505, -26.2731 ], [ 31.2494, -26.2695 ], [ 31.2338, -26.2645 ], [ 31.2291, -26.2509 ], [ 31.2206, -26.2445 ], [ 31.2247, -26.2393 ], [ 31.2194, -26.2267 ], [ 31.2127, -26.2208 ] ] ] } },
{ "type": "Feature", "properties": { "iso3": "SWZ", "unit_id": "95383942B6258181253979", "unit_name": "Lobamba" }, "geometry": { "type": "Polygon", "coordinates": [ [ [ 31.1223, -26.4375 ], [ 31.123, -26.4457 ], [ 31.1377, -26.4434 ], [ 31.1354, -26.4475 ], [ 31.1382, -26.4541 ], [ 31.1488, -26.4528 ], [ 31.1576, -26.4422 ], [ 31.1634, -26.4479 ], [ 31.1712, -26.4447 ], [ 31.1823, -26.4478 ], [ 31.1941, -26.4448 ], [ 31.1952, -26.4642 ], [ 31.2004, -26.4678 ], [ 31.2111, -26.4626 ], [ 31.2209, -26.464 ], [ 31.2206, -26.4611 ], [ 31.2254, -26.4601 ], [ 31.2314, -26.466 ], [ 31.2332, -26.4791 ], [ 31.2374, -26.4774 ], [ 31.2403, -26.4802 ], [ 31.2407, -26.4689 ], [ 31.2539, -26.4701 ], [ 31.2652, -26.4606 ], [ 31.2585, -26.4438 ], [ 31.2232, -26.3975 ], [ 31.1908, -26.3753 ], [ 31.1608, -26.3436 ], [ 31.1556, -26.3544 ], [ 31.1634, -26.3622 ], [ 31.1592, -26.3686 ], [ 31.1624, -26.3794 ], [ 31.1605, -26.3806 ], [ 31.1549, -26.3746 ], [ 31.1513, -26.3528 ], [ 31.1246, -26.3423 ], [ 31.1245, -26.3455 ], [ 31.1302, -26.3473 ], [ 31.128, -26.3524 ], [ 31.1304, -26.3561 ], [ 31.1218, -26.364 ], [ 31.1182, -26.3719 ], [ 31.1264, -26.3834 ], [ 31.1122, -26.3961 ], [ 31.1223, -26.4078 ], [ 31.1207, -26.4143 ], [ 31.1262, -26.4203 ], [ 31.1263, -26.4344 ], [ 31.1223, -26.4375 ] ] ] } },
{ "type": "Feature", "properties": { "iso3": "SWZ", "unit_id": "95383942B99703995633428", "unit_name": "Mkhiweni" }, "geometry": { "type": "Polygon", "coordinates": [ [ [ 31.5425, -26.1829 ], [ 31.5472, -26.1891 ], [ 31.5453, -26.1973 ], [ 31.549, -26.2038 ], [ 31.5396, -26.2061 ], [ 31.5381, -26.2183 ], [ 31.5245, -26.2178 ], [ 31.5207, -26.2131 ], [ 31.5081, -26.2163 ], [ 31.5133, -26.2213 ], [ 31.5122, -26.2237 ], [ 31.5254, -26.2287 ], [ 31.5277, -26.2328 ], [ 31.5146, -26.2328 ], [ 31.5104, -26.2373 ], [ 31.5086, -26.2412 ], [ 31.5155, -26.2466 ], [ 31.513, -26.2498 ], [ 31.5004, -26.2574 ], [ 31.4942, -26.2542 ], [ 31.4831, -26.2552 ], [ 31.4854, -26.2478 ], [ 31.4695, -26.2495 ], [ 31.4592, -26.2575 ], [ 31.4598, -26.2643 ], [ 31.4559, -26.2683 ], [ 31.4371, -26.2689 ], [ 31.4332, -26.2807 ], [ 31.421, -26.2875 ], [ 31.4318, -26.2982 ], [ 31.4447, -26.3046 ], [ 31.449, -26.314 ], [ 31.4622, -26.3278 ], [ 31.4706, -26.3515 ], [ 31.4756, -26.3836 ], [ 31.4846, -26.3826 ], [ 31.4957, -26.3949 ], [ 31.5124, -26.3977 ], [ 31.5199, -26.3964 ], [ 31.5238, -26.385 ], [ 31.5354, -26.4341 ], [ 31.5425, -26.426 ], [ 31.5698, -26.4145 ], [ 31.5956, -26.4153 ], [ 31.6174, -26.4032 ], [ 31.6321, -26.4071 ], [ 31.6207, -26.3911 ], [ 31.6256, -26.3803 ], [ 31.6649, -26.3527 ], [ 31.6832, -26.3219 ], [ 31.683, -26.2743 ], [ 31.6861, -26.272 ], [ 31.6834, -26.2659 ], [ 31.7041, -26.2533 ], [ 31.6965, -26.2477 ], [ 31.6946, -26.2414 ], [ 31.6861, -26.2442 ], [ 31.6878, -26.2362 ], [ 31.6952, -26.2367 ], [ 31.6748, -26.1587 ], [ 31.6622, -26.1638 ], [ 31.6435, -26.1644 ], [ 31.64, -26.1704 ], [ 31.6349, -26.1687 ], [ 31.6279, -26.1715 ], [ 31.625, -26.1662 ], [ 31.6116, -26.1718 ], [ 31.6003, -26.1668 ], [ 31.5936, -26.1683 ], [ 31.5912, -26.1653 ], [ 31.5866, -26.1719 ], [ 31.5699, -26.1628 ], [ 31.5671, -26.1642 ], [ 31.5712, -26.1701 ], [ 31.5652, -26.1705 ], [ 31.5536, -26.1779 ], [ 31.5442, -26.1788 ], [ 31.5425, -26.1829 ] ] ] } },
{ "type": "Feature", "properties": { "iso3": "SWZ", "unit_id": "95383942B99133843258940", "unit_name": "Kukhanyeni" }, "geometry": { "type": "Polygon", "coordinates": [ [ [ 31.3573, -26.297 ], [ 31.364, -26.2994 ], [ 31.3654, -26.3035 ], [ 31.3754, -26.3019 ], [ 31.3657, -26.3119 ], [ 31.3886, -26.3071 ], [ 31.3896, -26.3089 ], [ 31.3822, -26.3487 ], [ 31.3783, -26.3542 ], [ 31.3791, -26.3633 ], [ 31.3672, -26.3609 ], [ 31.3632, -26.3712 ], [ 31.352, -26.3809 ], [ 31.3573, -26.3836 ], [ 31.3623, -26.3952 ], [ 31.3609, -26.4068 ], [ 31.367, -26.4162 ], [ 31.3522, -26.4235 ], [ 31.3554, -26.424 ], [ 31.362, -26.4354 ], [ 31.356, -26.4531 ], [ 31.3712, -26.4526 ], [ 31.3853, -26.463 ], [ 31.392, -26.4535 ], [ 31.4095, -26.4653 ], [ 31.4249, -26.4635 ], [ 31.4276, -26.4576 ], [ 31.4369, -26.4601 ], [ 31.43, -26.4428 ], [ 31.4385, -26.4397 ], [ 31.4472, -26.427 ], [ 31.4565, -26.4214 ], [ 31.4284, -26.4075 ], [ 31.4245, -26.4089 ], [ 31.4289, -26.4109 ], [ 31.4281, -26.418 ], [ 31.4233, -26.4175 ], [ 31.424, -26.4034 ], [ 31.4397, -26.4018 ], [ 31.4733, -26.3813 ], [ 31.4706, -26.3515 ], [ 31.4622, -26.3278 ], [ 31.449, -26.314 ], [ 31.4447, -26.3046 ], [ 31.4318, -26.2982 ], [ 31.421, -26.2875 ], [ 31.4063, -26.2966 ], [ 31.4016, -26.2908 ], [ 31.404, -26.2846 ], [ 31.4001, -26.2812 ], [ 31.3895, -26.2831 ], [ 31.388, -26.2876 ], [ 31.3818, -26.2909 ], [ 31.3725, -26.2819 ], [ 31.3737, -26.2766 ], [ 31.3705, -26.2758 ], [ 31.3573, -26.297 ] ] ] } },
{ "type": "Feature", "properties": { "iso3": "SWZ", "unit_id": "95383942B49501361152415", "unit_name": "Mafutseni" }, "geometry": { "type": "Polygon", "coordinates": [ [ [ 31.4733, -26.3813 ], [ 31.4397, -26.4018 ], [ 31.424, -26.4034 ], [ 31.4219, -26.4157 ], [ 31.4281, -26.418 ], [ 31.4289, -26.4109 ], [ 31.4245, -26.4089 ], [ 31.4284, -26.4075 ], [ 31.4565, -26.4214 ], [ 31.4472, -26.427 ], [ 31.4385, -26.4397 ], [ 31.43, -26.4428 ], [ 31.4369, -26.4601 ], [ 31.4402, -26.4591 ], [ 31.442, -26.4631 ], [ 31.4521, -26.4498 ], [ 31.4529, -26.465 ], [ 31.4504, -26.4679 ], [ 31.454, -26.4736 ], [ 31.4599, -26.4758 ], [ 31.46, -26.4834 ], [ 31.4547, -26.4878 ], [ 31.4621, -26.4958 ], [ 31.4955, -26.5094 ], [ 31.5507, -26.514 ], [ 31.5635, -26.5185 ], [ 31.5677, -26.5233 ], [ 31.5775, -26.5246 ], [ 31.5871, -26.5228 ], [ 31.5911, -26.5187 ], [ 31.607, -26.5203 ], [ 31.6109, -26.5177 ], [ 31.6039, -26.4978 ], [ 31.608, -26.4875 ], [ 31.6038, -26.4829 ], [ 31.5976, -26.4819 ], [ 31.5915, -26.4737 ], [ 31.6081, -26.4735 ], [ 31.6075, -26.4662 ], [ 31.6027, -26.4626 ], [ 31.6056, -26.4601 ], [ 31.604, -26.451 ], [ 31.6085, -26.446 ], [ 31.6015, -26.4315 ], [ 31.6033, -26.4285 ], [ 31.5993, -26.4261 ], [ 31.5956, -26.4153 ], [ 31.5698, -26.4145 ], [ 31.5425, -26.426 ], [ 31.5354, -26.4341 ], [ 31.5238, -26.385 ], [ 31.5199, -26.3964 ], [ 31.5124, -26.3977 ], [ 31.4957, -26.3949 ], [ 31.4846, -26.3826 ], [ 31.4733, -26.3813 ] ] ] } },
{ "type": "Feature", "properties": { "iso3": "SWZ", "unit_id": "95383942B55480328286463", "unit_name": "Mthongwaneni" }, "geometry": { "type": "Polygon", "coordinates": [ [ [ 31.4547, -26.4878 ], [ 31.4385, -26.4907 ], [ 31.4248, -26.4865 ], [ 31.4171, -26.4874 ], [ 31.4116, -26.4998 ], [ 31.4057, -26.503 ], [ 31.4087, -26.5062 ], [ 31.4067, -26.514 ], [ 31.3931, -26.5174 ], [ 31.3864, -26.516 ], [ 31.3839, -26.5204 ], [ 31.3804, -26.5205 ], [ 31.3768, -26.5294 ], [ 31.3806, -26.5307 ], [ 31.3809, -26.5345 ], [ 31.3773, -26.5478 ], [ 31.385, -26.5548 ], [ 31.3977, -26.5519 ], [ 31.4119, -26.5618 ], [ 31.4137, -26.5582 ], [ 31.4208, -26.5607 ], [ 31.4204, -26.5656 ], [ 31.427, -26.564 ], [ 31.4268, -26.5672 ], [ 31.4375, -26.572 ], [ 31.4431, -26.5885 ], [ 31.428, -26.5786 ], [ 31.4202, -26.579 ], [ 31.4212, -26.5853 ], [ 31.4347, -26.6033 ], [ 31.5012, -26.6165 ], [ 31.5008, -26.6211 ], [ 31.5049, -26.6253 ], [ 31.5017, -26.6315 ], [ 31.5073, -26.6368 ], [ 31.5104, -26.6477 ], [ 31.5053, -26.6531 ], [ 31.505, -26.6584 ], [ 31.5114, -26.6606 ], [ 31.5092, -26.6631 ], [ 31.5108, -26.6697 ], [ 31.5267, -26.6733 ], [ 31.5377, -26.6608 ], [ 31.5996, -26.6391 ], [ 31.5871, -26.5416 ], [ 31.5752, -26.5401 ], [ 31.5657, -26.5321 ], [ 31.5775, -26.5246 ], [ 31.5677, -26.5233 ], [ 31.5635, -26.5185 ], [ 31.5507, -26.514 ], [ 31.4955, -26.5094 ], [ 31.4621, -26.4958 ], [ 31.4547, -26.4878 ] ] ] } },
{ "type": "Feature", "properties": { "iso3": "SWZ", "unit_id": "95383942B90568029249102", "unit_name": "Manzini North" }, "geometry": { "type": "Polygon", "coordinates": [ [ [ 31.356, -26.4531 ], [ 31.3612, -26.4688 ], [ 31.3587, -26.473 ], [ 31.3516, -26.4751 ], [ 31.3371, -26.4667 ], [ 31.3274, -26.4792 ], [ 31.3368, -26.4759 ], [ 31.3423, -26.4812 ], [ 31.3357, -26.4849 ], [ 31.3399, -26.4866 ], [ 31.3486, -26.5035 ], [ 31.3584, -26.5009 ], [ 31.3592, -26.4971 ], [ 31.3658, -26.4979 ], [ 31.3676, -26.501 ], [ 31.3723, -26.5009 ], [ 31.3704, -26.4981 ], [ 31.3735, -26.4974 ], [ 31.3745, -26.5058 ], [ 31.3864, -26.5079 ], [ 31.38, -26.5128 ], [ 31.3804, -26.5205 ], [ 31.3839, -26.5204 ], [ 31.3864, -26.516 ], [ 31.3931, -26.5174 ], [ 31.4067, -26.514 ], [ 31.4087, -26.5062 ], [ 31.4057, -26.503 ], [ 31.4116, -26.4998 ], [ 31.4171, -26.4874 ], [ 31.4483, -26.4902 ], [ 31.46, -26.4834 ], [ 31.4599, -26.4758 ], [ 31.454, -26.4736 ], [ 31.4504, -26.4679 ], [ 31.4529, -26.465 ], [ 31.4521, -26.4498 ], [ 31.444, -26.4636 ], [ 31.4402, -26.4591 ], [ 31.4335, -26.4604 ], [ 31.4276, -26.4576 ], [ 31.4249, -26.4635 ], [ 31.4095, -26.4653 ], [ 31.392, -26.4535 ], [ 31.3853, -26.463 ], [ 31.3712, -26.4526 ], [ 31.356, -26.4531 ] ] ] } },
{ "type": "Feature", "properties": { "iso3": "SWZ", "unit_id": "95383942B34144920148540", "unit_name": "Manzini South" }, "geometry": { "type": "Polygon", "coordinates": [ [ [ 31.3768, -26.5294 ], [ 31.38, -26.5128 ], [ 31.3864, -26.5079 ], [ 31.3745, -26.5058 ], [ 31.3735, -26.4974 ], [ 31.3704, -26.4981 ], [ 31.3723, -26.5009 ], [ 31.3676, -26.501 ], [ 31.3658, -26.4979 ], [ 31.3592, -26.4971 ], [ 31.3584, -26.5009 ], [ 31.3486, -26.5035 ], [ 31.3645, -26.5353 ], [ 31.3652, -26.5439 ], [ 31.3739, -26.5511 ], [ 31.3801, -26.5398 ], [ 31.3806, -26.5307 ], [ 31.3768, -26.5294 ] ] ] } },
{ "type": "Feature", "properties": { "iso3": "SWZ", "unit_id": "95383942B33994789875038", "unit_name": "Kwaluseni" }, "geometry": { "type": "Polygon", "coordinates": [ [ [ 31.3347, -26.4685 ], [ 31.3208, -26.4646 ], [ 31.3153, -26.4708 ], [ 31.306, -26.4659 ], [ 31.3052, -26.4749 ], [ 31.2955, -26.4803 ], [ 31.2958, -26.4892 ], [ 31.3034, -26.4976 ], [ 31.2904, -26.5031 ], [ 31.2812, -26.5148 ], [ 31.2924, -26.5293 ], [ 31.2905, -26.5431 ], [ 31.3261, -26.5196 ], [ 31.3235, -26.5103 ], [ 31.3486, -26.5035 ], [ 31.3399, -26.4866 ], [ 31.3357, -26.4849 ], [ 31.3423, -26.4812 ], [ 31.3368, -26.4759 ], [ 31.3274, -26.4792 ], [ 31.3347, -26.4685 ] ] ] } },
{ "type": "Feature", "properties": { "iso3": "SWZ", "unit_id": "95383942B41396484120084", "unit_name": "Ludzeludze" }, "geometry": { "type": "Polygon", "coordinates": [ [ [ 31.2791, -26.3321 ], [ 31.2774, -26.3437 ], [ 31.2846, -26.3622 ], [ 31.263, -26.3885 ], [ 31.2672, -26.4053 ], [ 31.2575, -26.4255 ], [ 31.2588, -26.4495 ], [ 31.2652, -26.4606 ], [ 31.2513, -26.4694 ], [ 31.2506, -26.4755 ], [ 31.2529, -26.4823 ], [ 31.2626, -26.4805 ], [ 31.2657, -26.4832 ], [ 31.2744, -26.4829 ], [ 31.2734, -26.4931 ], [ 31.2818, -26.4971 ], [ 31.2782, -26.4985 ], [ 31.2786, -26.5021 ], [ 31.2852, -26.4991 ], [ 31.2891, -26.4899 ], [ 31.2958, -26.4892 ], [ 31.2955, -26.4803 ], [ 31.3052, -26.4749 ], [ 31.306, -26.4659 ], [ 31.3153, -26.4708 ], [ 31.3208, -26.4646 ], [ 31.341, -26.4677 ], [ 31.3516, -26.4751 ], [ 31.3587, -26.473 ], [ 31.3602, -26.4635 ], [ 31.3555, -26.4562 ], [ 31.362, -26.4354 ], [ 31.3554, -26.424 ], [ 31.3522, -26.4235 ], [ 31.367, -26.4162 ], [ 31.3609, -26.4068 ], [ 31.3623, -26.3952 ], [ 31.3573, -26.3836 ], [ 31.352, -26.3809 ], [ 31.3632, -26.3712 ], [ 31.3672, -26.3609 ], [ 31.3791, -26.3633 ], [ 31.3783, -26.3542 ], [ 31.3822, -26.3487 ], [ 31.3896, -26.3089 ], [ 31.3886, -26.3071 ], [ 31.3657, -26.3119 ], [ 31.3754, -26.3019 ], [ 31.3654, -26.3035 ], [ 31.364, -26.2994 ], [ 31.3573, -26.297 ], [ 31.3523, -26.3048 ], [ 31.2972, -26.3164 ], [ 31.2974, -26.3202 ], [ 31.2791, -26.3321 ] ] ] } },
{ "type": "Feature", "properties": { "iso3": "SWZ", "unit_id": "95383942B26885110168686", "unit_name": "Lobamba Lomdzala" }, "geometry": { "type": "Polygon", "coordinates": [ [ [ 31.1576, -26.4422 ], [ 31.1594, -26.4761 ], [ 31.1751, -26.4829 ], [ 31.1638, -26.4979 ], [ 31.168, -26.4989 ], [ 31.1669, -26.502 ], [ 31.1599, -26.5048 ], [ 31.1567, -26.5131 ], [ 31.1613, -26.5223 ], [ 31.1586, -26.5248 ], [ 31.1636, -26.5295 ], [ 31.1551, -26.5286 ], [ 31.1268, -26.5348 ], [ 31.1505, -26.5733 ], [ 31.1468, -26.5781 ], [ 31.1487, -26.5888 ], [ 31.1557, -26.5885 ], [ 31.1606, -26.5958 ], [ 31.1669, -26.5892 ], [ 31.1822, -26.5899 ], [ 31.1902, -26.5846 ], [ 31.1968, -26.596 ], [ 31.2057, -26.5913 ], [ 31.2121, -26.5968 ], [ 31.2262, -26.5857 ], [ 31.2333, -26.5869 ], [ 31.2364, -26.5767 ], [ 31.2428, -26.5742 ], [ 31.2436, -26.5636 ], [ 31.2566, -26.5575 ], [ 31.2658, -26.5588 ], [ 31.2645, -26.5662 ], [ 31.2682, -26.569 ], [ 31.2769, -26.5652 ], [ 31.287, -26.5679 ], [ 31.2812, -26.556 ], [ 31.2922, -26.5507 ], [ 31.29, -26.5325 ], [ 31.2924, -26.5293 ], [ 31.2812, -26.5148 ], [ 31.2904, -26.5031 ], [ 31.3033, -26.4954 ], [ 31.2958, -26.4892 ], [ 31.2891, -26.4899 ], [ 31.2852, -26.4991 ], [ 31.2786, -26.5021 ], [ 31.2782, -26.4985 ], [ 31.2818, -26.4971 ], [ 31.2734, -26.4931 ], [ 31.2744, -26.4829 ], [ 31.2657, -26.4832 ], [ 31.2626, -26.4805 ], [ 31.2529, -26.4823 ], [ 31.2513, -26.4694 ], [ 31.2407, -26.4689 ], [ 31.2403, -26.4802 ], [ 31.2374, -26.4774 ], [ 31.2332, -26.4791 ], [ 31.2314, -26.466 ], [ 31.2254, -26.4601 ], [ 31.2206, -26.4611 ], [ 31.2209, -26.464 ], [ 31.2111, -26.4626 ], [ 31.2004, -26.4678 ], [ 31.1952, -26.4642 ], [ 31.1941, -26.4448 ], [ 31.1823, -26.4478 ], [ 31.1712, -26.4447 ], [ 31.1634, -26.4479 ], [ 31.1576, -26.4422 ] ] ] } },
{ "type": "Feature", "properties": { "iso3": "SWZ", "unit_id": "95383942B37909477644740", "unit_name": "Nhlambeni" }, "geometry": { "type": "Polygon", "coordinates": [ [ [ 31.3773, -26.5478 ], [ 31.3739, -26.5511 ], [ 31.3652, -26.5439 ], [ 31.3645, -26.5353 ], [ 31.3486, -26.5035 ], [ 31.3235, -26.5103 ], [ 31.3261, -26.5196 ], [ 31.2905, -26.5431 ], [ 31.2922, -26.5507 ], [ 31.2812, -26.556 ], [ 31.287, -26.5679 ], [ 31.2914, -26.5886 ], [ 31.312, -26.5898 ], [ 31.3136, -26.6018 ], [ 31.3193, -26.5915 ], [ 31.3347, -26.5959 ], [ 31.3334, -26.607 ], [ 31.3461, -26.611 ], [ 31.36, -26.6295 ], [ 31.3681, -26.6343 ], [ 31.3693, -26.644 ], [ 31.3753, -26.6516 ], [ 31.3725, -26.6642 ], [ 31.3777, -26.6677 ], [ 31.3828, -26.6782 ], [ 31.3928, -26.6819 ], [ 31.397, -26.6797 ], [ 31.3982, -26.6859 ], [ 31.3885, -26.688 ], [ 31.3848, -26.6952 ], [ 31.3709, -26.6966 ], [ 31.3898, -26.7392 ], [ 31.3963, -26.7371 ], [ 31.3917, -26.7328 ], [ 31.3928, -26.7283 ], [ 31.4092, -26.7218 ], [ 31.4083, -26.7119 ], [ 31.4276, -26.7003 ], [ 31.4369, -26.7115 ], [ 31.4421, -26.7105 ], [ 31.445, -26.7249 ], [ 31.458, -26.7443 ], [ 31.4551, -26.7566 ], [ 31.4818, -26.7686 ], [ 31.4806, -26.7437 ], [ 31.4881, -26.7357 ], [ 31.4849, -26.7278 ], [ 31.4964, -26.7166 ], [ 31.5078, -26.6978 ], [ 31.5121, -26.6791 ], [ 31.5092, -26.6631 ], [ 31.5114, -26.6606 ], [ 31.505, -26.6584 ], [ 31.5053, -26.6531 ], [ 31.5104, -26.6477 ], [ 31.5073, -26.6368 ], [ 31.5017, -26.6315 ], [ 31.5049, -26.6253 ], [ 31.5008, -26.6211 ], [ 31.5012, -26.6165 ], [ 31.4347, -26.6033 ], [ 31.4212, -26.5853 ], [ 31.4202, -26.579 ], [ 31.428, -26.5786 ], [ 31.4431, -26.5885 ], [ 31.4375, -26.572 ], [ 31.4268, -26.5672 ], [ 31.427, -26.564 ], [ 31.4204, -26.5656 ], [ 31.4208, -26.5607 ], [ 31.4137, -26.5582 ], [ 31.4119, -26.5618 ], [ 31.3977, -26.5519 ], [ 31.385, -26.5548 ], [ 31.3773, -26.5478 ] ] ] } },
{ "type": "Feature", "properties": { "iso3": "SWZ", "unit_id": "95383942B91660303487042", "unit_name": "Ntondozi" }, "geometry": { "type": "Polygon", "coordinates": [ [ [ 31.1557, -26.5885 ], [ 31.1243, -26.5866 ], [ 31.1196, -26.5938 ], [ 31.0997, -26.5795 ], [ 31.0822, -26.5828 ], [ 31.0796, -26.5885 ], [ 31.0831, -26.5942 ], [ 31.0837, -26.6063 ], [ 31.0937, -26.6118 ], [ 31.091, -26.6151 ], [ 31.0965, -26.6245 ], [ 31.093, -26.6333 ], [ 31.0978, -26.6374 ], [ 31.1088, -26.6383 ], [ 31.1177, -26.6314 ], [ 31.129, -26.6403 ], [ 31.1332, -26.6381 ], [ 31.1542, -26.6442 ], [ 31.1654, -26.6415 ], [ 31.1677, -26.6253 ], [ 31.1743, -26.6281 ], [ 31.1801, -26.6398 ], [ 31.1836, -26.6384 ], [ 31.1913, -26.6448 ], [ 31.2058, -26.6423 ], [ 31.2125, -26.635 ], [ 31.228, -26.6338 ], [ 31.2398, -26.6457 ], [ 31.2474, -26.6397 ], [ 31.2615, -26.6397 ], [ 31.2618, -26.6346 ], [ 31.2694, -26.6242 ], [ 31.2788, -26.6546 ], [ 31.2731, -26.6666 ], [ 31.2745, -26.677 ], [ 31.2828, -26.6749 ], [ 31.281, -26.6885 ], [ 31.2907, -26.691 ], [ 31.3, -26.7082 ], [ 31.3173, -26.7153 ], [ 31.338, -26.7149 ], [ 31.3433, -26.7122 ], [ 31.3477, -26.7037 ], [ 31.3611, -26.7069 ], [ 31.3616, -26.6956 ], [ 31.3848, -26.6952 ], [ 31.3885, -26.688 ], [ 31.3982, -26.6859 ], [ 31.397, -26.6797 ], [ 31.3928, -26.6819 ], [ 31.3828, -26.6782 ], [ 31.3777, -26.6677 ], [ 31.3725, -26.6642 ], [ 31.3753, -26.6516 ], [ 31.3693, -26.644 ], [ 31.3681, -26.6343 ], [ 31.36, -26.6295 ], [ 31.3461, -26.611 ], [ 31.3334, -26.607 ], [ 31.3347, -26.5959 ], [ 31.3193, -26.5915 ], [ 31.3136, -26.6018 ], [ 31.312, -26.5898 ], [ 31.2914, -26.5886 ], [ 31.287, -26.5679 ], [ 31.2769, -26.5652 ], [ 31.2682, -26.569 ], [ 31.2645, -26.5662 ], [ 31.2666, -26.5612 ], [ 31.263, -26.5574 ], [ 31.2436, -26.5636 ], [ 31.2428, -26.5742 ], [ 31.2364, -26.5767 ], [ 31.2333, -26.5869 ], [ 31.2262, -26.5857 ], [ 31.2121, -26.5968 ], [ 31.2057, -26.5913 ], [ 31.1968, -26.596 ], [ 31.1902, -26.5846 ], [ 31.1822, -26.5899 ], [ 31.1669, -26.5892 ], [ 31.1606, -26.5958 ], [ 31.1557, -26.5885 ] ] ] } },
{ "type": "Feature", "properties": { "iso3": "SWZ", "unit_id": "95383942B50834161001607", "unit_name": "La-Mgabhi" }, "geometry": { "type": "Polygon", "coordinates": [ [ [ 31.1268, -26.5348 ], [ 31.106, -26.5394 ], [ 31.1079, -26.5463 ], [ 31.1027, -26.543 ], [ 31.0888, -26.513 ], [ 31.0813, -26.5075 ], [ 31.0874, -26.4985 ], [ 31.0802, -26.4964 ], [ 31.037, -26.516 ], [ 31.0127, -26.5341 ], [ 31.0374, -26.5537 ], [ 31.0348, -26.5894 ], [ 31.0299, -26.5941 ], [ 31.0209, -26.5929 ], [ 31.0072, -26.6044 ], [ 30.991, -26.6042 ], [ 30.9891, -26.6181 ], [ 30.9924, -26.6203 ], [ 31.0078, -26.6182 ], [ 31.0133, -26.622 ], [ 31.0287, -26.6173 ], [ 31.0849, -26.6186 ], [ 31.0831, -26.5942 ], [ 31.0796, -26.5885 ], [ 31.0822, -26.5828 ], [ 31.0896, -26.5804 ], [ 31.0997, -26.5795 ], [ 31.1196, -26.5938 ], [ 31.1243, -26.5866 ], [ 31.1487, -26.5888 ], [ 31.1468, -26.5781 ], [ 31.1505, -26.5733 ], [ 31.1268, -26.5348 ] ] ] } },
{ "type": "Feature", "properties": { "iso3": "SWZ", "unit_id": "95383942B50865189013187", "unit_name": "Mhlambanyatsi" }, "geometry": { "type": "Polygon", "coordinates": [ [ [ 30.9005, -26.3138 ], [ 30.8919, -26.3211 ], [ 30.8577, -26.3839 ], [ 30.8505, -26.3912 ], [ 30.8596, -26.3985 ], [ 30.8589, -26.4268 ], [ 30.851, -26.4349 ], [ 30.8623, -26.4455 ], [ 30.848, -26.4756 ], [ 30.854, -26.4841 ], [ 30.8617, -26.4825 ], [ 30.8632, -26.4783 ], [ 30.8712, -26.4867 ], [ 30.8829, -26.4909 ], [ 30.8905, -26.4847 ], [ 30.8961, -26.4865 ], [ 30.9002, -26.4923 ], [ 30.8936, -26.4974 ], [ 30.9058, -26.511 ], [ 30.9133, -26.5004 ], [ 30.9224, -26.5054 ], [ 30.9271, -26.5117 ], [ 30.9201, -26.5176 ], [ 30.9241, -26.5225 ], [ 30.9241, -26.5287 ], [ 30.9184, -26.5368 ], [ 30.91, -26.54 ], [ 30.9128, -26.5469 ], [ 30.9525, -26.5543 ], [ 30.9692, -26.5492 ], [ 30.9874, -26.5481 ], [ 30.9951, -26.5398 ], [ 31.0024, -26.5433 ], [ 31.0062, -26.5366 ], [ 31.0064, -26.5444 ], [ 31.0177, -26.5492 ], [ 31.0217, -26.5425 ], [ 31.0127, -26.5341 ], [ 31.0174, -26.5289 ], [ 31.037, -26.516 ], [ 31.0802, -26.4964 ], [ 31.0874, -26.4985 ], [ 31.0813, -26.5075 ], [ 31.0888, -26.513 ], [ 31.1027, -26.543 ], [ 31.1079, -26.5463 ], [ 31.106, -26.5394 ], [ 31.1551, -26.5286 ], [ 31.1636, -26.5295 ], [ 31.1586, -26.5248 ], [ 31.1613, -26.5223 ], [ 31.1567, -26.5131 ], [ 31.1599, -26.5048 ], [ 31.1669, -26.502 ], [ 31.168, -26.4989 ], [ 31.1638, -26.4979 ], [ 31.1751, -26.4829 ], [ 31.1594, -26.4761 ], [ 31.1576, -26.4422 ], [ 31.1488, -26.4528 ], [ 31.1382, -26.4541 ], [ 31.1354, -26.4475 ], [ 31.1377, -26.4434 ], [ 31.123, -26.4457 ], [ 31.1223, -26.4375 ], [ 31.1006, -26.4461 ], [ 31.0914, -26.4398 ], [ 31.0728, -26.44 ], [ 31.045, -26.3941 ], [ 30.9816, -26.3643 ], [ 30.9497, -26.3444 ], [ 30.909, -26.3272 ], [ 30.9005, -26.3138 ] ] ] } },
{ "type": "Feature", "properties": { "iso3": "SWZ", "unit_id": "95383942B18419745652132", "unit_name": "Mangcongco" }, "geometry": { "type": "Polygon", "coordinates": [ [ [ 31.0217, -26.5425 ], [ 31.0165, -26.549 ], [ 31.0064, -26.5444 ], [ 31.0062, -26.5366 ], [ 31.0024, -26.5433 ], [ 30.9951, -26.5398 ], [ 30.9874, -26.5481 ], [ 30.9692, -26.5492 ], [ 30.9525, -26.5543 ], [ 30.9128, -26.5469 ], [ 30.91, -26.54 ], [ 30.9184, -26.5368 ], [ 30.9241, -26.5287 ], [ 30.9241, -26.5225 ], [ 30.9201, -26.5176 ], [ 30.9271, -26.5117 ], [ 30.9224, -26.5054 ], [ 30.9133, -26.5004 ], [ 30.9058, -26.511 ], [ 30.8936, -26.4974 ], [ 30.9002, -26.4923 ], [ 30.8961, -26.4865 ], [ 30.8905, -26.4847 ], [ 30.8829, -26.4909 ], [ 30.8712, -26.4867 ], [ 30.8632, -26.4783 ], [ 30.8617, -26.4825 ], [ 30.854, -26.4841 ], [ 30.848, -26.4756 ], [ 30.8623, -26.4455 ], [ 30.851, -26.4349 ], [ 30.8589, -26.4268 ], [ 30.8596, -26.3985 ], [ 30.8505, -26.3912 ], [ 30.8311, -26.4111 ], [ 30.805, -26.4671 ], [ 30.7918, -26.5691 ], [ 30.7912, -26.6815 ], [ 30.8062, -26.6745 ], [ 30.8131, -26.6748 ], [ 30.8156, -26.6795 ], [ 30.8204, -26.6768 ], [ 30.8269, -26.6808 ], [ 30.8344, -26.6777 ], [ 30.8506, -26.6927 ], [ 30.8548, -26.6931 ], [ 30.856, -26.7083 ], [ 30.8643, -26.71 ], [ 30.8749, -26.7019 ], [ 30.8646, -26.6875 ], [ 30.9079, -26.6853 ], [ 30.9072, -26.6766 ], [ 30.9149, -26.6657 ], [ 30.9311, -26.6548 ], [ 30.9344, -26.6567 ], [ 30.9523, -26.6498 ], [ 30.9831, -26.6739 ], [ 31.0, -26.6236 ], [ 30.9891, -26.6181 ], [ 30.991, -26.6042 ], [ 31.0072, -26.6044 ], [ 31.0209, -26.5929 ], [ 31.0299, -26.5941 ], [ 31.0348, -26.5894 ], [ 31.0374, -26.5537 ], [ 31.0217, -26.5425 ] ] ] } },
{ "type": "Feature", "properties": { "iso3": "SWZ", "unit_id": "95383942B36325795050106", "unit_name": "Ngwempisi" }, "geometry": { "type": "Polygon", "coordinates": [ [ [ 31.0837, -26.6063 ], [ 31.0849, -26.6186 ], [ 31.0287, -26.6173 ], [ 31.0133, -26.622 ], [ 31.0078, -26.6182 ], [ 30.9924, -26.6203 ], [ 31.0, -26.6236 ], [ 30.9831, -26.6739 ], [ 30.9523, -26.6498 ], [ 30.9344, -26.6567 ], [ 30.9311, -26.6548 ], [ 30.9149, -26.6657 ], [ 30.9072, -26.6766 ], [ 30.9079, -26.6853 ], [ 30.8646, -26.6875 ], [ 30.8749, -26.7019 ], [ 30.8643, -26.71 ], [ 30.856, -26.7083 ], [ 30.8548, -26.6931 ], [ 30.8506, -26.6927 ], [ 30.8344, -26.6777 ], [ 30.8269, -26.6808 ], [ 30.8204, -26.6768 ], [ 30.8156, -26.6795 ], [ 30.8131, -26.6748 ], [ 30.8062, -26.6745 ], [ 30.7912, -26.6815 ], [ 30.7909, -26.7151 ], [ 30.8027, -26.8247 ], [ 30.8132, -26.8444 ], [ 30.8254, -26.8401 ], [ 30.8358, -26.8272 ], [ 30.8448, -26.8247 ], [ 30.8474, -26.8198 ], [ 30.8622, -26.8195 ], [ 30.8715, -26.8101 ], [ 30.8891, -26.8034 ], [ 30.8875, -26.7992 ], [ 30.8915, -26.7826 ], [ 30.897, -26.7817 ], [ 30.9052, -26.786 ], [ 30.9149, -26.7806 ], [ 30.9289, -26.7838 ], [ 30.9302, -26.7786 ], [ 30.9272, -26.7754 ], [ 30.9343, -26.7715 ], [ 30.9415, -26.775 ], [ 30.9394, -26.7834 ], [ 30.9467, -26.7937 ], [ 31.0486, -26.7762 ], [ 31.0455, -26.7659 ], [ 31.0522, -26.7588 ], [ 31.0719, -26.7584 ], [ 31.0781, -26.7629 ], [ 31.0846, -26.7626 ], [ 31.091, -26.752 ], [ 31.1014, -26.7433 ], [ 31.1018, -26.7194 ], [ 31.1042, -26.7189 ], [ 31.1053, -26.7238 ], [ 31.1141, -26.7228 ], [ 31.1209, -26.7179 ], [ 31.1244, -26.7213 ], [ 31.14, -26.7236 ], [ 31.1448, -26.7096 ], [ 31.1407, -26.705 ], [ 31.1448, -26.7016 ], [ 31.1524, -26.7043 ], [ 31.1585, -26.6995 ], [ 31.1657, -26.7032 ], [ 31.1622, -26.6862 ], [ 31.1679, -26.6839 ], [ 31.171, -26.6936 ], [ 31.1781, -26.6973 ], [ 31.1834, -26.7064 ], [ 31.2054, -26.6981 ], [ 31.2141, -26.7118 ], [ 31.23, -26.7021 ], [ 31.2491, -26.7065 ], [ 31.2625, -26.7037 ], [ 31.2676, -26.6981 ], [ 31.294, -26.6998 ], [ 31.2907, -26.691 ], [ 31.281, -26.6885 ], [ 31.2828, -26.6749 ], [ 31.2745, -26.677 ], [ 31.2731, -26.6666 ], [ 31.2788, -26.6546 ], [ 31.2694, -26.6242 ], [ 31.2618, -26.6346 ], [ 31.2615, -26.6397 ], [ 31.2474, -26.6397 ], [ 31.2398, -26.6457 ], [ 31.228, -26.6338 ], [ 31.2125, -26.635 ], [ 31.2058, -26.6423 ], [ 31.1913, -26.6448 ], [ 31.1836, -26.6384 ], [ 31.1801, -26.6398 ], [ 31.1743, -26.6281 ], [ 31.1677, -26.6253 ], [ 31.1654, -26.6415 ], [ 31.1542, -26.6442 ], [ 31.1332, -26.6381 ], [ 31.129, -26.6403 ], [ 31.1177, -26.6314 ], [ 31.1088, -26.6383 ], [ 31.0978, -26.6374 ], [ 31.093, -26.6333 ], [ 31.0965, -26.6245 ], [ 31.091, -26.6151 ], [ 31.0937, -26.6118 ], [ 31.0837, -26.6063 ] ] ] } },
{ "type": "Feature", "properties": { "iso3": "SWZ", "unit_id": "95383942B4953468377867", "unit_name": "Mahlangatsha" }, "geometry": { "type": "Polygon", "coordinates": [ [ [ 31.3709, -26.6966 ], [ 31.3616, -26.6956 ], [ 31.3611, -26.7069 ], [ 31.3477, -26.7037 ], [ 31.3433, -26.7122 ], [ 31.338, -26.7149 ], [ 31.3173, -26.7153 ], [ 31.3, -26.7082 ], [ 31.294, -26.6998 ], [ 31.2676, -26.6981 ], [ 31.2625, -26.7037 ], [ 31.2491, -26.7065 ], [ 31.23, -26.7021 ], [ 31.2141, -26.7118 ], [ 31.2054, -26.6981 ], [ 31.1834, -26.7064 ], [ 31.1781, -26.6973 ], [ 31.171, -26.6936 ], [ 31.1679, -26.6839 ], [ 31.1622, -26.6862 ], [ 31.1657, -26.7032 ], [ 31.1585, -26.6995 ], [ 31.1524, -26.7043 ], [ 31.1448, -26.7016 ], [ 31.1407, -26.705 ], [ 31.1448, -26.7096 ], [ 31.14, -26.7236 ], [ 31.1244, -26.7213 ], [ 31.1209, -26.7179 ], [ 31.1141, -26.7228 ], [ 31.1053, -26.7238 ], [ 31.1042, -26.7189 ], [ 31.1018, -26.7194 ], [ 31.1014, -26.7433 ], [ 31.091, -26.752 ], [ 31.0846, -26.7626 ], [ 31.0781, -26.7629 ], [ 31.0719, -26.7584 ], [ 31.0522, -26.7588 ], [ 31.0455, -26.7659 ], [ 31.0528, -26.7882 ], [ 31.0505, -26.8067 ], [ 31.0557, -26.8116 ], [ 31.0517, -26.8194 ], [ 31.0521, -26.8265 ], [ 31.0435, -26.8299 ], [ 31.0492, -26.8422 ], [ 31.0707, -26.8594 ], [ 31.061, -26.8917 ], [ 31.067, -26.8964 ], [ 31.071, -26.8904 ], [ 31.0743, -26.8914 ], [ 31.0759, -26.878 ], [ 31.0963, -26.8626 ], [ 31.1166, -26.8551 ], [ 31.1188, -26.8567 ], [ 31.1193, -26.8539 ], [ 31.1749, -26.8228 ], [ 31.1846, -26.8234 ], [ 31.194, -26.831 ], [ 31.2014, -26.8197 ], [ 31.2065, -26.8176 ], [ 31.2053, -26.8122 ], [ 31.2173, -26.8069 ], [ 31.2909, -26.8608 ], [ 31.292, -26.8551 ], [ 31.2983, -26.855 ], [ 31.3013, -26.8513 ], [ 31.2929, -26.8439 ], [ 31.2965, -26.8396 ], [ 31.2921, -26.8343 ], [ 31.2933, -26.8293 ], [ 31.299, -26.8264 ], [ 31.3121, -26.8334 ], [ 31.3216, -26.8307 ], [ 31.3209, -26.825 ], [ 31.3129, -26.821 ], [ 31.3052, -26.8082 ], [ 31.3063, -26.8043 ], [ 31.3217, -26.8074 ], [ 31.3342, -26.7995 ], [ 31.3841, -26.799 ], [ 31.3916, -26.7785 ], [ 31.4396, -26.7529 ], [ 31.4551, -26.7566 ], [ 31.458, -26.7443 ], [ 31.445, -26.7249 ], [ 31.4421, -26.7105 ], [ 31.4369, -26.7115 ], [ 31.4276, -26.7003 ], [ 31.4163, -26.705 ], [ 31.4083, -26.7119 ], [ 31.4092, -26.7218 ], [ 31.3928, -26.7283 ], [ 31.3917, -26.7328 ], [ 31.3963, -26.7371 ], [ 31.3898, -26.7392 ], [ 31.3709, -26.6966 ] ] ] } },
{ "type": "Feature", "properties": { "iso3": "SWZ", "unit_id": "95383942B31962716359824", "unit_name": "Kubuta" }, "geometry": { "type": "Polygon", "coordinates": [ [ [ 31.4818, -26.7686 ], [ 31.4396, -26.7529 ], [ 31.3916, -26.7785 ], [ 31.3841, -26.799 ], [ 31.3487, -26.7991 ], [ 31.3611, -26.8325 ], [ 31.3824, -26.8365 ], [ 31.3666, -26.8618 ], [ 31.3654, -26.8866 ], [ 31.393, -26.8871 ], [ 31.4111, -26.8952 ], [ 31.4184, -26.8797 ], [ 31.431, -26.8957 ], [ 31.4241, -26.9059 ], [ 31.4382, -26.9083 ], [ 31.4334, -26.9176 ], [ 31.4454, -26.917 ], [ 31.4585, -26.8918 ], [ 31.4868, -26.9103 ], [ 31.5135, -26.8791 ], [ 31.5128, -26.863 ], [ 31.5304, -26.8446 ], [ 31.5458, -26.8352 ], [ 31.5392, -26.8127 ], [ 31.557, -26.7687 ], [ 31.4887, -26.7781 ], [ 31.4818, -26.7686 ] ] ] } },
{ "type": "Feature", "properties": { "iso3": "SWZ", "unit_id": "95383942B88330517833053", "unit_name": "Nkwene" }, "geometry": { "type": "Polygon", "coordinates": [ [ [ 31.1193, -26.8539 ], [ 31.1615, -26.8852 ], [ 31.1687, -26.8867 ], [ 31.1742, -26.8821 ], [ 31.1938, -26.8871 ], [ 31.2008, -26.9007 ], [ 31.2075, -26.8972 ], [ 31.2032, -26.9075 ], [ 31.2078, -26.9097 ], [ 31.2142, -26.9203 ], [ 31.2134, -26.9246 ], [ 31.2088, -26.9254 ], [ 31.2055, -26.918 ], [ 31.1869, -26.9149 ], [ 31.1823, -26.9168 ], [ 31.1888, -26.9237 ], [ 31.1876, -26.9321 ], [ 31.1945, -26.9338 ], [ 31.1939, -26.9373 ], [ 31.1848, -26.9427 ], [ 31.1787, -26.9341 ], [ 31.1644, -26.9348 ], [ 31.1628, -26.9379 ], [ 31.1668, -26.9459 ], [ 31.16, -26.9487 ], [ 31.1601, -26.9575 ], [ 31.1476, -26.9684 ], [ 31.1495, -26.9733 ], [ 31.1464, -26.9778 ], [ 31.1728, -26.9954 ], [ 31.219, -26.9677 ], [ 31.207, -26.9476 ], [ 31.2087, -26.9449 ], [ 31.366, -26.921 ], [ 31.3658, -26.9076 ], [ 31.3488, -26.9088 ], [ 31.3481, -26.8976 ], [ 31.3514, -26.8923 ], [ 31.3655, -26.8927 ], [ 31.3666, -26.8618 ], [ 31.3824, -26.8365 ], [ 31.3611, -26.8325 ], [ 31.3487, -26.7991 ], [ 31.3342, -26.7995 ], [ 31.3217, -26.8074 ], [ 31.3063, -26.8043 ], [ 31.3052, -26.8082 ], [ 31.3129, -26.821 ], [ 31.3209, -26.825 ], [ 31.3216, -26.8307 ], [ 31.3121, -26.8334 ], [ 31.299, -26.8264 ], [ 31.2933, -26.8293 ], [ 31.2921, -26.8343 ], [ 31.2965, -26.8396 ], [ 31.2929, -26.8439 ], [ 31.3013, -26.8513 ], [ 31.2983, -26.855 ], [ 31.292, -26.8551 ], [ 31.2909, -26.8608 ], [ 31.2173, -26.8069 ], [ 31.2053, -26.8122 ], [ 31.2065, -26.8176 ], [ 31.2014, -26.8197 ], [ 31.194, -26.831 ], [ 31.1846, -26.8234 ], [ 31.1749, -26.8228 ], [ 31.1193, -26.8539 ] ] ] } },
{ "type": "Feature", "properties": { "iso3": "SWZ", "unit_id": "95383942B15657536580128", "unit_name": "Mtsambama" }, "geometry": { "type": "Polygon", "coordinates": [ [ [ 31.3654, -26.8866 ], [ 31.3655, -26.8927 ], [ 31.3514, -26.8923 ], [ 31.3481, -26.8976 ], [ 31.3488, -26.9088 ], [ 31.3658, -26.9076 ], [ 31.366, -26.921 ], [ 31.2503, -26.9386 ], [ 31.2612, -26.959 ], [ 31.2569, -26.9793 ], [ 31.2511, -26.9811 ], [ 31.2757, -26.9932 ], [ 31.2695, -26.9947 ], [ 31.2823, -26.9949 ], [ 31.284, -26.9986 ], [ 31.291, -27.0009 ], [ 31.2952, -27.0085 ], [ 31.308, -27.0159 ], [ 31.308, -27.0198 ], [ 31.3143, -27.019 ], [ 31.3256, -27.0277 ], [ 31.3316, -27.0264 ], [ 31.331, -27.0287 ], [ 31.3379, -27.0301 ], [ 31.3446, -27.0241 ], [ 31.3504, -27.0277 ], [ 31.3623, -27.0184 ], [ 31.37, -27.02 ], [ 31.3789, -27.0286 ], [ 31.3983, -27.0357 ], [ 31.401, -27.0338 ], [ 31.4001, -27.0065 ], [ 31.416, -27.0011 ], [ 31.4237, -26.9876 ], [ 31.4279, -26.9908 ], [ 31.4272, -26.9998 ], [ 31.4433, -26.9835 ], [ 31.4827, -26.9803 ], [ 31.4882, -26.9718 ], [ 31.4916, -26.9749 ], [ 31.5044, -26.9749 ], [ 31.5051, -26.9659 ], [ 31.5215, -26.9698 ], [ 31.5263, -26.9666 ], [ 31.5287, -26.9698 ], [ 31.5392, -26.9705 ], [ 31.5128, -26.9444 ], [ 31.5115, -26.9263 ], [ 31.4585, -26.8918 ], [ 31.4454, -26.917 ], [ 31.4334, -26.9176 ], [ 31.4382, -26.9083 ], [ 31.4241, -26.9059 ], [ 31.431, -26.8957 ], [ 31.4184, -26.8797 ], [ 31.4111, -26.8952 ], [ 31.393, -26.8871 ], [ 31.3654, -26.8866 ] ] ] } },
{ "type": "Feature", "properties": { "iso3": "SWZ", "unit_id": "95383942B54588811013399", "unit_name": "Gege" }, "geometry": { "type": "Polygon", "coordinates": [ [ [ 30.8875, -26.7992 ], [ 30.8934, -26.8054 ], [ 30.9028, -26.8521 ], [ 30.9069, -26.8549 ], [ 30.907, -26.86 ], [ 30.9406, -26.8839 ], [ 30.9433, -26.8888 ], [ 30.9491, -26.89 ], [ 30.9734, -26.9078 ], [ 30.9768, -26.9213 ], [ 30.9767, -26.9511 ], [ 30.9734, -26.9643 ], [ 30.9582, -26.9922 ], [ 30.985, -27.0367 ], [ 31.0383, -27.0796 ], [ 31.0407, -27.0729 ], [ 31.0453, -27.0753 ], [ 31.0484, -27.0734 ], [ 31.0503, -27.0662 ], [ 31.0716, -27.0662 ], [ 31.0709, -27.0736 ], [ 31.0872, -27.0773 ], [ 31.0904, -27.0886 ], [ 31.0917, -27.0819 ], [ 31.0951, -27.0839 ], [ 31.1013, -27.081 ], [ 31.0986, -27.0669 ], [ 31.1097, -27.0599 ], [ 31.1094, -27.056 ], [ 31.1175, -27.0501 ], [ 31.1233, -27.04 ], [ 31.1223, -27.0321 ], [ 31.13, -27.0309 ], [ 31.1429, -27.0083 ], [ 31.1493, -27.01 ], [ 31.1548, -27.0006 ], [ 31.1636, -27.0016 ], [ 31.1667, -26.9993 ], [ 31.1645, -26.9907 ], [ 31.1464, -26.9778 ], [ 31.1495, -26.9733 ], [ 31.1476, -26.9684 ], [ 31.1601, -26.9575 ], [ 31.16, -26.9487 ], [ 31.1668, -26.9459 ], [ 31.1628, -26.9379 ], [ 31.1644, -26.9348 ], [ 31.1787, -26.9341 ], [ 31.182, -26.9409 ], [ 31.1891, -26.9423 ], [ 31.1945, -26.9338 ], [ 31.1876, -26.9321 ], [ 31.1888, -26.9237 ], [ 31.1823, -26.9168 ], [ 31.1869, -26.9149 ], [ 31.2055, -26.918 ], [ 31.2088, -26.9254 ], [ 31.2134, -26.9246 ], [ 31.2142, -26.9203 ], [ 31.2078, -26.9097 ], [ 31.2032, -26.9075 ], [ 31.2075, -26.8972 ], [ 31.2008, -26.9007 ], [ 31.1938, -26.8871 ], [ 31.1742, -26.8821 ], [ 31.1687, -26.8867 ], [ 31.1615, -26.8852 ], [ 31.1193, -26.8539 ], [ 31.1188, -26.8567 ], [ 31.1166, -26.8551 ], [ 31.0963, -26.8626 ], [ 31.08, -26.8744 ], [ 31.0759, -26.878 ], [ 31.0743, -26.8914 ], [ 31.071, -26.8904 ], [ 31.067, -26.8964 ], [ 31.061, -26.8917 ], [ 31.0707, -26.8594 ], [ 31.0492, -26.8422 ], [ 31.0435, -26.8299 ], [ 31.0521, -26.8265 ], [ 31.0517, -26.8194 ], [ 31.0557, -26.8116 ], [ 31.0505, -26.8067 ], [ 31.0528, -26.7882 ], [ 31.0486, -26.7762 ], [ 30.9467, -26.7937 ], [ 30.9394, -26.7834 ], [ 30.9415, -26.775 ], [ 30.9343, -26.7715 ], [ 30.9272, -26.7754 ], [ 30.9302, -26.7786 ], [ 30.9289, -26.7838 ], [ 30.9149, -26.7806 ], [ 30.9052, -26.786 ], [ 30.897, -26.7817 ], [ 30.8915, -26.7826 ], [ 30.8875, -26.7992 ] ] ] } },
{ "type": "Feature", "properties": { "iso3": "SWZ", "unit_id": "95383942B58661123917985", "unit_name": "Mbangweni" }, "geometry": { "type": "Polygon", "coordinates": [ [ [ 31.1645, -26.9907 ], [ 31.1667, -26.9993 ], [ 31.1521, -27.0034 ], [ 31.1583, -27.0149 ], [ 31.142, -27.0466 ], [ 31.1498, -27.0567 ], [ 31.1742, -27.0763 ], [ 31.1614, -27.0858 ], [ 31.1562, -27.1053 ], [ 31.1774, -27.1242 ], [ 31.1961, -27.1182 ], [ 31.2067, -27.1281 ], [ 31.2172, -27.1186 ], [ 31.2407, -27.1318 ], [ 31.2637, -27.1526 ], [ 31.2725, -27.1524 ], [ 31.2747, -27.1605 ], [ 31.2898, -27.1588 ], [ 31.2851, -27.1541 ], [ 31.2913, -27.1365 ], [ 31.3006, -27.1411 ], [ 31.3176, -27.1108 ], [ 31.3123, -27.1078 ], [ 31.3197, -27.0962 ], [ 31.3166, -27.0898 ], [ 31.3237, -27.0907 ], [ 31.3265, -27.0947 ], [ 31.3348, -27.0796 ], [ 31.3558, -27.0835 ], [ 31.353, -27.0703 ], [ 31.3735, -27.0734 ], [ 31.3767, -27.0559 ], [ 31.3717, -27.0616 ], [ 31.3732, -27.0436 ], [ 31.3826, -27.0443 ], [ 31.3832, -27.038 ], [ 31.3983, -27.0357 ], [ 31.3789, -27.0286 ], [ 31.37, -27.02 ], [ 31.3623, -27.0184 ], [ 31.3504, -27.0277 ], [ 31.3446, -27.0241 ], [ 31.3379, -27.0301 ], [ 31.331, -27.0287 ], [ 31.3316, -27.0264 ], [ 31.3256, -27.0277 ], [ 31.3143, -27.019 ], [ 31.308, -27.0198 ], [ 31.308, -27.0159 ], [ 31.2952, -27.0085 ], [ 31.291, -27.0009 ], [ 31.284, -26.9986 ], [ 31.2823, -26.9949 ], [ 31.2695, -26.9947 ], [ 31.2757, -26.9932 ], [ 31.2511, -26.9811 ], [ 31.2569, -26.9793 ], [ 31.2612, -26.959 ], [ 31.2503, -26.9386 ], [ 31.2087, -26.9449 ], [ 31.207, -26.9476 ], [ 31.219, -26.9677 ], [ 31.1728, -26.9954 ], [ 31.1645, -26.9907 ] ] ] } },
{ "type": "Feature", "properties": { "iso3": "SWZ", "unit_id": "95383942B48889561415772", "unit_name": "Maseyisini" }, "geometry": { "type": "Polygon", "coordinates": [ [ [ 31.0383, -27.0796 ], [ 31.0613, -27.096 ], [ 31.1505, -27.2017 ], [ 31.2301, -27.2282 ], [ 31.2351, -27.2185 ], [ 31.2448, -27.2161 ], [ 31.2376, -27.2048 ], [ 31.2347, -27.1918 ], [ 31.2392, -27.1881 ], [ 31.2439, -27.1927 ], [ 31.2611, -27.1891 ], [ 31.2791, -27.1778 ], [ 31.2664, -27.1621 ], [ 31.2747, -27.1605 ], [ 31.2725, -27.1524 ], [ 31.2637, -27.1526 ], [ 31.2407, -27.1318 ], [ 31.2172, -27.1186 ], [ 31.2067, -27.1281 ], [ 31.1961, -27.1182 ], [ 31.1774, -27.1242 ], [ 31.1562, -27.1053 ], [ 31.1614, -27.0858 ], [ 31.1742, -27.0763 ], [ 31.1498, -27.0567 ], [ 31.142, -27.0466 ], [ 31.1583, -27.0149 ], [ 31.1531, -27.0069 ], [ 31.1493, -27.01 ], [ 31.1429, -27.0083 ], [ 31.13, -27.0309 ], [ 31.1223, -27.0321 ], [ 31.1233, -27.04 ], [ 31.1175, -27.0501 ], [ 31.1094, -27.056 ], [ 31.1097, -27.0599 ], [ 31.0986, -27.0669 ], [ 31.1013, -27.081 ], [ 31.0951, -27.0839 ], [ 31.0917, -27.0819 ], [ 31.0904, -27.0886 ], [ 31.0872, -27.0773 ], [ 31.0709, -27.0736 ], [ 31.0716, -27.0662 ], [ 31.0503, -27.0662 ], [ 31.0484, -27.0734 ], [ 31.0453, -27.0753 ], [ 31.0407, -27.0729 ], [ 31.0383, -27.0796 ] ] ] } },
{ "type": "Feature", "properties": { "iso3": "SWZ", "unit_id": "95383942B24571542618635", "unit_name": "Sandleni" }, "geometry": { "type": "Polygon", "coordinates": [ [ [ 31.401, -27.0338 ], [ 31.3832, -27.038 ], [ 31.3826, -27.0443 ], [ 31.3732, -27.0436 ], [ 31.3717, -27.0616 ], [ 31.3767, -27.0559 ], [ 31.3735, -27.0734 ], [ 31.353, -27.0703 ], [ 31.3558, -27.0835 ], [ 31.3348, -27.0796 ], [ 31.3262, -27.0996 ], [ 31.3326, -27.1034 ], [ 31.343, -27.0983 ], [ 31.3385, -27.1016 ], [ 31.3426, -27.1075 ], [ 31.3475, -27.1057 ], [ 31.3477, -27.1112 ], [ 31.3611, -27.1101 ], [ 31.3649, -27.1139 ], [ 31.3639, -27.1197 ], [ 31.3519, -27.1314 ], [ 31.3674, -27.1314 ], [ 31.3612, -27.1422 ], [ 31.3742, -27.1436 ], [ 31.3788, -27.1613 ], [ 31.3978, -27.1677 ], [ 31.3948, -27.1456 ], [ 31.4037, -27.134 ], [ 31.4049, -27.1248 ], [ 31.3951, -27.1152 ], [ 31.3988, -27.1085 ], [ 31.4121, -27.1014 ], [ 31.4165, -27.1058 ], [ 31.4248, -27.1072 ], [ 31.4264, -27.1005 ], [ 31.4327, -27.1083 ], [ 31.4389, -27.1009 ], [ 31.4536, -27.1089 ], [ 31.476, -27.1067 ], [ 31.4837, -27.1102 ], [ 31.483, -27.1013 ], [ 31.5043, -27.0927 ], [ 31.5089, -27.0827 ], [ 31.5047, -27.076 ], [ 31.5084, -27.0705 ], [ 31.5088, -27.0518 ], [ 31.5135, -27.0475 ], [ 31.514, -27.0401 ], [ 31.5124, -27.0306 ], [ 31.5087, -27.0274 ], [ 31.491, -27.0201 ], [ 31.4855, -27.011 ], [ 31.4807, -27.016 ], [ 31.4813, -26.9858 ], [ 31.4772, -26.9808 ], [ 31.4433, -26.9835 ], [ 31.4272, -26.9998 ], [ 31.4279, -26.9908 ], [ 31.4237, -26.9876 ], [ 31.416, -27.0011 ], [ 31.4001, -27.0065 ], [ 31.401, -27.0338 ] ] ] } },
{ "type": "Feature", "properties": { "iso3": "SWZ", "unit_id": "95383942B91578991913246", "unit_name": "Ngudzeni" }, "geometry": { "type": "Polygon", "coordinates": [ [ [ 31.4772, -26.9808 ], [ 31.4813, -26.9858 ], [ 31.4807, -27.016 ], [ 31.4855, -27.011 ], [ 31.491, -27.0201 ], [ 31.5124, -27.0306 ], [ 31.5135, -27.0475 ], [ 31.5088, -27.0518 ], [ 31.5094, -27.0648 ], [ 31.5047, -27.076 ], [ 31.5132, -27.0797 ], [ 31.5226, -27.0892 ], [ 31.5209, -27.1117 ], [ 31.5399, -27.1178 ], [ 31.5512, -27.1004 ], [ 31.5781, -27.087 ], [ 31.5827, -27.0896 ], [ 31.5898, -27.0844 ], [ 31.5946, -27.0967 ], [ 31.6116, -27.1032 ], [ 31.6156, -27.1016 ], [ 31.6093, -27.0929 ], [ 31.6125, -27.0846 ], [ 31.6078, -27.0815 ], [ 31.6071, -27.0767 ], [ 31.6022, -27.0724 ], [ 31.5858, -27.068 ], [ 31.5855, -27.0604 ], [ 31.5924, -27.0555 ], [ 31.5959, -27.0477 ], [ 31.5867, -27.0423 ], [ 31.5857, -27.0373 ], [ 31.5895, -27.0305 ], [ 31.5852, -27.0221 ], [ 31.5757, -27.0161 ], [ 31.5704, -27.0047 ], [ 31.5727, -26.9917 ], [ 31.5802, -26.9867 ], [ 31.5764, -26.9826 ], [ 31.5853, -26.9772 ], [ 31.5782, -26.9745 ], [ 31.5854, -26.9696 ], [ 31.5706, -26.9678 ], [ 31.5725, -26.9727 ], [ 31.5654, -26.9742 ], [ 31.5636, -26.9729 ], [ 31.5672, -26.9696 ], [ 31.5626, -26.9655 ], [ 31.557, -26.9738 ], [ 31.5535, -26.9729 ], [ 31.5521, -26.968 ], [ 31.5438, -26.9725 ], [ 31.5287, -26.9698 ], [ 31.5263, -26.9666 ], [ 31.5215, -26.9698 ], [ 31.5051, -26.9659 ], [ 31.5044, -26.9749 ], [ 31.4916, -26.9749 ], [ 31.4882, -26.9718 ], [ 31.4827, -26.9803 ], [ 31.4772, -26.9808 ] ] ] } },
{ "type": "Feature", "properties": { "iso3": "SWZ", "unit_id": "95383942B32864496318087", "unit_name": "Zombodze" }, "geometry": { "type": "Polygon", "coordinates": [ [ [ 31.2898, -27.1588 ], [ 31.2664, -27.1621 ], [ 31.2791, -27.1778 ], [ 31.277, -27.1795 ], [ 31.2529, -27.1917 ], [ 31.2439, -27.1927 ], [ 31.2392, -27.1881 ], [ 31.2347, -27.1918 ], [ 31.2376, -27.2048 ], [ 31.2448, -27.2161 ], [ 31.2351, -27.2185 ], [ 31.2301, -27.2282 ], [ 31.4088, -27.2875 ], [ 31.4034, -27.2769 ], [ 31.4313, -27.2613 ], [ 31.4314, -27.2521 ], [ 31.3999, -27.2311 ], [ 31.3978, -27.1677 ], [ 31.3788, -27.1613 ], [ 31.3742, -27.1436 ], [ 31.3612, -27.1422 ], [ 31.3674, -27.1314 ], [ 31.3519, -27.1314 ], [ 31.3639, -27.1197 ], [ 31.3649, -27.1139 ], [ 31.3571, -27.1092 ], [ 31.3477, -27.1112 ], [ 31.3475, -27.1057 ], [ 31.3426, -27.1075 ], [ 31.3385, -27.1016 ], [ 31.343, -27.0983 ], [ 31.3326, -27.1034 ], [ 31.3262, -27.0996 ], [ 31.3237, -27.0907 ], [ 31.3166, -27.0898 ], [ 31.3197, -27.0962 ], [ 31.3123, -27.1078 ], [ 31.3176, -27.1108 ], [ 31.3006, -27.1411 ], [ 31.2913, -27.1365 ], [ 31.2851, -27.1541 ], [ 31.2898, -27.1588 ] ] ] } },
{ "type": "Feature", "properties": { "iso3": "SWZ", "unit_id": "95383942B51977630476370", "unit_name": "Shiselweni" }, "geometry": { "type": "Polygon", "coordinates": [ [ [ 31.3985, -27.1637 ], [ 31.3999, -27.2311 ], [ 31.4314, -27.2521 ], [ 31.4313, -27.2613 ], [ 31.4034, -27.2769 ], [ 31.4088, -27.2875 ], [ 31.4933, -27.3152 ], [ 31.6087, -27.3159 ], [ 31.609, -27.3126 ], [ 31.6019, -27.3119 ], [ 31.6014, -27.308 ], [ 31.6065, -27.3017 ], [ 31.6063, -27.2978 ], [ 31.6035, -27.2979 ], [ 31.6076, -27.2897 ], [ 31.6061, -27.2847 ], [ 31.6097, -27.2824 ], [ 31.6066, -27.2804 ], [ 31.61, -27.2742 ], [ 31.6091, -27.2632 ], [ 31.6122, -27.262 ], [ 31.6117, -27.2559 ], [ 31.6288, -27.2476 ], [ 31.6022, -27.2467 ], [ 31.5925, -27.2499 ], [ 31.5721, -27.2387 ], [ 31.5541, -27.2394 ], [ 31.5464, -27.2321 ], [ 31.5565, -27.2167 ], [ 31.5257, -27.2086 ], [ 31.4774, -27.2356 ], [ 31.485, -27.221 ], [ 31.4677, -27.1817 ], [ 31.4406, -27.1825 ], [ 31.436, -27.1756 ], [ 31.4235, -27.1682 ], [ 31.4204, -27.1573 ], [ 31.4229, -27.1534 ], [ 31.42, -27.15 ], [ 31.4118, -27.155 ], [ 31.4075, -27.1645 ], [ 31.3985, -27.1637 ] ] ] } },
{ "type": "Feature", "properties": { "iso3": "SWZ", "unit_id": "95383942B83198923161323", "unit_name": "Hosea" }, "geometry": { "type": "Polygon", "coordinates": [ [ [ 31.3974, -27.1648 ], [ 31.4075, -27.1645 ], [ 31.4118, -27.155 ], [ 31.42, -27.15 ], [ 31.4229, -27.1534 ], [ 31.4204, -27.1573 ], [ 31.4235, -27.1682 ], [ 31.436, -27.1756 ], [ 31.4406, -27.1825 ], [ 31.4677, -27.1817 ], [ 31.485, -27.221 ], [ 31.4774, -27.2356 ], [ 31.5257, -27.2086 ], [ 31.5565, -27.2167 ], [ 31.5464, -27.2321 ], [ 31.5541, -27.2394 ], [ 31.5721, -27.2387 ], [ 31.5925, -27.2499 ], [ 31.6042, -27.2475 ], [ 31.6185, -27.2331 ], [ 31.6165, -27.2278 ], [ 31.6187, -27.2246 ], [ 31.614, -27.2191 ], [ 31.618, -27.2101 ], [ 31.6371, -27.2131 ], [ 31.6415, -27.1887 ], [ 31.6549, -27.185 ], [ 31.6667, -27.1682 ], [ 31.6624, -27.1378 ], [ 31.6663, -27.1337 ], [ 31.6595, -27.1286 ], [ 31.6436, -27.1338 ], [ 31.6427, -27.1521 ], [ 31.6295, -27.1422 ], [ 31.6194, -27.1463 ], [ 31.6075, -27.1415 ], [ 31.6023, -27.1479 ], [ 31.598, -27.1482 ], [ 31.5875, -27.1349 ], [ 31.5812, -27.1319 ], [ 31.5831, -27.1253 ], [ 31.5796, -27.1175 ], [ 31.5806, -27.1114 ], [ 31.5948, -27.1084 ], [ 31.6012, -27.1002 ], [ 31.5946, -27.0967 ], [ 31.5898, -27.0844 ], [ 31.5827, -27.0896 ], [ 31.5781, -27.087 ], [ 31.5512, -27.1004 ], [ 31.5399, -27.1178 ], [ 31.5209, -27.1117 ], [ 31.5226, -27.0892 ], [ 31.5132, -27.0797 ], [ 31.5089, -27.079 ], [ 31.5043, -27.0927 ], [ 31.483, -27.1013 ], [ 31.4837, -27.1102 ], [ 31.476, -27.1067 ], [ 31.4536, -27.1089 ], [ 31.4389, -27.1009 ], [ 31.4327, -27.1083 ], [ 31.4264, -27.1005 ], [ 31.4248, -27.1072 ], [ 31.4165, -27.1058 ], [ 31.4121, -27.1014 ], [ 31.3988, -27.1085 ], [ 31.3951, -27.1152 ], [ 31.4049, -27.1248 ], [ 31.4037, -27.134 ], [ 31.3948, -27.1456 ], [ 31.3974, -27.1648 ] ] ] } },
{ "type": "Feature", "properties": { "iso3": "SWZ", "unit_id": "95383942B12024174775896", "unit_name": "Sigwe" }, "geometry": { "type": "Polygon", "coordinates": [ [ [ 31.6012, -27.1002 ], [ 31.5948, -27.1084 ], [ 31.5806, -27.1114 ], [ 31.5796, -27.1175 ], [ 31.5831, -27.1253 ], [ 31.5812, -27.1319 ], [ 31.5875, -27.1349 ], [ 31.598, -27.1482 ], [ 31.6023, -27.1479 ], [ 31.6075, -27.1415 ], [ 31.6194, -27.1463 ], [ 31.6295, -27.1422 ], [ 31.6427, -27.1521 ], [ 31.6436, -27.1338 ], [ 31.6595, -27.1286 ], [ 31.6663, -27.1337 ], [ 31.6799, -27.1222 ], [ 31.6957, -27.1335 ], [ 31.7011, -27.121 ], [ 31.7133, -27.1195 ], [ 31.7161, -27.1059 ], [ 31.7265, -27.1021 ], [ 31.7298, -27.0929 ], [ 31.7379, -27.0941 ], [ 31.7412, -27.1027 ], [ 31.7521, -27.1062 ], [ 31.7513, -27.0987 ], [ 31.7612, -27.0879 ], [ 31.7605, -27.0771 ], [ 31.7661, -27.0766 ], [ 31.7745, -27.0824 ], [ 31.7794, -27.0783 ], [ 31.7756, -27.0718 ], [ 31.7638, -27.0659 ], [ 31.762, -27.0607 ], [ 31.7763, -27.0608 ], [ 31.773, -27.0482 ], [ 31.7654, -27.0366 ], [ 31.7063, -27.0464 ], [ 31.6149, -27.0105 ], [ 31.5996, -26.979 ], [ 31.5952, -26.976 ], [ 31.5853, -26.9772 ], [ 31.5764, -26.9826 ], [ 31.5802, -26.9867 ], [ 31.5727, -26.9917 ], [ 31.5704, -27.0047 ], [ 31.5757, -27.0161 ], [ 31.5852, -27.0221 ], [ 31.5895, -27.0305 ], [ 31.5857, -27.0373 ], [ 31.5867, -27.0423 ], [ 31.5959, -27.0477 ], [ 31.5924, -27.0555 ], [ 31.5855, -27.0604 ], [ 31.5858, -27.068 ], [ 31.6022, -27.0724 ], [ 31.6125, -27.0846 ], [ 31.6093, -27.0929 ], [ 31.6156, -27.1016 ], [ 31.6012, -27.1002 ] ] ] } },
{ "type": "Feature", "properties": { "iso3": "SWZ", "unit_id": "95383942B61913337001366", "unit_name": "Matsanjeni South" }, "geometry": { "type": "Polygon", "coordinates": [ [ [ 31.6087, -27.3159 ], [ 31.8084, -27.3168 ], [ 31.8068, -27.3071 ], [ 31.8098, -27.3053 ], [ 31.8115, -27.2957 ], [ 31.8073, -27.2917 ], [ 31.8083, -27.2795 ], [ 31.8167, -27.2644 ], [ 31.824, -27.2675 ], [ 31.824, -27.2339 ], [ 31.8161, -27.2355 ], [ 31.8174, -27.2252 ], [ 31.8118, -27.2208 ], [ 31.8129, -27.2054 ], [ 31.8041, -27.1992 ], [ 31.8004, -27.19 ], [ 31.7949, -27.1855 ], [ 31.798, -27.1742 ], [ 31.8077, -27.1761 ], [ 31.8148, -27.1678 ], [ 31.8181, -27.1557 ], [ 31.8157, -27.146 ], [ 31.8215, -27.1349 ], [ 31.8161, -27.1278 ], [ 31.808, -27.1352 ], [ 31.8012, -27.1351 ], [ 31.7973, -27.1208 ], [ 31.8044, -27.0993 ], [ 31.8167, -27.102 ], [ 31.8179, -27.0987 ], [ 31.8141, -27.096 ], [ 31.8173, -27.0902 ], [ 31.7905, -27.0886 ], [ 31.788, -27.082 ], [ 31.7894, -27.0712 ], [ 31.7763, -27.0608 ], [ 31.7682, -27.0589 ], [ 31.762, -27.0607 ], [ 31.7638, -27.0659 ], [ 31.7756, -27.0718 ], [ 31.7794, -27.0783 ], [ 31.7745, -27.0824 ], [ 31.7661, -27.0766 ], [ 31.7605, -27.0771 ], [ 31.7612, -27.0879 ], [ 31.7513, -27.0987 ], [ 31.7521, -27.1062 ], [ 31.7412, -27.1027 ], [ 31.7379, -27.0941 ], [ 31.7298, -27.0929 ], [ 31.7265, -27.1021 ], [ 31.7161, -27.1059 ], [ 31.7133, -27.1195 ], [ 31.7011, -27.121 ], [ 31.6957, -27.1335 ], [ 31.6799, -27.1222 ], [ 31.6729, -27.1259 ], [ 31.6624, -27.1378 ], [ 31.6667, -27.1682 ], [ 31.6549, -27.185 ], [ 31.6415, -27.1887 ], [ 31.6371, -27.2131 ], [ 31.618, -27.2101 ], [ 31.614, -27.2191 ], [ 31.6187, -27.2246 ], [ 31.6165, -27.2278 ], [ 31.6185, -27.2331 ], [ 31.6042, -27.2475 ], [ 31.6288, -27.2476 ], [ 31.6117, -27.2559 ], [ 31.6122, -27.262 ], [ 31.6091, -27.2632 ], [ 31.61, -27.2742 ], [ 31.6066, -27.2804 ], [ 31.6097, -27.2824 ], [ 31.6061, -27.2847 ], [ 31.6076, -27.2897 ], [ 31.6035, -27.2979 ], [ 31.6063, -27.2978 ], [ 31.6065, -27.3017 ], [ 31.6014, -27.308 ], [ 31.6019, -27.3119 ], [ 31.609, -27.3126 ], [ 31.6087, -27.3159 ] ] ] } },
{ "type": "Feature", "properties": { "iso3": "SWZ", "unit_id": "95383942B99984379007936", "unit_name": "Somntongo" }, "geometry": { "type": "Polygon", "coordinates": [ [ [ 31.8084, -27.3168 ], [ 31.9788, -27.3174 ], [ 31.9751, -27.3098 ], [ 31.9745, -27.1627 ], [ 31.9053, -27.1641 ], [ 31.9131, -27.1437 ], [ 31.8615, -27.1438 ], [ 31.8654, -27.1048 ], [ 31.8445, -27.1049 ], [ 31.8191, -27.089 ], [ 31.8141, -27.096 ], [ 31.8179, -27.0987 ], [ 31.8167, -27.102 ], [ 31.8044, -27.0993 ], [ 31.7973, -27.1208 ], [ 31.8012, -27.1351 ], [ 31.808, -27.1352 ], [ 31.8161, -27.1278 ], [ 31.8215, -27.1349 ], [ 31.8157, -27.146 ], [ 31.8181, -27.1557 ], [ 31.8148, -27.1678 ], [ 31.8077, -27.1761 ], [ 31.798, -27.1742 ], [ 31.7949, -27.1855 ], [ 31.8004, -27.19 ], [ 31.8041, -27.1992 ], [ 31.8129, -27.2054 ], [ 31.8118, -27.2208 ], [ 31.8174, -27.2252 ], [ 31.8161, -27.2355 ], [ 31.824, -27.2339 ], [ 31.824, -27.2675 ], [ 31.8167, -27.2644 ], [ 31.8083, -27.2795 ], [ 31.8073, -27.2917 ], [ 31.8115, -27.2957 ], [ 31.8098, -27.3053 ], [ 31.8068, -27.3071 ], [ 31.8084, -27.3168 ] ] ] } },
{ "type": "Feature", "properties": { "iso3": "SWZ", "unit_id": "95383942B57251750884096", "unit_name": "Lubuli" }, "geometry": { "type": "Polygon", "coordinates": [ [ [ 31.7763, -27.0608 ], [ 31.7894, -27.0712 ], [ 31.788, -27.082 ], [ 31.7905, -27.0886 ], [ 31.8191, -27.089 ], [ 31.8445, -27.1049 ], [ 31.8654, -27.1048 ], [ 31.8615, -27.1438 ], [ 31.9131, -27.1437 ], [ 31.9053, -27.1641 ], [ 31.9745, -27.1627 ], [ 31.9746, -27.1177 ], [ 31.9793, -27.0923 ], [ 31.9857, -27.007 ], [ 31.9958, -26.9522 ], [ 31.8833, -26.9522 ], [ 31.8968, -26.8926 ], [ 31.8907, -26.8912 ], [ 31.8852, -26.9007 ], [ 31.8769, -26.8996 ], [ 31.8679, -26.9087 ], [ 31.8578, -26.9096 ], [ 31.8548, -26.9176 ], [ 31.848, -26.9211 ], [ 31.8374, -26.9392 ], [ 31.8195, -26.956 ], [ 31.8199, -26.9619 ], [ 31.8269, -26.9644 ], [ 31.8319, -26.9767 ], [ 31.8089, -26.9849 ], [ 31.813, -26.9735 ], [ 31.7947, -26.9797 ], [ 31.7902, -26.9656 ], [ 31.7782, -26.9691 ], [ 31.7583, -26.9678 ], [ 31.7243, -26.9585 ], [ 31.7195, -26.9669 ], [ 31.7241, -26.9702 ], [ 31.7219, -26.9767 ], [ 31.7105, -26.9744 ], [ 31.7039, -26.9819 ], [ 31.7018, -26.9946 ], [ 31.7032, -27.0005 ], [ 31.7074, -27.0022 ], [ 31.6902, -27.0401 ], [ 31.7063, -27.0464 ], [ 31.7654, -27.0366 ], [ 31.773, -27.0482 ], [ 31.7763, -27.0608 ] ] ] } },
{ "type": "Feature", "properties": { "iso3": "SWZ", "unit_id": "95383942B42110874971377", "unit_name": "Sithobela" }, "geometry": { "type": "Polygon", "coordinates": [ [ [ 31.4868, -26.9103 ], [ 31.5115, -26.9263 ], [ 31.5128, -26.9444 ], [ 31.5392, -26.9705 ], [ 31.5438, -26.9725 ], [ 31.5521, -26.968 ], [ 31.5535, -26.9729 ], [ 31.557, -26.9738 ], [ 31.5626, -26.9655 ], [ 31.5672, -26.9696 ], [ 31.5636, -26.9729 ], [ 31.5654, -26.9742 ], [ 31.5725, -26.9727 ], [ 31.5706, -26.9678 ], [ 31.5854, -26.9696 ], [ 31.5782, -26.9745 ], [ 31.5884, -26.9783 ], [ 31.5952, -26.976 ], [ 31.5996, -26.979 ], [ 31.6149, -27.0105 ], [ 31.6902, -27.0401 ], [ 31.7074, -27.0022 ], [ 31.7032, -27.0005 ], [ 31.7018, -26.9946 ], [ 31.7039, -26.9819 ], [ 31.7105, -26.9744 ], [ 31.7219, -26.9767 ], [ 31.7241, -26.9702 ], [ 31.7195, -26.9669 ], [ 31.7243, -26.9585 ], [ 31.7221, -26.9555 ], [ 31.7252, -26.9557 ], [ 31.7242, -26.9514 ], [ 31.7276, -26.9493 ], [ 31.6992, -26.9279 ], [ 31.7223, -26.9003 ], [ 31.7055, -26.8684 ], [ 31.7204, -26.8668 ], [ 31.7244, -26.8741 ], [ 31.7297, -26.8734 ], [ 31.7307, -26.8657 ], [ 31.7373, -26.8627 ], [ 31.7455, -26.8523 ], [ 31.744, -26.8467 ], [ 31.7516, -26.8417 ], [ 31.7451, -26.8335 ], [ 31.7512, -26.8306 ], [ 31.7608, -26.8406 ], [ 31.762, -26.8472 ], [ 31.7482, -26.8541 ], [ 31.7627, -26.8609 ], [ 31.7691, -26.8548 ], [ 31.8011, -26.8488 ], [ 31.8059, -26.8566 ], [ 31.8169, -26.8607 ], [ 31.8085, -26.8694 ], [ 31.8114, -26.8749 ], [ 31.8169, -26.8745 ], [ 31.8234, -26.8606 ], [ 31.832, -26.8518 ], [ 31.8227, -26.8464 ], [ 31.8232, -26.8354 ], [ 31.8394, -26.8284 ], [ 31.8431, -26.8227 ], [ 31.839, -26.8152 ], [ 31.8225, -26.8043 ], [ 31.8202, -26.7903 ], [ 31.8043, -26.7803 ], [ 31.8093, -26.7672 ], [ 31.8249, -26.7588 ], [ 31.8253, -26.7528 ], [ 31.8173, -26.7487 ], [ 31.7849, -26.7443 ], [ 31.7747, -26.746 ], [ 31.7654, -26.7533 ], [ 31.7498, -26.7564 ], [ 31.7436, -26.7509 ], [ 31.7443, -26.7355 ], [ 31.7264, -26.7272 ], [ 31.7019, -26.7433 ], [ 31.6983, -26.7411 ], [ 31.6952, -26.7441 ], [ 31.6875, -26.7389 ], [ 31.6796, -26.7391 ], [ 31.6779, -26.7442 ], [ 31.6807, -26.7487 ], [ 31.6752, -26.7537 ], [ 31.6687, -26.75 ], [ 31.6646, -26.754 ], [ 31.6659, -26.7592 ], [ 31.6591, -26.7638 ], [ 31.6473, -26.7566 ], [ 31.6402, -26.7564 ], [ 31.6338, -26.7504 ], [ 31.6293, -26.7607 ], [ 31.6137, -26.7688 ], [ 31.6038, -26.77 ], [ 31.5916, -26.7652 ], [ 31.5648, -26.7745 ], [ 31.5578, -26.7723 ], [ 31.557, -26.7687 ], [ 31.5392, -26.8127 ], [ 31.5458, -26.8352 ], [ 31.5304, -26.8446 ], [ 31.5128, -26.863 ], [ 31.5135, -26.8791 ], [ 31.4868, -26.9103 ] ] ] } },
{ "type": "Feature", "properties": { "iso3": "SWZ", "unit_id": "95383942B18074829566564", "unit_name": "Nkilongo" }, "geometry": { "type": "Polygon", "coordinates": [ [ [ 31.9958, -26.9522 ], [ 31.9977, -26.9209 ], [ 32.0152, -26.8224 ], [ 32.0108, -26.8103 ], [ 32.0074, -26.8093 ], [ 32.0047, -26.7972 ], [ 32.0147, -26.7287 ], [ 32.0174, -26.6824 ], [ 32.0154, -26.6721 ], [ 31.9933, -26.6689 ], [ 31.9832, -26.6714 ], [ 31.9719, -26.6705 ], [ 31.9743, -26.6684 ], [ 31.8833, -26.6685 ], [ 31.8857, -26.7154 ], [ 31.8904, -26.7201 ], [ 31.8862, -26.7249 ], [ 31.8876, -26.7523 ], [ 31.8249, -26.7588 ], [ 31.8093, -26.7672 ], [ 31.8043, -26.7803 ], [ 31.8202, -26.7903 ], [ 31.8225, -26.8043 ], [ 31.839, -26.8152 ], [ 31.8431, -26.8227 ], [ 31.8394, -26.8284 ], [ 31.8232, -26.8354 ], [ 31.8227, -26.8464 ], [ 31.832, -26.8518 ], [ 31.8234, -26.8606 ], [ 31.8169, -26.8745 ], [ 31.8114, -26.8749 ], [ 31.8085, -26.8694 ], [ 31.8169, -26.8607 ], [ 31.8059, -26.8566 ], [ 31.8011, -26.8488 ], [ 31.7691, -26.8548 ], [ 31.7627, -26.8609 ], [ 31.7482, -26.8541 ], [ 31.762, -26.8472 ], [ 31.7608, -26.8406 ], [ 31.7535, -26.8316 ], [ 31.7475, -26.8312 ], [ 31.7451, -26.8335 ], [ 31.7516, -26.8417 ], [ 31.744, -26.8467 ], [ 31.7455, -26.8523 ], [ 31.7373, -26.8627 ], [ 31.7307, -26.8657 ], [ 31.7297, -26.8734 ], [ 31.7244, -26.8741 ], [ 31.7204, -26.8668 ], [ 31.7055, -26.8684 ], [ 31.7223, -26.9003 ], [ 31.6992, -26.9279 ], [ 31.7276, -26.9493 ], [ 31.7242, -26.9514 ], [ 31.7252, -26.9557 ], [ 31.7221, -26.9555 ], [ 31.7243, -26.9585 ], [ 31.7583, -26.9678 ], [ 31.7782, -26.9691 ], [ 31.7902, -26.9656 ], [ 31.7947, -26.9797 ], [ 31.813, -26.9735 ], [ 31.8089, -26.9849 ], [ 31.8319, -26.9767 ], [ 31.8269, -26.9644 ], [ 31.8199, -26.9619 ], [ 31.8195, -26.956 ], [ 31.8374, -26.9392 ], [ 31.848, -26.9211 ], [ 31.8548, -26.9176 ], [ 31.8578, -26.9096 ], [ 31.8679, -26.9087 ], [ 31.8769, -26.8996 ], [ 31.8852, -26.9007 ], [ 31.8907, -26.8912 ], [ 31.8968, -26.8926 ], [ 31.8833, -26.9522 ], [ 31.9958, -26.9522 ] ] ] } },
{ "type": "Feature", "properties": { "iso3": "SWZ", "unit_id": "95383942B70488065598599", "unit_name": "Siphofaneni" }, "geometry": { "type": "Polygon", "coordinates": [ [ [ 31.5119, -26.6693 ], [ 31.5078, -26.6978 ], [ 31.4964, -26.7166 ], [ 31.4849, -26.7278 ], [ 31.4881, -26.7357 ], [ 31.4806, -26.7437 ], [ 31.4818, -26.7686 ], [ 31.4887, -26.7781 ], [ 31.557, -26.7687 ], [ 31.5578, -26.7723 ], [ 31.5648, -26.7745 ], [ 31.5916, -26.7652 ], [ 31.6082, -26.7699 ], [ 31.6293, -26.7607 ], [ 31.6338, -26.7504 ], [ 31.6402, -26.7564 ], [ 31.6473, -26.7566 ], [ 31.6591, -26.7638 ], [ 31.6659, -26.7592 ], [ 31.6646, -26.754 ], [ 31.6687, -26.75 ], [ 31.6752, -26.7537 ], [ 31.6807, -26.7487 ], [ 31.6779, -26.7442 ], [ 31.6796, -26.7391 ], [ 31.6875, -26.7389 ], [ 31.6952, -26.7441 ], [ 31.6983, -26.7411 ], [ 31.7019, -26.7433 ], [ 31.7264, -26.7272 ], [ 31.7443, -26.7355 ], [ 31.7436, -26.7509 ], [ 31.7498, -26.7564 ], [ 31.7654, -26.7533 ], [ 31.7747, -26.746 ], [ 31.7849, -26.7443 ], [ 31.8369, -26.7537 ], [ 31.8375, -26.7465 ], [ 31.8524, -26.7442 ], [ 31.8514, -26.7401 ], [ 31.8469, -26.7407 ], [ 31.848, -26.7342 ], [ 31.8434, -26.7309 ], [ 31.8492, -26.7244 ], [ 31.8578, -26.7251 ], [ 31.8589, -26.7219 ], [ 31.8511, -26.7128 ], [ 31.841, -26.7232 ], [ 31.8348, -26.7141 ], [ 31.8229, -26.7051 ], [ 31.818, -26.6966 ], [ 31.8192, -26.6826 ], [ 31.8012, -26.6555 ], [ 31.8031, -26.6531 ], [ 31.7962, -26.6363 ], [ 31.7905, -26.6394 ], [ 31.7364, -26.5556 ], [ 31.6673, -26.5915 ], [ 31.657, -26.5749 ], [ 31.658, -26.5688 ], [ 31.6442, -26.5557 ], [ 31.6437, -26.547 ], [ 31.6369, -26.5452 ], [ 31.6376, -26.5499 ], [ 31.6298, -26.5566 ], [ 31.6255, -26.5741 ], [ 31.6193, -26.571 ], [ 31.6139, -26.5756 ], [ 31.6142, -26.5672 ], [ 31.6101, -26.5644 ], [ 31.6007, -26.5682 ], [ 31.5904, -26.5672 ], [ 31.5996, -26.6391 ], [ 31.5377, -26.6608 ], [ 31.5267, -26.6733 ], [ 31.5119, -26.6693 ] ] ] } },
{ "type": "Feature", "properties": { "iso3": "SWZ", "unit_id": "95383942B24888499245364", "unit_name": "Mpolonjeni" }, "geometry": { "type": "Polygon", "coordinates": [ [ [ 31.8249, -26.7588 ], [ 31.8876, -26.7523 ], [ 31.8862, -26.7249 ], [ 31.8904, -26.7201 ], [ 31.8857, -26.7154 ], [ 31.8833, -26.6685 ], [ 31.9743, -26.6684 ], [ 31.9719, -26.6705 ], [ 31.9832, -26.6714 ], [ 31.9933, -26.6689 ], [ 32.0154, -26.6721 ], [ 32.009, -26.6355 ], [ 32.011, -26.6308 ], [ 32.0077, -26.6271 ], [ 32.0095, -26.6163 ], [ 32.0044, -26.6018 ], [ 32.0069, -26.6002 ], [ 32.0044, -26.5952 ], [ 31.9957, -26.5926 ], [ 32.0056, -26.5844 ], [ 32.0145, -26.567 ], [ 32.0163, -26.5516 ], [ 32.0124, -26.5431 ], [ 32.0158, -26.536 ], [ 32.0131, -26.5307 ], [ 31.999, -26.5311 ], [ 31.9879, -26.5264 ], [ 31.982, -26.5288 ], [ 31.9762, -26.5183 ], [ 32.0218, -26.4931 ], [ 31.9755, -26.4679 ], [ 31.9775, -26.4765 ], [ 31.9611, -26.4791 ], [ 31.9601, -26.4679 ], [ 31.9427, -26.4667 ], [ 31.9402, -26.4723 ], [ 31.933, -26.4449 ], [ 31.9255, -26.4462 ], [ 31.9158, -26.4413 ], [ 31.9135, -26.4249 ], [ 31.9093, -26.42 ], [ 31.9049, -26.4235 ], [ 31.8933, -26.4209 ], [ 31.899, -26.4691 ], [ 31.8758, -26.5255 ], [ 31.8736, -26.5259 ], [ 31.8676, -26.508 ], [ 31.8501, -26.5007 ], [ 31.8343, -26.5023 ], [ 31.8235, -26.5119 ], [ 31.8183, -26.5056 ], [ 31.8116, -26.5132 ], [ 31.7144, -26.5217 ], [ 31.7231, -26.535 ], [ 31.7198, -26.5362 ], [ 31.6924, -26.5307 ], [ 31.6815, -26.5333 ], [ 31.6796, -26.5368 ], [ 31.6664, -26.5355 ], [ 31.6591, -26.5382 ], [ 31.6524, -26.5357 ], [ 31.6369, -26.5402 ], [ 31.6369, -26.5452 ], [ 31.6437, -26.547 ], [ 31.6442, -26.5557 ], [ 31.658, -26.5688 ], [ 31.657, -26.5749 ], [ 31.6673, -26.5915 ], [ 31.7364, -26.5556 ], [ 31.7905, -26.6394 ], [ 31.7962, -26.6363 ], [ 31.8031, -26.6531 ], [ 31.8012, -26.6555 ], [ 31.8192, -26.6826 ], [ 31.818, -26.6966 ], [ 31.8229, -26.7051 ], [ 31.8348, -26.7141 ], [ 31.841, -26.7232 ], [ 31.8511, -26.7128 ], [ 31.8589, -26.7219 ], [ 31.8578, -26.7251 ], [ 31.8492, -26.7244 ], [ 31.8434, -26.7309 ], [ 31.848, -26.7342 ], [ 31.8469, -26.7407 ], [ 31.8514, -26.7401 ], [ 31.8524, -26.7442 ], [ 31.8375, -26.7465 ], [ 31.8369, -26.7537 ], [ 31.8308, -26.7512 ], [ 31.8253, -26.7528 ], [ 31.8249, -26.7588 ] ] ] } },
{ "type": "Feature", "properties": { "iso3": "SWZ", "unit_id": "95383942B50776956443253", "unit_name": "Matsanjeni North" }, "geometry": { "type": "Polygon", "coordinates": [ [ [ 32.0074, -26.8093 ], [ 32.0297, -26.8059 ], [ 32.0358, -26.8078 ], [ 32.0454, -26.817 ], [ 32.0538, -26.8183 ], [ 32.0712, -26.8098 ], [ 32.0983, -26.8046 ], [ 32.1054, -26.8097 ], [ 32.1081, -26.8223 ], [ 32.1196, -26.8385 ], [ 32.1338, -26.8401 ], [ 32.1341, -26.5275 ], [ 32.1245, -26.5073 ], [ 32.1189, -26.5132 ], [ 32.1161, -26.5129 ], [ 32.1156, -26.5088 ], [ 32.1111, -26.513 ], [ 32.1075, -26.5114 ], [ 32.1071, -26.5177 ], [ 32.1017, -26.5171 ], [ 32.101, -26.5211 ], [ 32.096, -26.5154 ], [ 32.0934, -26.5198 ], [ 32.0888, -26.5182 ], [ 32.0851, -26.5231 ], [ 32.0804, -26.5184 ], [ 32.072, -26.5177 ], [ 32.0736, -26.5158 ], [ 32.0703, -26.513 ], [ 32.0733, -26.5108 ], [ 32.0673, -26.505 ], [ 32.0637, -26.5089 ], [ 32.0218, -26.4931 ], [ 31.9762, -26.5183 ], [ 31.982, -26.5288 ], [ 31.9879, -26.5264 ], [ 31.999, -26.5311 ], [ 32.0131, -26.5307 ], [ 32.0158, -26.536 ], [ 32.0124, -26.5431 ], [ 32.0163, -26.5516 ], [ 32.0145, -26.567 ], [ 32.0056, -26.5844 ], [ 31.9957, -26.5926 ], [ 32.0044, -26.5952 ], [ 32.0069, -26.6002 ], [ 32.0044, -26.6018 ], [ 32.0095, -26.6163 ], [ 32.0077, -26.6271 ], [ 32.011, -26.6308 ], [ 32.009, -26.6355 ], [ 32.0174, -26.6824 ], [ 32.0095, -26.7776 ], [ 32.0047, -26.7972 ], [ 32.0074, -26.8093 ] ] ] } },
{ "type": "Feature", "properties": { "iso3": "SWZ", "unit_id": "95383942B83564126997860", "unit_name": "Lugongolweni" }, "geometry": { "type": "Polygon", "coordinates": [ [ [ 32.0218, -26.4931 ], [ 32.0637, -26.5089 ], [ 32.0673, -26.505 ], [ 32.0733, -26.5108 ], [ 32.0703, -26.513 ], [ 32.0736, -26.5158 ], [ 32.072, -26.5177 ], [ 32.0804, -26.5184 ], [ 32.0851, -26.5231 ], [ 32.0888, -26.5182 ], [ 32.0934, -26.5198 ], [ 32.096, -26.5154 ], [ 32.101, -26.5211 ], [ 32.1017, -26.5171 ], [ 32.1071, -26.5177 ], [ 32.1075, -26.5114 ], [ 32.1111, -26.513 ], [ 32.1156, -26.5088 ], [ 32.1161, -26.5129 ], [ 32.1189, -26.5132 ], [ 32.1245, -26.5073 ], [ 32.0767, -26.4055 ], [ 32.0733, -26.3059 ], [ 32.0971, -26.1941 ], [ 32.0926, -26.1905 ], [ 32.09, -26.1731 ], [ 32.079, -26.1668 ], [ 32.0672, -26.1684 ], [ 32.063, -26.1756 ], [ 32.0545, -26.1797 ], [ 32.0266, -26.172 ], [ 32.0256, -26.1679 ], [ 32.0313, -26.1612 ], [ 32.0294, -26.1503 ], [ 32.0071, -26.16 ], [ 31.996, -26.1763 ], [ 31.9779, -26.2393 ], [ 31.9701, -26.2417 ], [ 31.951, -26.2738 ], [ 31.9182, -26.3576 ], [ 31.9258, -26.3661 ], [ 31.9243, -26.3868 ], [ 31.9147, -26.3862 ], [ 31.9082, -26.4028 ], [ 31.9114, -26.4135 ], [ 31.9084, -26.418 ], [ 31.9135, -26.4249 ], [ 31.9134, -26.4368 ], [ 31.9194, -26.4443 ], [ 31.933, -26.4449 ], [ 31.9402, -26.4723 ], [ 31.9427, -26.4667 ], [ 31.9601, -26.4679 ], [ 31.9611, -26.4791 ], [ 31.9775, -26.4765 ], [ 31.9755, -26.4679 ], [ 32.0218, -26.4931 ] ] ] } },
{ "type": "Feature", "properties": { "iso3": "SWZ", "unit_id": "95383942B99600203317389", "unit_name": "Dvokodvweni" }, "geometry": { "type": "Polygon", "coordinates": [ [ [ 31.5956, -26.4153 ], [ 31.5993, -26.4261 ], [ 31.6033, -26.4285 ], [ 31.6015, -26.4315 ], [ 31.6085, -26.446 ], [ 31.604, -26.451 ], [ 31.6056, -26.4601 ], [ 31.6027, -26.4626 ], [ 31.6075, -26.4662 ], [ 31.6081, -26.4735 ], [ 31.5915, -26.4737 ], [ 31.5976, -26.4819 ], [ 31.6038, -26.4829 ], [ 31.608, -26.4875 ], [ 31.6039, -26.4978 ], [ 31.6109, -26.5177 ], [ 31.607, -26.5203 ], [ 31.5911, -26.5187 ], [ 31.5871, -26.5228 ], [ 31.5725, -26.5258 ], [ 31.5657, -26.5321 ], [ 31.5752, -26.5401 ], [ 31.5871, -26.5416 ], [ 31.5904, -26.5672 ], [ 31.6007, -26.5682 ], [ 31.6101, -26.5644 ], [ 31.6142, -26.5672 ], [ 31.6139, -26.5756 ], [ 31.6193, -26.571 ], [ 31.6255, -26.5741 ], [ 31.6298, -26.5566 ], [ 31.6376, -26.5499 ], [ 31.6388, -26.5385 ], [ 31.6524, -26.5357 ], [ 31.6591, -26.5382 ], [ 31.6664, -26.5355 ], [ 31.6796, -26.5368 ], [ 31.6815, -26.5333 ], [ 31.6924, -26.5307 ], [ 31.7021, -26.5343 ], [ 31.7231, -26.535 ], [ 31.7144, -26.5217 ], [ 31.8116, -26.5132 ], [ 31.8183, -26.5056 ], [ 31.8235, -26.5119 ], [ 31.8343, -26.5023 ], [ 31.8501, -26.5007 ], [ 31.8676, -26.508 ], [ 31.8736, -26.5259 ], [ 31.8758, -26.5255 ], [ 31.899, -26.4691 ], [ 31.8933, -26.4209 ], [ 31.9049, -26.4235 ], [ 31.9093, -26.42 ], [ 31.9114, -26.4135 ], [ 31.9082, -26.4028 ], [ 31.9147, -26.3862 ], [ 31.8912, -26.3847 ], [ 31.878, -26.3782 ], [ 31.8771, -26.3654 ], [ 31.8641, -26.3739 ], [ 31.8648, -26.3698 ], [ 31.8601, -26.3652 ], [ 31.853, -26.363 ], [ 31.8234, -26.3621 ], [ 31.8114, -26.3733 ], [ 31.807, -26.3573 ], [ 31.7903, -26.3404 ], [ 31.7836, -26.3209 ], [ 31.776, -26.3168 ], [ 31.7731, -26.3271 ], [ 31.765, -26.3201 ], [ 31.7576, -26.3202 ], [ 31.7494, -26.3482 ], [ 31.7468, -26.3506 ], [ 31.7394, -26.3493 ], [ 31.7331, -26.3586 ], [ 31.7271, -26.3607 ], [ 31.7306, -26.3672 ], [ 31.727, -26.3724 ], [ 31.7362, -26.3769 ], [ 31.7218, -26.3911 ], [ 31.7104, -26.4088 ], [ 31.6779, -26.4067 ], [ 31.6546, -26.4178 ], [ 31.641, -26.415 ], [ 31.6422, -26.4081 ], [ 31.6275, -26.4068 ], [ 31.6225, -26.4029 ], [ 31.5956, -26.4153 ] ] ] } },
{ "type": "Feature", "properties": { "iso3": "SWZ", "unit_id": "95383942B42301278018366", "unit_name": "Hlane" }, "geometry": { "type": "Polygon", "coordinates": [ [ [ 31.6321, -26.4071 ], [ 31.6422, -26.4081 ], [ 31.641, -26.415 ], [ 31.6546, -26.4178 ], [ 31.6779, -26.4067 ], [ 31.7104, -26.4088 ], [ 31.7218, -26.3911 ], [ 31.7362, -26.3769 ], [ 31.727, -26.3724 ], [ 31.7306, -26.3672 ], [ 31.7271, -26.3607 ], [ 31.7331, -26.3586 ], [ 31.7394, -26.3493 ], [ 31.7468, -26.3506 ], [ 31.7494, -26.3482 ], [ 31.7576, -26.3202 ], [ 31.765, -26.3201 ], [ 31.7731, -26.3271 ], [ 31.776, -26.3168 ], [ 31.7836, -26.3209 ], [ 31.7903, -26.3404 ], [ 31.807, -26.3573 ], [ 31.8114, -26.3733 ], [ 31.8234, -26.3621 ], [ 31.853, -26.363 ], [ 31.8601, -26.3652 ], [ 31.8648, -26.3698 ], [ 31.8641, -26.3739 ], [ 31.8771, -26.3654 ], [ 31.878, -26.3782 ], [ 31.8912, -26.3847 ], [ 31.9243, -26.3868 ], [ 31.9258, -26.3661 ], [ 31.9182, -26.3576 ], [ 31.9473, -26.2851 ], [ 31.8944, -26.1698 ], [ 31.8831, -26.171 ], [ 31.8764, -26.1656 ], [ 31.8802, -26.1425 ], [ 31.8764, -26.1416 ], [ 31.8746, -26.1478 ], [ 31.8581, -26.1514 ], [ 31.8546, -26.1598 ], [ 31.8474, -26.1609 ], [ 31.8443, -26.165 ], [ 31.8458, -26.1682 ], [ 31.8565, -26.1715 ], [ 31.8628, -26.1838 ], [ 31.8616, -26.1877 ], [ 31.8558, -26.1854 ], [ 31.8537, -26.1875 ], [ 31.8567, -26.2011 ], [ 31.8502, -26.2141 ], [ 31.838, -26.2115 ], [ 31.8347, -26.2016 ], [ 31.8293, -26.1996 ], [ 31.819, -26.2127 ], [ 31.8138, -26.2087 ], [ 31.8058, -26.2093 ], [ 31.8164, -26.2209 ], [ 31.8152, -26.2254 ], [ 31.7983, -26.2236 ], [ 31.7838, -26.2258 ], [ 31.7819, -26.2303 ], [ 31.786, -26.2442 ], [ 31.7835, -26.2478 ], [ 31.7724, -26.2463 ], [ 31.7718, -26.233 ], [ 31.7682, -26.2298 ], [ 31.7607, -26.2286 ], [ 31.7593, -26.2378 ], [ 31.7513, -26.2311 ], [ 31.739, -26.2348 ], [ 31.7353, -26.2324 ], [ 31.7353, -26.2252 ], [ 31.7277, -26.2213 ], [ 31.7207, -26.2341 ], [ 31.7038, -26.2349 ], [ 31.698, -26.2379 ], [ 31.6878, -26.2362 ], [ 31.6861, -26.2442 ], [ 31.6946, -26.2414 ], [ 31.6965, -26.2477 ], [ 31.7041, -26.2533 ], [ 31.6834, -26.2659 ], [ 31.6861, -26.272 ], [ 31.683, -26.2743 ], [ 31.6832, -26.3219 ], [ 31.6649, -26.3527 ], [ 31.6256, -26.3803 ], [ 31.6207, -26.3911 ], [ 31.6321, -26.4071 ] ] ] } },
{ "type": "Feature", "properties": { "iso3": "SWZ", "unit_id": "95383942B13729825625489", "unit_name": "Mhlume" }, "geometry": { "type": "Polygon", "coordinates": [ [ [ 31.6633, -26.0202 ], [ 31.6764, -26.1261 ], [ 31.682, -26.1282 ], [ 31.686, -26.137 ], [ 31.6827, -26.1533 ], [ 31.6748, -26.1507 ], [ 31.6748, -26.1587 ], [ 31.6952, -26.2367 ], [ 31.698, -26.2379 ], [ 31.7038, -26.2349 ], [ 31.7207, -26.2341 ], [ 31.7277, -26.2213 ], [ 31.7353, -26.2252 ], [ 31.7353, -26.2324 ], [ 31.739, -26.2348 ], [ 31.7513, -26.2311 ], [ 31.7593, -26.2378 ], [ 31.7607, -26.2286 ], [ 31.7682, -26.2298 ], [ 31.7718, -26.233 ], [ 31.7724, -26.2463 ], [ 31.7803, -26.2491 ], [ 31.786, -26.2442 ], [ 31.7819, -26.2303 ], [ 31.7838, -26.2258 ], [ 31.7983, -26.2236 ], [ 31.8152, -26.2254 ], [ 31.8164, -26.2209 ], [ 31.8058, -26.2093 ], [ 31.8138, -26.2087 ], [ 31.819, -26.2127 ], [ 31.8293, -26.1996 ], [ 31.8347, -26.2016 ], [ 31.838, -26.2115 ], [ 31.848, -26.2156 ], [ 31.8567, -26.2011 ], [ 31.8537, -26.1875 ], [ 31.8558, -26.1854 ], [ 31.8616, -26.1877 ], [ 31.8628, -26.1838 ], [ 31.8565, -26.1715 ], [ 31.8458, -26.1682 ], [ 31.8443, -26.165 ], [ 31.8474, -26.1609 ], [ 31.8546, -26.1598 ], [ 31.8581, -26.1514 ], [ 31.8746, -26.1478 ], [ 31.8782, -26.1413 ], [ 31.8799, -26.1469 ], [ 31.8764, -26.1656 ], [ 31.8831, -26.171 ], [ 31.8944, -26.1698 ], [ 31.9473, -26.2851 ], [ 31.951, -26.2738 ], [ 31.9701, -26.2417 ], [ 31.9779, -26.2393 ], [ 31.996, -26.1763 ], [ 32.0071, -26.16 ], [ 32.0294, -26.1503 ], [ 32.0203, -26.1441 ], [ 32.016, -26.1324 ], [ 32.0268, -26.1175 ], [ 32.0245, -26.1076 ], [ 32.0216, -26.1053 ], [ 32.0114, -26.1069 ], [ 32.0023, -26.1144 ], [ 32.0123, -26.1309 ], [ 32.0113, -26.1373 ], [ 32.005, -26.1333 ], [ 31.9931, -26.1346 ], [ 31.9916, -26.1452 ], [ 31.9863, -26.1502 ], [ 31.9734, -26.1419 ], [ 31.9709, -26.1304 ], [ 31.869, -26.0001 ], [ 31.7598, -25.9331 ], [ 31.7478, -25.9443 ], [ 31.7494, -25.9505 ], [ 31.7439, -25.953 ], [ 31.7395, -25.9525 ], [ 31.7367, -25.9483 ], [ 31.7218, -25.95 ], [ 31.7199, -25.9476 ], [ 31.7238, -25.9437 ], [ 31.7213, -25.9414 ], [ 31.6989, -25.9471 ], [ 31.6928, -25.9515 ], [ 31.6826, -25.9495 ], [ 31.6724, -25.9422 ], [ 31.6645, -25.9456 ], [ 31.6633, -26.0202 ] ] ] } },
{ "type": "Feature", "properties": { "iso3": "SWZ", "unit_id": "95383942B48432670676398", "unit_name": "Lomahasha" }, "geometry": { "type": "Polygon", "coordinates": [ [ [ 32.0971, -26.1941 ], [ 32.1043, -26.1607 ], [ 32.0848, -26.0294 ], [ 32.0863, -26.0092 ], [ 32.0296, -26.0009 ], [ 32.0102, -25.9943 ], [ 32.0022, -25.9974 ], [ 31.975, -25.9536 ], [ 31.869, -26.0001 ], [ 31.9709, -26.1304 ], [ 31.9734, -26.1419 ], [ 31.9863, -26.1502 ], [ 31.9916, -26.1452 ], [ 31.9931, -26.1346 ], [ 32.005, -26.1333 ], [ 32.0113, -26.1373 ], [ 32.0123, -26.1309 ], [ 32.0023, -26.1144 ], [ 32.0114, -26.1069 ], [ 32.0216, -26.1053 ], [ 32.0268, -26.1175 ], [ 32.016, -26.1324 ], [ 32.0203, -26.1441 ], [ 32.0316, -26.1527 ], [ 32.0266, -26.172 ], [ 32.0545, -26.1797 ], [ 32.063, -26.1756 ], [ 32.0672, -26.1684 ], [ 32.079, -26.1668 ], [ 32.09, -26.1731 ], [ 32.0926, -26.1905 ], [ 32.0971, -26.1941 ] ] ] } }
]
}
