{
"type": "FeatureCollection",
"name": "SYC",
"crs": { "type": "name", "properties": { "name": "urn:ogc:def:crs:OGC:1.3:CRS84" } },
"xy_coordinate_resolution": 0.0001,
"features": [
{ "type": "Feature", "properties": { "iso3": "SYC", "unit_id": "60596559B15572490762004", "unit_name": "Central 1 Mahe" }, "geometry": { "type": "MultiPolygon", "coordinates": [ [ [ [ 55.4574, -4.6291 ], [ 55.4557, -4.6239 ], [ 55.4618, -4.6219 ], [ 55.4578, -4.6177 ], [ 55.4562, -4.6219 ], [ 55.4604, -4.6055 ], [ 55.4552, -4.6033 ], [ 55.4416, -4.613 ], [ 55.4388, -4.6182 ], [ 55.4417, -4.6219 ], [ 55.4319, -4.6268 ], [ 55.4421, -4.634 ], [ 55.4402, -4.6465 ], [ 55.4468, -4.6484 ], [ 55.4481, -4.651 ], [ 55.4446, -4.6519 ], [ 55.4505, -4.6556 ], [ 55.4571, -4.6425 ], [ 55.4473, -4.6294 ], [ 55.4574, -4.6291 ] ] ], [ [ [ 55.4708, -4.6058 ], [ 55.4633, -4.5988 ], [ 55.4599, -4.5991 ], [ 55.4615, -4.608 ], [ 55.4686, -4.6098 ], [ 55.468, -4.6136 ], [ 55.4708, -4.6058 ] ] ] ] } },
{ "type": "Feature", "properties": { "iso3": "SYC", "unit_id": "60596559B45362179090989", "unit_name": "Central 2 Mahe" }, "geometry": { "type": "MultiPolygon", "coordinates": [ [ [ [ 55.4505, -4.6556 ], [ 55.4689, -4.6663 ], [ 55.4672, -4.6577 ], [ 55.48, -4.6535 ], [ 55.4698, -4.6443 ], [ 55.4714, -4.6406 ], [ 55.4741, -4.6461 ], [ 55.4711, -4.6326 ], [ 55.4655, -4.6309 ], [ 55.4633, -4.6332 ], [ 55.4664, -4.628 ], [ 55.4619, -4.625 ], [ 55.4574, -4.6264 ], [ 55.4574, -4.6291 ], [ 55.4473, -4.6294 ], [ 55.4571, -4.6425 ], [ 55.4505, -4.6556 ] ], [ [ 55.4666, -4.6404 ], [ 55.4662, -4.6392 ], [ 55.4689, -4.6435 ], [ 55.4666, -4.6404 ] ] ], [ [ [ 55.4832, -4.6419 ], [ 55.4749, -4.6346 ], [ 55.4734, -4.6371 ], [ 55.4759, -4.6416 ], [ 55.4798, -4.6419 ], [ 55.4807, -4.6463 ], [ 55.4832, -4.6419 ] ] ], [ [ [ 55.4798, -4.6511 ], [ 55.4791, -4.6471 ], [ 55.4753, -4.6477 ], [ 55.4798, -4.6511 ] ] ], [ [ [ 55.495, -4.6281 ], [ 55.4919, -4.634 ], [ 55.5009, -4.6399 ], [ 55.5054, -4.6387 ], [ 55.5023, -4.6298 ], [ 55.495, -4.6281 ] ] ], [ [ [ 55.5065, -4.6246 ], [ 55.5068, -4.6276 ], [ 55.5122, -4.629 ], [ 55.5105, -4.6255 ], [ 55.5065, -4.6246 ] ] ], [ [ [ 55.5035, -4.6213 ], [ 55.5031, -4.6226 ], [ 55.5042, -4.6223 ], [ 55.5035, -4.6213 ] ] ], [ [ [ 55.5098, -4.6202 ], [ 55.5079, -4.6185 ], [ 55.5072, -4.6209 ], [ 55.5098, -4.6202 ] ] ], [ [ [ 55.5033, -4.597 ], [ 55.4969, -4.6022 ], [ 55.4964, -4.6141 ], [ 55.5136, -4.6055 ], [ 55.5121, -4.6004 ], [ 55.5033, -4.597 ] ] ] ] } },
{ "type": "Feature", "properties": { "iso3": "SYC", "unit_id": "60596559B5051928105478", "unit_name": "East Mahe" }, "geometry": { "type": "Polygon", "coordinates": [ [ [ 55.4686, -4.6575 ], [ 55.4788, -4.6665 ], [ 55.4802, -4.6825 ], [ 55.4903, -4.6847 ], [ 55.5013, -4.6939 ], [ 55.5004, -4.7062 ], [ 55.5053, -4.7162 ], [ 55.503, -4.7353 ], [ 55.5006, -4.7353 ], [ 55.5079, -4.7531 ], [ 55.5047, -4.7545 ], [ 55.509, -4.7673 ], [ 55.5121, -4.7695 ], [ 55.4997, -4.7662 ], [ 55.4826, -4.7667 ], [ 55.4941, -4.7743 ], [ 55.4914, -4.781 ], [ 55.5011, -4.7853 ], [ 55.5016, -4.7952 ], [ 55.5167, -4.8019 ], [ 55.5179, -4.8066 ], [ 55.5217, -4.8065 ], [ 55.52, -4.8041 ], [ 55.5241, -4.8011 ], [ 55.5365, -4.8048 ], [ 55.5391, -4.8028 ], [ 55.5366, -4.7931 ], [ 55.5236, -4.7836 ], [ 55.525, -4.7723 ], [ 55.5152, -4.7486 ], [ 55.5185, -4.7396 ], [ 55.5301, -4.7334 ], [ 55.5252, -4.7304 ], [ 55.5209, -4.7047 ], [ 55.5295, -4.6841 ], [ 55.5339, -4.6827 ], [ 55.5344, -4.6747 ], [ 55.53, -4.6787 ], [ 55.5297, -4.676 ], [ 55.528, -4.6777 ], [ 55.5094, -4.6646 ], [ 55.5071, -4.6679 ], [ 55.5023, -4.6646 ], [ 55.4992, -4.6669 ], [ 55.4955, -4.662 ], [ 55.5006, -4.6612 ], [ 55.4926, -4.6548 ], [ 55.4903, -4.6563 ], [ 55.4909, -4.6524 ], [ 55.4855, -4.6504 ], [ 55.4815, -4.6503 ], [ 55.4863, -4.6556 ], [ 55.4833, -4.6569 ], [ 55.48, -4.6535 ], [ 55.4686, -4.6575 ] ], [ [ 55.4897, -4.6589 ], [ 55.4984, -4.667 ], [ 55.5079, -4.671 ], [ 55.4985, -4.6679 ], [ 55.4897, -4.6589 ] ] ] } },
{ "type": "Feature", "properties": { "iso3": "SYC", "unit_id": "60596559B54864792137543", "unit_name": "West Mahe" }, "geometry": { "type": "Polygon", "coordinates": [ [ [ 55.4319, -4.6268 ], [ 55.4239, -4.6283 ], [ 55.4213, -4.6322 ], [ 55.4127, -4.6318 ], [ 55.4144, -4.6405 ], [ 55.4056, -4.6395 ], [ 55.4078, -4.6428 ], [ 55.4024, -4.6471 ], [ 55.3835, -4.6253 ], [ 55.3736, -4.6319 ], [ 55.3808, -4.6397 ], [ 55.3797, -4.643 ], [ 55.3668, -4.639 ], [ 55.3652, -4.6422 ], [ 55.3775, -4.6505 ], [ 55.3866, -4.6484 ], [ 55.3855, -4.6443 ], [ 55.3965, -4.6485 ], [ 55.4002, -4.6532 ], [ 55.3926, -4.6546 ], [ 55.3929, -4.6581 ], [ 55.4036, -4.6642 ], [ 55.4044, -4.6596 ], [ 55.4104, -4.6583 ], [ 55.4251, -4.6741 ], [ 55.4334, -4.678 ], [ 55.4427, -4.6757 ], [ 55.449, -4.678 ], [ 55.4527, -4.6825 ], [ 55.4503, -4.6821 ], [ 55.4513, -4.6848 ], [ 55.4568, -4.6861 ], [ 55.4571, -4.6937 ], [ 55.4678, -4.7072 ], [ 55.4711, -4.7084 ], [ 55.4757, -4.7037 ], [ 55.4813, -4.7086 ], [ 55.4818, -4.7154 ], [ 55.4765, -4.7162 ], [ 55.4805, -4.7194 ], [ 55.4802, -4.7247 ], [ 55.4899, -4.7308 ], [ 55.4912, -4.7374 ], [ 55.476, -4.7436 ], [ 55.4665, -4.7414 ], [ 55.4618, -4.7482 ], [ 55.4651, -4.7544 ], [ 55.4608, -4.7557 ], [ 55.4619, -4.7587 ], [ 55.4678, -4.7668 ], [ 55.4735, -4.7577 ], [ 55.481, -4.7566 ], [ 55.4861, -4.7612 ], [ 55.486, -4.7651 ], [ 55.4826, -4.7667 ], [ 55.4997, -4.7662 ], [ 55.5121, -4.7695 ], [ 55.509, -4.7673 ], [ 55.5047, -4.7545 ], [ 55.5079, -4.7531 ], [ 55.5006, -4.7353 ], [ 55.503, -4.7353 ], [ 55.5053, -4.7162 ], [ 55.5004, -4.7062 ], [ 55.5013, -4.6939 ], [ 55.4903, -4.6847 ], [ 55.4802, -4.6825 ], [ 55.478, -4.6766 ], [ 55.4803, -4.6705 ], [ 55.4746, -4.6615 ], [ 55.4672, -4.6577 ], [ 55.4689, -4.6663 ], [ 55.4446, -4.6519 ], [ 55.4481, -4.651 ], [ 55.4468, -4.6484 ], [ 55.4402, -4.6465 ], [ 55.4421, -4.634 ], [ 55.4319, -4.6268 ] ] ] } },
{ "type": "Feature", "properties": { "iso3": "SYC", "unit_id": "60596559B3868224179271", "unit_name": "North Mahe" }, "geometry": { "type": "Polygon", "coordinates": [ [ [ 55.4604, -4.6055 ], [ 55.4567, -4.5939 ], [ 55.4614, -4.5856 ], [ 55.466, -4.5842 ], [ 55.4619, -4.574 ], [ 55.4505, -4.5623 ], [ 55.4473, -4.5647 ], [ 55.4357, -4.5615 ], [ 55.432, -4.5687 ], [ 55.4338, -4.5781 ], [ 55.4303, -4.6111 ], [ 55.4242, -4.6156 ], [ 55.396, -4.6179 ], [ 55.3855, -4.6229 ], [ 55.3857, -4.6264 ], [ 55.4024, -4.6471 ], [ 55.4078, -4.6428 ], [ 55.4056, -4.6395 ], [ 55.4144, -4.6405 ], [ 55.4127, -4.6318 ], [ 55.4322, -4.628 ], [ 55.4417, -4.6219 ], [ 55.4388, -4.6182 ], [ 55.4475, -4.6077 ], [ 55.4552, -4.6033 ], [ 55.4604, -4.6055 ] ] ] } },
{ "type": "Feature", "properties": { "iso3": "SYC", "unit_id": "60596559B78057953855730", "unit_name": "Praslin" }, "geometry": { "type": "MultiPolygon", "coordinates": [ [ [ [ 55.6519, -4.3547 ], [ 55.6472, -4.3481 ], [ 55.6438, -4.3498 ], [ 55.6519, -4.3547 ] ] ], [ [ [ 55.7929, -4.3399 ], [ 55.788, -4.3402 ], [ 55.7877, -4.3422 ], [ 55.7913, -4.3427 ], [ 55.7929, -4.3399 ] ] ], [ [ [ 55.6652, -4.3303 ], [ 55.6611, -4.3298 ], [ 55.6612, -4.3346 ], [ 55.6642, -4.3337 ], [ 55.6652, -4.3303 ] ] ], [ [ [ 55.7594, -4.3576 ], [ 55.7712, -4.3528 ], [ 55.7582, -4.3424 ], [ 55.7635, -4.3287 ], [ 55.7723, -4.3269 ], [ 55.7752, -4.3361 ], [ 55.7793, -4.3373 ], [ 55.7909, -4.3329 ], [ 55.7806, -4.3267 ], [ 55.778, -4.317 ], [ 55.7644, -4.3159 ], [ 55.7611, -4.321 ], [ 55.7571, -4.3214 ], [ 55.74, -4.3116 ], [ 55.7395, -4.3067 ], [ 55.7363, -4.3052 ], [ 55.7347, -4.3098 ], [ 55.7222, -4.3116 ], [ 55.7098, -4.2923 ], [ 55.7012, -4.2886 ], [ 55.7025, -4.2923 ], [ 55.6995, -4.2956 ], [ 55.6841, -4.2921 ], [ 55.6781, -4.296 ], [ 55.6769, -4.2999 ], [ 55.6838, -4.3094 ], [ 55.6852, -4.3192 ], [ 55.6919, -4.3253 ], [ 55.7174, -4.3287 ], [ 55.7225, -4.336 ], [ 55.7222, -4.3441 ], [ 55.7277, -4.3493 ], [ 55.7418, -4.3514 ], [ 55.7547, -4.3617 ], [ 55.7602, -4.3609 ], [ 55.7594, -4.3576 ] ] ], [ [ [ 55.7447, -4.2787 ], [ 55.7128, -4.2782 ], [ 55.7124, -4.2823 ], [ 55.7192, -4.2886 ], [ 55.7298, -4.292 ], [ 55.7332, -4.289 ], [ 55.7293, -4.289 ], [ 55.7277, -4.2839 ], [ 55.7388, -4.283 ], [ 55.7447, -4.2787 ] ] ] ] } },
{ "type": "Feature", "properties": { "iso3": "SYC", "unit_id": "60596559B63801145443710", "unit_name": "La Digue" }, "geometry": { "type": "Polygon", "coordinates": [ [ [ 55.8436, -4.3447 ], [ 55.8317, -4.3372 ], [ 55.8289, -4.3422 ], [ 55.8245, -4.3631 ], [ 55.8315, -4.3791 ], [ 55.8408, -4.3833 ], [ 55.8428, -4.3744 ], [ 55.8518, -4.3696 ], [ 55.8515, -4.3653 ], [ 55.8564, -4.3642 ], [ 55.8436, -4.3447 ] ] ] } },
{ "type": "Feature", "properties": { "iso3": "SYC", "unit_id": "60596559B39687019791843", "unit_name": "Other Islands" }, "geometry": { "type": "MultiPolygon", "coordinates": [ [ [ [ 46.234, -9.4504 ], [ 46.2328, -9.4493 ], [ 46.2328, -9.4506 ], [ 46.234, -9.4504 ] ] ], [ [ [ 46.2363, -9.4491 ], [ 46.234, -9.449 ], [ 46.2347, -9.4508 ], [ 46.2363, -9.4491 ] ] ], [ [ [ 46.2344, -9.4447 ], [ 46.2311, -9.4496 ], [ 46.2323, -9.4503 ], [ 46.2327, -9.4492 ], [ 46.235, -9.4475 ], [ 46.238, -9.4487 ], [ 46.2344, -9.4447 ] ] ], [ [ [ 46.2338, -9.4443 ], [ 46.2325, -9.4434 ], [ 46.2327, -9.4458 ], [ 46.232, -9.4463 ], [ 46.2324, -9.4474 ], [ 46.2338, -9.4443 ] ] ], [ [ [ 46.2272, -9.4376 ], [ 46.2269, -9.4405 ], [ 46.2282, -9.4417 ], [ 46.2289, -9.4402 ], [ 46.2272, -9.4376 ] ] ], [ [ [ 46.2354, -9.4351 ], [ 46.236, -9.4394 ], [ 46.2414, -9.4414 ], [ 46.2396, -9.4373 ], [ 46.2354, -9.4351 ] ] ], [ [ [ 46.2176, -9.4247 ], [ 46.2165, -9.4281 ], [ 46.2191, -9.4308 ], [ 46.2197, -9.4294 ], [ 46.2176, -9.4247 ] ] ], [ [ [ 46.2106, -9.416 ], [ 46.2097, -9.417 ], [ 46.2116, -9.4179 ], [ 46.2106, -9.416 ] ] ], [ [ [ 46.2105, -9.4136 ], [ 46.2084, -9.4141 ], [ 46.21, -9.4149 ], [ 46.2105, -9.4136 ] ] ], [ [ [ 46.2111, -9.4099 ], [ 46.208, -9.4097 ], [ 46.2079, -9.4111 ], [ 46.2111, -9.4099 ] ] ], [ [ [ 46.2123, -9.4052 ], [ 46.2067, -9.4064 ], [ 46.2088, -9.4079 ], [ 46.2123, -9.4052 ] ] ], [ [ [ 46.2331, -9.3693 ], [ 46.2097, -9.3792 ], [ 46.2036, -9.3899 ], [ 46.2076, -9.4042 ], [ 46.2144, -9.4004 ], [ 46.2111, -9.3969 ], [ 46.2144, -9.3961 ], [ 46.2288, -9.4046 ], [ 46.2321, -9.4003 ], [ 46.225, -9.3986 ], [ 46.2282, -9.3959 ], [ 46.2216, -9.39 ], [ 46.2274, -9.386 ], [ 46.2358, -9.3874 ], [ 46.2345, -9.3788 ], [ 46.2393, -9.3884 ], [ 46.2427, -9.3865 ], [ 46.2443, -9.394 ], [ 46.2454, -9.3891 ], [ 46.2407, -9.3794 ], [ 46.2313, -9.3764 ], [ 46.2298, -9.3741 ], [ 46.2403, -9.378 ], [ 46.2405, -9.3719 ], [ 46.2331, -9.3693 ] ] ], [ [ [ 46.265, -9.4566 ], [ 46.2643, -9.4556 ], [ 46.2656, -9.4589 ], [ 46.265, -9.4566 ] ] ], [ [ [ 46.2493, -9.4561 ], [ 46.2476, -9.4566 ], [ 46.2483, -9.4581 ], [ 46.2493, -9.4561 ] ] ], [ [ [ 46.251, -9.4252 ], [ 46.2464, -9.4275 ], [ 46.2521, -9.4301 ], [ 46.2559, -9.4278 ], [ 46.251, -9.4252 ] ] ], [ [ [ 46.2571, -9.3791 ], [ 46.2562, -9.3797 ], [ 46.2595, -9.3808 ], [ 46.2571, -9.3791 ] ] ], [ [ [ 46.2538, -9.3694 ], [ 46.2459, -9.3718 ], [ 46.2501, -9.3741 ], [ 46.2515, -9.3722 ], [ 46.2563, -9.3789 ], [ 46.2627, -9.3787 ], [ 46.2678, -9.3735 ], [ 46.2674, -9.3756 ], [ 46.2777, -9.3739 ], [ 46.2777, -9.3711 ], [ 46.2538, -9.3694 ] ] ], [ [ [ 46.3682, -9.4442 ], [ 46.3675, -9.4451 ], [ 46.369, -9.4451 ], [ 46.3682, -9.4442 ] ] ], [ [ [ 46.3592, -9.4428 ], [ 46.3582, -9.4433 ], [ 46.3589, -9.4444 ], [ 46.3592, -9.4428 ] ] ], [ [ [ 46.3642, -9.4435 ], [ 46.3595, -9.4427 ], [ 46.3594, -9.4445 ], [ 46.3568, -9.4456 ], [ 46.3569, -9.4483 ], [ 46.3491, -9.4472 ], [ 46.3472, -9.4528 ], [ 46.3455, -9.4507 ], [ 46.3321, -9.4557 ], [ 46.3242, -9.4547 ], [ 46.3216, -9.4579 ], [ 46.3182, -9.4581 ], [ 46.3176, -9.4552 ], [ 46.3137, -9.4601 ], [ 46.3082, -9.4588 ], [ 46.3107, -9.4622 ], [ 46.3082, -9.463 ], [ 46.3048, -9.4637 ], [ 46.304, -9.461 ], [ 46.3027, -9.4645 ], [ 46.299, -9.462 ], [ 46.2928, -9.4656 ], [ 46.291, -9.4611 ], [ 46.2883, -9.4631 ], [ 46.2898, -9.4667 ], [ 46.2874, -9.4643 ], [ 46.2856, -9.4674 ], [ 46.2847, -9.4652 ], [ 46.2799, -9.4668 ], [ 46.2804, -9.4702 ], [ 46.271, -9.4665 ], [ 46.2672, -9.4702 ], [ 46.2643, -9.4662 ], [ 46.2674, -9.4623 ], [ 46.2646, -9.4653 ], [ 46.2599, -9.4573 ], [ 46.2549, -9.4619 ], [ 46.2499, -9.459 ], [ 46.2444, -9.4623 ], [ 46.2464, -9.4563 ], [ 46.2429, -9.4571 ], [ 46.2427, -9.4526 ], [ 46.2388, -9.4512 ], [ 46.2372, -9.4553 ], [ 46.2382, -9.4499 ], [ 46.2349, -9.4532 ], [ 46.2301, -9.4501 ], [ 46.2319, -9.4427 ], [ 46.2298, -9.445 ], [ 46.2293, -9.4405 ], [ 46.2285, -9.4446 ], [ 46.2255, -9.4409 ], [ 46.2257, -9.4372 ], [ 46.2237, -9.4387 ], [ 46.2243, -9.4346 ], [ 46.2189, -9.4345 ], [ 46.22, -9.4322 ], [ 46.2165, -9.4294 ], [ 46.2138, -9.4194 ], [ 46.2087, -9.4206 ], [ 46.2251, -9.4715 ], [ 46.2334, -9.4844 ], [ 46.2536, -9.4934 ], [ 46.2871, -9.4935 ], [ 46.3393, -9.4677 ], [ 46.366, -9.4626 ], [ 46.3999, -9.4485 ], [ 46.4234, -9.4472 ], [ 46.436, -9.453 ], [ 46.4559, -9.455 ], [ 46.5035, -9.4411 ], [ 46.5126, -9.4346 ], [ 46.5205, -9.4224 ], [ 46.5231, -9.4012 ], [ 46.5158, -9.3944 ], [ 46.4912, -9.3833 ], [ 46.4429, -9.3738 ], [ 46.4496, -9.3828 ], [ 46.4506, -9.3814 ], [ 46.4537, -9.3831 ], [ 46.4537, -9.3803 ], [ 46.4554, -9.3844 ], [ 46.4568, -9.3814 ], [ 46.4578, -9.3811 ], [ 46.4573, -9.385 ], [ 46.4522, -9.385 ], [ 46.4541, -9.3887 ], [ 46.4586, -9.3856 ], [ 46.4661, -9.3901 ], [ 46.4633, -9.3939 ], [ 46.4676, -9.4024 ], [ 46.4696, -9.3996 ], [ 46.4719, -9.402 ], [ 46.4717, -9.4083 ], [ 46.4678, -9.4059 ], [ 46.4704, -9.4122 ], [ 46.4732, -9.412 ], [ 46.4753, -9.417 ], [ 46.481, -9.4171 ], [ 46.4857, -9.4215 ], [ 46.4862, -9.4245 ], [ 46.4766, -9.4213 ], [ 46.4784, -9.4274 ], [ 46.4766, -9.4233 ], [ 46.468, -9.4208 ], [ 46.4648, -9.4215 ], [ 46.4656, -9.4246 ], [ 46.4568, -9.4146 ], [ 46.4556, -9.4221 ], [ 46.4354, -9.4189 ], [ 46.4334, -9.422 ], [ 46.4287, -9.421 ], [ 46.4313, -9.4227 ], [ 46.432, -9.4241 ], [ 46.4265, -9.4267 ], [ 46.4284, -9.4337 ], [ 46.4174, -9.4327 ], [ 46.415, -9.4364 ], [ 46.4114, -9.4341 ], [ 46.4062, -9.4362 ], [ 46.408, -9.4406 ], [ 46.4049, -9.437 ], [ 46.393, -9.4368 ], [ 46.3914, -9.4382 ], [ 46.3955, -9.443 ], [ 46.3921, -9.4404 ], [ 46.3915, -9.4434 ], [ 46.3886, -9.439 ], [ 46.3846, -9.44 ], [ 46.3844, -9.4442 ], [ 46.3817, -9.439 ], [ 46.3822, -9.4457 ], [ 46.3791, -9.4424 ], [ 46.3727, -9.4436 ], [ 46.3733, -9.4461 ], [ 46.3702, -9.4442 ], [ 46.3678, -9.4517 ], [ 46.3642, -9.4435 ] ] ], [ [ [ 46.276, -9.3813 ], [ 46.2747, -9.3816 ], [ 46.2744, -9.3839 ], [ 46.276, -9.3813 ] ] ], [ [ [ 46.2853, -9.378 ], [ 46.2827, -9.3785 ], [ 46.2865, -9.3803 ], [ 46.2853, -9.378 ] ] ], [ [ [ 46.2788, -9.3779 ], [ 46.2781, -9.3788 ], [ 46.2801, -9.3792 ], [ 46.2788, -9.3779 ] ] ], [ [ [ 46.4077, -9.3847 ], [ 46.413, -9.3876 ], [ 46.4157, -9.3836 ], [ 46.4211, -9.387 ], [ 46.4283, -9.3789 ], [ 46.4329, -9.3805 ], [ 46.4317, -9.3827 ], [ 46.4392, -9.3742 ], [ 46.3882, -9.3667 ], [ 46.3661, -9.3702 ], [ 46.3229, -9.3692 ], [ 46.3217, -9.3726 ], [ 46.3207, -9.3697 ], [ 46.2997, -9.3679 ], [ 46.2784, -9.3729 ], [ 46.2784, -9.3776 ], [ 46.282, -9.3772 ], [ 46.2805, -9.375 ], [ 46.2906, -9.3773 ], [ 46.2951, -9.3837 ], [ 46.2953, -9.3811 ], [ 46.3003, -9.3826 ], [ 46.3033, -9.3786 ], [ 46.3018, -9.3816 ], [ 46.3046, -9.3789 ], [ 46.3044, -9.3826 ], [ 46.3052, -9.3801 ], [ 46.3085, -9.3831 ], [ 46.3244, -9.3815 ], [ 46.3271, -9.3842 ], [ 46.3273, -9.3807 ], [ 46.3309, -9.3823 ], [ 46.3368, -9.3793 ], [ 46.3415, -9.3825 ], [ 46.3452, -9.3798 ], [ 46.3606, -9.3829 ], [ 46.3616, -9.3853 ], [ 46.3636, -9.3825 ], [ 46.3701, -9.387 ], [ 46.3736, -9.3824 ], [ 46.3766, -9.3851 ], [ 46.3815, -9.3814 ], [ 46.3823, -9.3843 ], [ 46.3851, -9.383 ], [ 46.3915, -9.3869 ], [ 46.3912, -9.3838 ], [ 46.3939, -9.3861 ], [ 46.4077, -9.3847 ] ] ], [ [ [ 46.2772, -9.3759 ], [ 46.2763, -9.377 ], [ 46.2778, -9.3767 ], [ 46.2772, -9.3759 ] ] ], [ [ [ 46.3773, -9.3863 ], [ 46.3741, -9.3852 ], [ 46.3742, -9.3865 ], [ 46.3773, -9.3863 ] ] ], [ [ [ 46.4355, -9.3819 ], [ 46.4337, -9.3824 ], [ 46.433, -9.3842 ], [ 46.4355, -9.3819 ] ] ], [ [ [ 46.4413, -9.4114 ], [ 46.4411, -9.4131 ], [ 46.443, -9.4128 ], [ 46.4413, -9.4114 ] ] ], [ [ [ 46.4477, -9.3996 ], [ 46.4473, -9.4047 ], [ 46.4439, -9.4065 ], [ 46.4483, -9.4135 ], [ 46.4477, -9.3996 ] ] ], [ [ [ 46.4568, -9.39 ], [ 46.4525, -9.3922 ], [ 46.454, -9.3949 ], [ 46.4631, -9.3976 ], [ 46.4568, -9.39 ] ] ], [ [ [ 46.4513, -9.3826 ], [ 46.4508, -9.3843 ], [ 46.4523, -9.3831 ], [ 46.4513, -9.3826 ] ] ], [ [ [ 47.5952, -9.7685 ], [ 47.5744, -9.7701 ], [ 47.5688, -9.7684 ], [ 47.5785, -9.7714 ], [ 47.5952, -9.7685 ] ] ], [ [ [ 47.6067, -9.7634 ], [ 47.6056, -9.7619 ], [ 47.6079, -9.7648 ], [ 47.6067, -9.7634 ] ] ], [ [ [ 47.6571, -9.7362 ], [ 47.6476, -9.7344 ], [ 47.6512, -9.7381 ], [ 47.6505, -9.7477 ], [ 47.6353, -9.7622 ], [ 47.6415, -9.7619 ], [ 47.6497, -9.7532 ], [ 47.6571, -9.7362 ] ] ], [ [ [ 47.5105, -9.7318 ], [ 47.5103, -9.7306 ], [ 47.5104, -9.7335 ], [ 47.5105, -9.7318 ] ] ], [ [ [ 46.5188, -9.6968 ], [ 46.5135, -9.7011 ], [ 46.5165, -9.7136 ], [ 46.5138, -9.7223 ], [ 46.5056, -9.7317 ], [ 46.4911, -9.7403 ], [ 46.493, -9.753 ], [ 46.5064, -9.7533 ], [ 46.5124, -9.7504 ], [ 46.5235, -9.7336 ], [ 46.5259, -9.7129 ], [ 46.5188, -9.6968 ] ] ], [ [ [ 47.5116, -9.7245 ], [ 47.5112, -9.7236 ], [ 47.5107, -9.7247 ], [ 47.5116, -9.7245 ] ] ], [ [ [ 47.6549, -9.7123 ], [ 47.6561, -9.7253 ], [ 47.6579, -9.7264 ], [ 47.6584, -9.7212 ], [ 47.6549, -9.7123 ] ] ], [ [ [ 47.5177, -9.7179 ], [ 47.5165, -9.7165 ], [ 47.5167, -9.7182 ], [ 47.5177, -9.7179 ] ] ], [ [ [ 47.5287, -9.7048 ], [ 47.5124, -9.7048 ], [ 47.5072, -9.7097 ], [ 47.5074, -9.7273 ], [ 47.5098, -9.7267 ], [ 47.5098, -9.7204 ], [ 47.5212, -9.7096 ], [ 47.5172, -9.709 ], [ 47.5213, -9.7049 ], [ 47.5287, -9.7048 ] ] ], [ [ [ 47.6439, -9.699 ], [ 47.6431, -9.6998 ], [ 47.6452, -9.7008 ], [ 47.6439, -9.699 ] ] ], [ [ [ 47.5866, -9.6623 ], [ 47.5846, -9.6649 ], [ 47.5877, -9.6634 ], [ 47.5866, -9.6623 ] ] ], [ [ [ 47.5724, -9.6627 ], [ 47.5719, -9.6587 ], [ 47.5696, -9.6637 ], [ 47.5724, -9.6627 ] ] ], [ [ [ 46.4694, -9.4111 ], [ 46.4689, -9.4098 ], [ 46.4675, -9.411 ], [ 46.4694, -9.4111 ] ] ], [ [ [ 46.4638, -9.3982 ], [ 46.4603, -9.3984 ], [ 46.4625, -9.4038 ], [ 46.459, -9.4086 ], [ 46.4666, -9.4067 ], [ 46.4638, -9.3982 ] ] ], [ [ [ 51.1763, -10.1601 ], [ 51.1703, -10.1643 ], [ 51.174, -10.1669 ], [ 51.1695, -10.1662 ], [ 51.1711, -10.1736 ], [ 51.1685, -10.1737 ], [ 51.1693, -10.1697 ], [ 51.1617, -10.1911 ], [ 51.1584, -10.1939 ], [ 51.1606, -10.1888 ], [ 51.1539, -10.1983 ], [ 51.155, -10.2051 ], [ 51.1599, -10.2049 ], [ 51.1802, -10.1633 ], [ 51.1763, -10.1601 ] ] ], [ [ [ 51.1771, -10.1553 ], [ 51.1764, -10.1567 ], [ 51.1793, -10.1571 ], [ 51.1771, -10.1553 ] ] ], [ [ [ 51.1758, -10.1081 ], [ 51.1714, -10.1072 ], [ 51.1589, -10.122 ], [ 51.1637, -10.1247 ], [ 51.1655, -10.1196 ], [ 51.1757, -10.1149 ], [ 51.1812, -10.1193 ], [ 51.1872, -10.135 ], [ 51.1847, -10.1424 ], [ 51.1758, -10.1505 ], [ 51.1776, -10.1534 ], [ 51.1856, -10.1476 ], [ 51.1893, -10.1326 ], [ 51.1844, -10.1174 ], [ 51.1758, -10.1081 ] ] ], [ [ [ 47.7313, -10.0766 ], [ 47.7314, -10.0754 ], [ 47.7304, -10.0762 ], [ 47.7313, -10.0766 ] ] ], [ [ [ 47.7311, -10.0755 ], [ 47.7305, -10.0747 ], [ 47.7295, -10.0759 ], [ 47.7311, -10.0755 ] ] ], [ [ [ 47.7343, -10.0421 ], [ 47.7277, -10.058 ], [ 47.716, -10.0694 ], [ 47.7175, -10.0794 ], [ 47.7276, -10.0871 ], [ 47.7232, -10.08 ], [ 47.7321, -10.0631 ], [ 47.7313, -10.0585 ], [ 47.7387, -10.0483 ], [ 47.7428, -10.0504 ], [ 47.7421, -10.0571 ], [ 47.7478, -10.0595 ], [ 47.7487, -10.0667 ], [ 47.7416, -10.0837 ], [ 47.7385, -10.0833 ], [ 47.7383, -10.0859 ], [ 47.7352, -10.083 ], [ 47.7373, -10.0873 ], [ 47.7267, -10.0821 ], [ 47.7299, -10.0888 ], [ 47.7374, -10.0881 ], [ 47.743, -10.0838 ], [ 47.7501, -10.0698 ], [ 47.7489, -10.0606 ], [ 47.7465, -10.0543 ], [ 47.7419, -10.0476 ], [ 47.7343, -10.0421 ] ] ], [ [ [ 50.7291, -9.3242 ], [ 50.7216, -9.3289 ], [ 50.7242, -9.3367 ], [ 50.7356, -9.3312 ], [ 50.7344, -9.3268 ], [ 50.7291, -9.3242 ] ] ], [ [ [ 51.0333, -9.2422 ], [ 51.034, -9.2209 ], [ 51.0301, -9.2101 ], [ 51.0277, -9.2231 ], [ 51.0333, -9.2422 ] ] ], [ [ [ 52.7383, -7.1568 ], [ 52.7382, -7.1559 ], [ 52.7372, -7.1573 ], [ 52.7383, -7.1568 ] ] ], [ [ [ 52.7366, -7.1507 ], [ 52.7339, -7.1579 ], [ 52.7346, -7.1599 ], [ 52.7368, -7.1609 ], [ 52.7432, -7.1581 ], [ 52.7446, -7.1569 ], [ 52.7455, -7.155 ], [ 52.7419, -7.1586 ], [ 52.736, -7.1603 ], [ 52.741, -7.1575 ], [ 52.7414, -7.1558 ], [ 52.7364, -7.159 ], [ 52.7366, -7.1507 ] ] ], [ [ [ 56.2938, -7.0959 ], [ 56.2881, -7.0978 ], [ 56.284, -7.1037 ], [ 56.258, -7.1758 ], [ 56.2699, -7.1543 ], [ 56.2888, -7.1303 ], [ 56.2934, -7.1131 ], [ 56.2938, -7.0959 ] ] ], [ [ [ 52.7243, -6.999 ], [ 52.7214, -7.0006 ], [ 52.7212, -7.0072 ], [ 52.7248, -7.0153 ], [ 52.7359, -7.0069 ], [ 52.7243, -6.999 ] ] ], [ [ [ 53.0433, -6.2316 ], [ 53.0401, -6.2352 ], [ 53.04, -6.2376 ], [ 53.0465, -6.2357 ], [ 53.0433, -6.2316 ] ] ], [ [ [ 53.1449, -6.1734 ], [ 53.1408, -6.177 ], [ 53.1432, -6.1855 ], [ 53.1466, -6.1801 ], [ 53.1449, -6.1734 ] ] ], [ [ [ 55.3837, -5.8588 ], [ 55.3822, -5.8624 ], [ 55.3841, -5.8701 ], [ 55.3868, -5.8624 ], [ 55.3837, -5.8588 ] ] ], [ [ [ 53.3075, -5.7578 ], [ 53.3104, -5.7722 ], [ 53.3074, -5.7773 ], [ 53.3063, -5.7586 ], [ 53.304, -5.7674 ], [ 53.3009, -5.7664 ], [ 53.3032, -5.7631 ], [ 53.2985, -5.7656 ], [ 53.301, -5.761 ], [ 53.2981, -5.7659 ], [ 53.3023, -5.7683 ], [ 53.3077, -5.7798 ], [ 53.3104, -5.7767 ], [ 53.3117, -5.7668 ], [ 53.3075, -5.7578 ] ] ], [ [ [ 53.3042, -5.759 ], [ 53.3014, -5.7592 ], [ 53.3013, -5.7638 ], [ 53.3042, -5.759 ] ] ], [ [ [ 53.3053, -5.7433 ], [ 53.2996, -5.7464 ], [ 53.3003, -5.7533 ], [ 53.3139, -5.7482 ], [ 53.3053, -5.7433 ] ] ], [ [ [ 53.689, -5.6754 ], [ 53.6687, -5.688 ], [ 53.6503, -5.6936 ], [ 53.6489, -5.7031 ], [ 53.6636, -5.6982 ], [ 53.668, -5.6914 ], [ 53.6761, -5.6911 ], [ 53.68, -5.6863 ], [ 53.6858, -5.6856 ], [ 53.692, -5.6768 ], [ 53.689, -5.6754 ] ] ], [ [ [ 53.3481, -5.4478 ], [ 53.3463, -5.4485 ], [ 53.3468, -5.4503 ], [ 53.3481, -5.4478 ] ] ], [ [ [ 53.3478, -5.439 ], [ 53.3449, -5.4425 ], [ 53.3468, -5.4431 ], [ 53.3478, -5.439 ] ] ], [ [ [ 53.3485, -5.4281 ], [ 53.361, -5.4348 ], [ 53.3563, -5.4415 ], [ 53.3597, -5.4435 ], [ 53.3574, -5.4451 ], [ 53.354, -5.4406 ], [ 53.3563, -5.4453 ], [ 53.354, -5.4456 ], [ 53.3564, -5.4464 ], [ 53.3649, -5.4407 ], [ 53.3648, -5.4352 ], [ 53.3485, -5.4281 ] ] ], [ [ [ 53.3399, -5.4217 ], [ 53.3386, -5.4247 ], [ 53.3448, -5.4255 ], [ 53.3399, -5.4217 ] ] ], [ [ [ 53.3022, -5.4098 ], [ 53.2939, -5.4131 ], [ 53.2895, -5.4192 ], [ 53.295, -5.4216 ], [ 53.3042, -5.4179 ], [ 53.3066, -5.4133 ], [ 53.3022, -5.4098 ] ] ], [ [ [ 53.329, -5.4095 ], [ 53.3256, -5.4078 ], [ 53.325, -5.4139 ], [ 53.329, -5.4095 ] ] ], [ [ [ 53.3132, -5.1137 ], [ 53.3103, -5.116 ], [ 53.3098, -5.1188 ], [ 53.3142, -5.1181 ], [ 53.3132, -5.1137 ] ] ], [ [ [ 55.4324, -4.6856 ], [ 55.4349, -4.6868 ], [ 55.4343, -4.685 ], [ 55.4324, -4.6856 ] ] ], [ [ [ 55.4044, -4.6716 ], [ 55.3958, -4.669 ], [ 55.4042, -4.6807 ], [ 55.4068, -4.6762 ], [ 55.4044, -4.6716 ] ] ], [ [ [ 55.525, -4.6638 ], [ 55.5221, -4.6635 ], [ 55.5223, -4.667 ], [ 55.525, -4.6638 ] ] ], [ [ [ 55.3728, -4.6675 ], [ 55.3625, -4.6596 ], [ 55.3602, -4.6621 ], [ 55.3632, -4.6657 ], [ 55.3728, -4.6675 ] ] ], [ [ [ 55.4099, -4.664 ], [ 55.4091, -4.6616 ], [ 55.4084, -4.663 ], [ 55.4099, -4.664 ] ] ], [ [ [ 55.5248, -4.6137 ], [ 55.5228, -4.6132 ], [ 55.5239, -4.6142 ], [ 55.5248, -4.6137 ] ] ], [ [ [ 55.9414, -4.5796 ], [ 55.9339, -4.5813 ], [ 55.9319, -4.5848 ], [ 55.9388, -4.5925 ], [ 55.9482, -4.5929 ], [ 55.9475, -4.5898 ], [ 55.9514, -4.5882 ], [ 55.9414, -4.5796 ] ] ], [ [ [ 55.2319, -4.4647 ], [ 55.2145, -4.4661 ], [ 55.2081, -4.4708 ], [ 55.2048, -4.4808 ], [ 55.2125, -4.4942 ], [ 55.2248, -4.5028 ], [ 55.225, -4.5122 ], [ 55.2371, -4.5139 ], [ 55.2462, -4.5101 ], [ 55.2513, -4.4915 ], [ 55.2556, -4.4891 ], [ 55.2432, -4.4701 ], [ 55.2319, -4.4647 ] ] ], [ [ [ 55.2462, -4.3854 ], [ 55.2386, -4.384 ], [ 55.2413, -4.4001 ], [ 55.2482, -4.4007 ], [ 55.2531, -4.3939 ], [ 55.2502, -4.3945 ], [ 55.2462, -4.3854 ] ] ], [ [ [ 55.9213, -4.3339 ], [ 55.9176, -4.3406 ], [ 55.9214, -4.3513 ], [ 55.9249, -4.339 ], [ 55.9213, -4.3339 ] ] ], [ [ [ 55.8723, -4.3167 ], [ 55.8677, -4.3165 ], [ 55.8655, -4.3217 ], [ 55.8676, -4.3264 ], [ 55.8789, -4.338 ], [ 55.8832, -4.3372 ], [ 55.8855, -4.335 ], [ 55.8825, -4.3275 ], [ 55.8723, -4.3167 ] ] ], [ [ [ 55.8681, -4.2801 ], [ 55.8654, -4.2824 ], [ 55.8663, -4.2873 ], [ 55.8726, -4.2951 ], [ 55.8726, -4.2861 ], [ 55.8681, -4.2801 ] ] ], [ [ [ 55.853, -4.2815 ], [ 55.8562, -4.288 ], [ 55.8602, -4.2887 ], [ 55.8596, -4.2849 ], [ 55.853, -4.2815 ] ] ], [ [ [ 55.6708, -4.2081 ], [ 55.6595, -4.2101 ], [ 55.675, -4.2118 ], [ 55.6708, -4.2081 ] ] ], [ [ [ 55.6688, -3.7991 ], [ 55.6597, -3.8017 ], [ 55.6655, -3.8147 ], [ 55.672, -3.806 ], [ 55.6688, -3.7991 ] ] ], [ [ [ 55.205, -3.7143 ], [ 55.2024, -3.7153 ], [ 55.2022, -3.7271 ], [ 55.2103, -3.7202 ], [ 55.205, -3.7143 ] ] ] ] } }
]
}
