{
"type": "FeatureCollection",
"name": "TGO",
"crs": { "type": "name", "properties": { "name": "urn:ogc:def:crs:OGC:1.3:CRS84" } },
"xy_coordinate_resolution": 0.0001,
"features": [
{ "type": "Feature", "properties": { "iso3": "TGO", "unit_id": "87587387B77658165840360", "unit_name": "Blitta" }, "geometry": { "type": "Polygon", "coordinates": [ [ [ 0.616, 7.891 ], [ 0.6662, 7.894 ], [ 0.6787, 7.897 ], [ 0.6849, 7.9021 ], [ 0.7001, 7.9211 ], [ 0.6906, 7.9427 ], [ 0.6897, 7.9515 ], [ 0.6929, 7.9597 ], [ 0.7014, 7.9633 ], [ 0.7095, 7.9646 ], [ 0.7126, 7.9519 ], [ 0.7344, 7.9473 ], [ 0.7731, 7.9324 ], [ 0.8093, 7.9424 ], [ 0.8206, 7.9485 ], [ 0.8259, 7.9538 ], [ 0.8316, 7.9682 ], [ 0.8301, 7.9744 ], [ 0.8339, 7.9939 ], [ 0.8316, 7.9986 ], [ 0.8352, 8.0066 ], [ 0.8335, 8.0165 ], [ 0.8371, 8.0387 ], [ 0.8618, 8.0318 ], [ 0.8682, 8.0221 ], [ 0.8845, 7.9595 ], [ 0.919, 7.9646 ], [ 0.9632, 7.981 ], [ 0.989, 7.9716 ], [ 1.0299, 7.9643 ], [ 1.0593, 7.9498 ], [ 1.0744, 7.9491 ], [ 1.1418, 7.9619 ], [ 1.1698, 7.9854 ], [ 1.1857, 7.9899 ], [ 1.1956, 8.0005 ], [ 1.1974, 8.0153 ], [ 1.2167, 8.0335 ], [ 1.2348, 8.0323 ], [ 1.251, 8.0568 ], [ 1.2507, 8.0783 ], [ 1.2304, 8.0919 ], [ 1.2304, 8.0956 ], [ 1.2338, 8.099 ], [ 1.2479, 8.0997 ], [ 1.2555, 8.1036 ], [ 1.2564, 8.1325 ], [ 1.2637, 8.1579 ], [ 1.2644, 8.1863 ], [ 1.2603, 8.1991 ], [ 1.2463, 8.2105 ], [ 1.2429, 8.2204 ], [ 1.247, 8.239 ], [ 1.2602, 8.2458 ], [ 1.2515, 8.2655 ], [ 1.2401, 8.2751 ], [ 1.23, 8.2959 ], [ 1.2293, 8.3469 ], [ 1.2354, 8.3597 ], [ 1.2196, 8.3626 ], [ 1.1765, 8.3808 ], [ 1.1615, 8.3666 ], [ 1.1335, 8.3681 ], [ 1.1145, 8.3765 ], [ 1.064, 8.3884 ], [ 1.0554, 8.3933 ], [ 1.0098, 8.3836 ], [ 0.966, 8.3825 ], [ 0.9443, 8.3788 ], [ 0.9321, 8.3845 ], [ 0.9253, 8.385 ], [ 0.9194, 8.3804 ], [ 0.909, 8.384 ], [ 0.9021, 8.3826 ], [ 0.8951, 8.3877 ], [ 0.8879, 8.3849 ], [ 0.8829, 8.3876 ], [ 0.8649, 8.3812 ], [ 0.8641, 8.3777 ], [ 0.7719, 8.4127 ], [ 0.7724, 8.389 ], [ 0.7381, 8.3693 ], [ 0.7233, 8.3743 ], [ 0.7144, 8.3641 ], [ 0.7147, 8.3573 ], [ 0.722, 8.3527 ], [ 0.7199, 8.343 ], [ 0.7302, 8.3317 ], [ 0.7302, 8.3031 ], [ 0.7245, 8.2833 ], [ 0.6931, 8.2806 ], [ 0.6848, 8.2758 ], [ 0.6755, 8.2628 ], [ 0.6411, 8.2573 ], [ 0.632, 8.2379 ], [ 0.6258, 8.2321 ], [ 0.6239, 8.2207 ], [ 0.5945, 8.2053 ], [ 0.5895, 8.1966 ], [ 0.5914, 8.1875 ], [ 0.5994, 8.1788 ], [ 0.6032, 8.1614 ], [ 0.6029, 8.1403 ], [ 0.5955, 8.1355 ], [ 0.5911, 8.1084 ], [ 0.5922, 8.0713 ], [ 0.5986, 8.046 ], [ 0.5967, 8.038 ], [ 0.6072, 8.0037 ], [ 0.6011, 8.0 ], [ 0.5977, 7.9758 ], [ 0.6094, 7.9235 ], [ 0.6136, 7.9209 ], [ 0.6117, 7.9069 ], [ 0.616, 7.891 ] ] ] } },
{ "type": "Feature", "properties": { "iso3": "TGO", "unit_id": "87587387B44666461445482", "unit_name": "Plaine du Mo" }, "geometry": { "type": "Polygon", "coordinates": [ [ [ 0.5247, 8.8449 ], [ 0.5024, 8.8411 ], [ 0.4974, 8.8126 ], [ 0.4713, 8.7966 ], [ 0.4658, 8.7961 ], [ 0.4553, 8.8086 ], [ 0.4518, 8.8091 ], [ 0.4323, 8.7981 ], [ 0.4378, 8.7906 ], [ 0.4348, 8.7841 ], [ 0.4268, 8.7841 ], [ 0.4188, 8.7941 ], [ 0.4133, 8.7951 ], [ 0.4083, 8.7921 ], [ 0.3913, 8.7916 ], [ 0.3857, 8.7866 ], [ 0.3842, 8.7796 ], [ 0.3958, 8.76 ], [ 0.3862, 8.7575 ], [ 0.3847, 8.752 ], [ 0.3767, 8.749 ], [ 0.3877, 8.7245 ], [ 0.4343, 8.6629 ], [ 0.4728, 8.5979 ], [ 0.4914, 8.5979 ], [ 0.5034, 8.5789 ], [ 0.5134, 8.5693 ], [ 0.5189, 8.5678 ], [ 0.5329, 8.5739 ], [ 0.5369, 8.5593 ], [ 0.5584, 8.5503 ], [ 0.5784, 8.5268 ], [ 0.5855, 8.5218 ], [ 0.6173, 8.5135 ], [ 0.6305, 8.5243 ], [ 0.6826, 8.5428 ], [ 0.7881, 8.6388 ], [ 0.7771, 8.6514 ], [ 0.7646, 8.6584 ], [ 0.7491, 8.682 ], [ 0.7206, 8.703 ], [ 0.7071, 8.7078 ], [ 0.6981, 8.8341 ], [ 0.7101, 8.8496 ], [ 0.7421, 8.8606 ], [ 0.7407, 8.87 ], [ 0.7178, 8.8924 ], [ 0.7128, 8.9069 ], [ 0.7128, 8.9465 ], [ 0.7078, 8.9785 ], [ 0.6932, 9.0102 ], [ 0.6961, 9.0124 ], [ 0.6911, 9.0148 ], [ 0.6851, 9.0128 ], [ 0.665, 8.9828 ], [ 0.6423, 8.9815 ], [ 0.6338, 8.9649 ], [ 0.632, 8.9474 ], [ 0.6136, 8.9283 ], [ 0.5842, 8.9154 ], [ 0.578, 8.9059 ], [ 0.579, 8.8983 ], [ 0.591, 8.8913 ], [ 0.5909, 8.8794 ], [ 0.5829, 8.8767 ], [ 0.5599, 8.8787 ], [ 0.5499, 8.8712 ], [ 0.5394, 8.8512 ], [ 0.5247, 8.8449 ] ] ] } },
{ "type": "Feature", "properties": { "iso3": "TGO", "unit_id": "87587387B99391770758825", "unit_name": "Sotouboua" }, "geometry": { "type": "Polygon", "coordinates": [ [ [ 1.2354, 8.3597 ], [ 1.2289, 8.3784 ], [ 1.2352, 8.396 ], [ 1.2354, 8.414 ], [ 1.227, 8.4488 ], [ 1.2277, 8.4608 ], [ 1.238, 8.4817 ], [ 1.2271, 8.5122 ], [ 1.2319, 8.5289 ], [ 1.236, 8.5327 ], [ 1.2521, 8.5361 ], [ 1.2687, 8.5483 ], [ 1.2687, 8.5555 ], [ 1.2635, 8.5579 ], [ 1.252, 8.5556 ], [ 1.2426, 8.5615 ], [ 1.2501, 8.5844 ], [ 1.2571, 8.589 ], [ 1.2621, 8.6006 ], [ 1.2534, 8.6396 ], [ 1.2687, 8.6587 ], [ 1.2629, 8.6682 ], [ 1.2555, 8.6682 ], [ 1.2391, 8.6754 ], [ 1.2335, 8.6737 ], [ 1.2125, 8.6843 ], [ 1.2034, 8.7268 ], [ 1.1981, 8.7365 ], [ 1.1781, 8.7428 ], [ 1.1775, 8.7454 ], [ 1.1493, 8.7446 ], [ 1.1315, 8.7393 ], [ 1.1107, 8.7488 ], [ 1.1039, 8.7554 ], [ 1.0906, 8.7554 ], [ 1.078, 8.7472 ], [ 1.0638, 8.7456 ], [ 1.0407, 8.7699 ], [ 1.0302, 8.7735 ], [ 1.0156, 8.7873 ], [ 0.9801, 8.7878 ], [ 0.9736, 8.7848 ], [ 0.9706, 8.7703 ], [ 0.9626, 8.7698 ], [ 0.9611, 8.7758 ], [ 0.9511, 8.7843 ], [ 0.9351, 8.7923 ], [ 0.9321, 8.8018 ], [ 0.9451, 8.8359 ], [ 0.9551, 8.8474 ], [ 0.9606, 8.8594 ], [ 0.9661, 8.8874 ], [ 0.9522, 8.9048 ], [ 0.9232, 8.9098 ], [ 0.9031, 8.9178 ], [ 0.8766, 9.002 ], [ 0.842, 9.0126 ], [ 0.822, 9.0134 ], [ 0.7857, 9.0255 ], [ 0.7804, 9.05 ], [ 0.7737, 9.0538 ], [ 0.7675, 9.0528 ], [ 0.7566, 9.0447 ], [ 0.7471, 9.0456 ], [ 0.7346, 9.0531 ], [ 0.7223, 9.0402 ], [ 0.7139, 9.0179 ], [ 0.7097, 9.0136 ], [ 0.6932, 9.0102 ], [ 0.7078, 8.9785 ], [ 0.7128, 8.9465 ], [ 0.7128, 8.9069 ], [ 0.7178, 8.8924 ], [ 0.7407, 8.87 ], [ 0.7421, 8.8606 ], [ 0.7101, 8.8496 ], [ 0.6981, 8.8341 ], [ 0.7071, 8.7078 ], [ 0.7206, 8.703 ], [ 0.7491, 8.682 ], [ 0.7646, 8.6584 ], [ 0.7771, 8.6514 ], [ 0.7881, 8.6388 ], [ 0.6826, 8.5428 ], [ 0.6305, 8.5243 ], [ 0.6173, 8.5135 ], [ 0.6245, 8.5093 ], [ 0.6285, 8.5003 ], [ 0.6445, 8.4913 ], [ 0.6495, 8.4833 ], [ 0.6561, 8.4624 ], [ 0.6585, 8.4307 ], [ 0.6645, 8.4197 ], [ 0.6856, 8.4097 ], [ 0.6976, 8.3977 ], [ 0.7081, 8.3962 ], [ 0.7086, 8.3877 ], [ 0.7141, 8.3842 ], [ 0.7144, 8.3641 ], [ 0.7233, 8.3743 ], [ 0.7381, 8.3693 ], [ 0.7724, 8.389 ], [ 0.7719, 8.4127 ], [ 0.8641, 8.3777 ], [ 0.8649, 8.3812 ], [ 0.8829, 8.3876 ], [ 0.8879, 8.3849 ], [ 0.8951, 8.3877 ], [ 0.9021, 8.3826 ], [ 0.909, 8.384 ], [ 0.9194, 8.3804 ], [ 0.9253, 8.385 ], [ 0.9321, 8.3845 ], [ 0.9443, 8.3788 ], [ 0.966, 8.3825 ], [ 1.0098, 8.3836 ], [ 1.0554, 8.3933 ], [ 1.064, 8.3884 ], [ 1.1145, 8.3765 ], [ 1.1335, 8.3681 ], [ 1.1615, 8.3666 ], [ 1.1765, 8.3808 ], [ 1.2196, 8.3626 ], [ 1.2354, 8.3597 ] ] ] } },
{ "type": "Feature", "properties": { "iso3": "TGO", "unit_id": "87587387B42223434619410", "unit_name": "Tchamba" }, "geometry": { "type": "Polygon", "coordinates": [ [ [ 1.2289, 8.3784 ], [ 1.2447, 8.373 ], [ 1.2776, 8.3726 ], [ 1.2879, 8.3664 ], [ 1.3108, 8.3661 ], [ 1.32, 8.3579 ], [ 1.3385, 8.3596 ], [ 1.3574, 8.351 ], [ 1.3848, 8.3551 ], [ 1.3889, 8.3589 ], [ 1.405, 8.3627 ], [ 1.455, 8.3637 ], [ 1.4694, 8.3682 ], [ 1.4834, 8.3824 ], [ 1.5007, 8.4032 ], [ 1.513, 8.4282 ], [ 1.5248, 8.4377 ], [ 1.5938, 8.4553 ], [ 1.6196, 8.4701 ], [ 1.6499, 8.4781 ], [ 1.6492, 8.4908 ], [ 1.6375, 8.5089 ], [ 1.6286, 8.6476 ], [ 1.6317, 8.6795 ], [ 1.6336, 8.7961 ], [ 1.629, 8.8305 ], [ 1.6327, 8.8603 ], [ 1.6221, 8.9552 ], [ 1.63, 8.999 ], [ 1.6245, 9.0421 ], [ 1.6156, 9.0627 ], [ 1.6177, 9.0716 ], [ 1.5981, 9.111 ], [ 1.579, 9.1319 ], [ 1.5594, 9.1699 ], [ 1.5263, 9.1904 ], [ 1.4852, 9.2343 ], [ 1.4754, 9.2408 ], [ 1.462, 9.2547 ], [ 1.453, 9.2748 ], [ 1.4445, 9.2842 ], [ 1.4371, 9.2766 ], [ 1.4307, 9.2631 ], [ 1.4206, 9.2295 ], [ 1.4106, 9.2191 ], [ 1.3966, 9.1957 ], [ 1.3961, 9.1772 ], [ 1.3908, 9.1597 ], [ 1.4112, 9.1319 ], [ 1.4105, 9.1202 ], [ 1.3974, 9.099 ], [ 1.3899, 9.0685 ], [ 1.3779, 9.0578 ], [ 1.3628, 9.0335 ], [ 1.3551, 9.0332 ], [ 1.3503, 9.0294 ], [ 1.3524, 9.0243 ], [ 1.3756, 9.0035 ], [ 1.3801, 8.9911 ], [ 1.3762, 8.9815 ], [ 1.3682, 8.9723 ], [ 1.356, 8.969 ], [ 1.3084, 8.9747 ], [ 1.295, 8.9678 ], [ 1.2968, 8.9401 ], [ 1.2846, 8.9057 ], [ 1.2832, 8.8693 ], [ 1.2848, 8.8624 ], [ 1.3061, 8.8511 ], [ 1.3103, 8.8446 ], [ 1.3242, 8.816 ], [ 1.3266, 8.802 ], [ 1.3226, 8.7974 ], [ 1.3134, 8.795 ], [ 1.3073, 8.787 ], [ 1.3062, 8.7623 ], [ 1.2787, 8.7435 ], [ 1.2724, 8.7359 ], [ 1.2773, 8.7195 ], [ 1.2734, 8.7124 ], [ 1.2597, 8.7035 ], [ 1.2627, 8.6871 ], [ 1.2699, 8.674 ], [ 1.2702, 8.6648 ], [ 1.2651, 8.6517 ], [ 1.2534, 8.6396 ], [ 1.2621, 8.6006 ], [ 1.2571, 8.589 ], [ 1.2501, 8.5844 ], [ 1.2426, 8.5615 ], [ 1.252, 8.5556 ], [ 1.2635, 8.5579 ], [ 1.2687, 8.5555 ], [ 1.2687, 8.5483 ], [ 1.2521, 8.5361 ], [ 1.236, 8.5327 ], [ 1.2284, 8.5207 ], [ 1.2271, 8.5122 ], [ 1.238, 8.4817 ], [ 1.2277, 8.4608 ], [ 1.227, 8.4488 ], [ 1.2354, 8.414 ], [ 1.2352, 8.396 ], [ 1.2289, 8.3784 ] ] ] } },
{ "type": "Feature", "properties": { "iso3": "TGO", "unit_id": "87587387B60261957804876", "unit_name": "Tchaoudjo" }, "geometry": { "type": "Polygon", "coordinates": [ [ [ 1.2687, 8.6587 ], [ 1.2699, 8.674 ], [ 1.2627, 8.6871 ], [ 1.2597, 8.7035 ], [ 1.2734, 8.7124 ], [ 1.2773, 8.7195 ], [ 1.2724, 8.7359 ], [ 1.2787, 8.7435 ], [ 1.3062, 8.7623 ], [ 1.3073, 8.787 ], [ 1.3134, 8.795 ], [ 1.3226, 8.7974 ], [ 1.3266, 8.802 ], [ 1.3242, 8.816 ], [ 1.3103, 8.8446 ], [ 1.3061, 8.8511 ], [ 1.2848, 8.8624 ], [ 1.2832, 8.8693 ], [ 1.2846, 8.9057 ], [ 1.2968, 8.9401 ], [ 1.295, 8.9678 ], [ 1.3084, 8.9747 ], [ 1.356, 8.969 ], [ 1.3682, 8.9723 ], [ 1.3762, 8.9815 ], [ 1.3801, 8.9911 ], [ 1.3756, 9.0035 ], [ 1.3524, 9.0243 ], [ 1.3503, 9.0294 ], [ 1.3551, 9.0332 ], [ 1.3628, 9.0335 ], [ 1.3779, 9.0578 ], [ 1.3899, 9.0685 ], [ 1.3974, 9.099 ], [ 1.4105, 9.1202 ], [ 1.4112, 9.1319 ], [ 1.3908, 9.1597 ], [ 1.3961, 9.1772 ], [ 1.3966, 9.1957 ], [ 1.4106, 9.2191 ], [ 1.4206, 9.2295 ], [ 1.4307, 9.2631 ], [ 1.4371, 9.2766 ], [ 1.4445, 9.2842 ], [ 1.4214, 9.3069 ], [ 1.413, 9.3245 ], [ 1.3843, 9.3044 ], [ 1.3782, 9.2862 ], [ 1.377, 9.2698 ], [ 1.3714, 9.2698 ], [ 1.3678, 9.2662 ], [ 1.3602, 9.2517 ], [ 1.3426, 9.2525 ], [ 1.3138, 9.2457 ], [ 1.2889, 9.2532 ], [ 1.2681, 9.2493 ], [ 1.2101, 9.2229 ], [ 1.2037, 9.2265 ], [ 1.1981, 9.2356 ], [ 1.1852, 9.2355 ], [ 1.1596, 9.2165 ], [ 1.1132, 9.2273 ], [ 1.0827, 9.2301 ], [ 1.0707, 9.2277 ], [ 1.0409, 9.2136 ], [ 1.0179, 9.2136 ], [ 1.0066, 9.2099 ], [ 0.9933, 9.2004 ], [ 0.9853, 9.1757 ], [ 0.9876, 9.1076 ], [ 1.0031, 9.0688 ], [ 1.0003, 9.0593 ], [ 0.9836, 9.0525 ], [ 0.9666, 9.0268 ], [ 0.9496, 9.0155 ], [ 0.8733, 9.0041 ], [ 0.8841, 8.982 ], [ 0.9031, 8.9178 ], [ 0.9232, 8.9098 ], [ 0.9522, 8.9048 ], [ 0.9661, 8.8874 ], [ 0.9606, 8.8594 ], [ 0.9551, 8.8474 ], [ 0.9451, 8.8359 ], [ 0.9341, 8.8113 ], [ 0.9321, 8.8018 ], [ 0.9351, 8.7923 ], [ 0.9511, 8.7843 ], [ 0.9611, 8.7758 ], [ 0.9626, 8.7698 ], [ 0.9706, 8.7703 ], [ 0.9736, 8.7848 ], [ 0.9801, 8.7878 ], [ 1.0156, 8.7873 ], [ 1.0302, 8.7735 ], [ 1.0407, 8.7699 ], [ 1.0638, 8.7456 ], [ 1.078, 8.7472 ], [ 1.0906, 8.7554 ], [ 1.1039, 8.7554 ], [ 1.1107, 8.7488 ], [ 1.1315, 8.7393 ], [ 1.1493, 8.7446 ], [ 1.1775, 8.7454 ], [ 1.1781, 8.7428 ], [ 1.1981, 8.7365 ], [ 1.2034, 8.7268 ], [ 1.2125, 8.6843 ], [ 1.2335, 8.6737 ], [ 1.2391, 8.6754 ], [ 1.2555, 8.6682 ], [ 1.2629, 8.6682 ], [ 1.2687, 8.6587 ] ] ] } },
{ "type": "Feature", "properties": { "iso3": "TGO", "unit_id": "87587387B96135628418413", "unit_name": "Assoli" }, "geometry": { "type": "Polygon", "coordinates": [ [ [ 1.413, 9.3245 ], [ 1.4031, 9.355 ], [ 1.3982, 9.454 ], [ 1.3758, 9.4612 ], [ 1.3482, 9.4531 ], [ 1.3394, 9.4616 ], [ 1.3302, 9.4616 ], [ 1.3281, 9.4386 ], [ 1.2932, 9.4293 ], [ 1.2296, 9.4441 ], [ 1.2132, 9.4445 ], [ 1.2032, 9.4373 ], [ 1.1916, 9.4221 ], [ 1.1665, 9.4162 ], [ 1.159, 9.4093 ], [ 1.1483, 9.4081 ], [ 1.1319, 9.4121 ], [ 1.1263, 9.4065 ], [ 1.1194, 9.4052 ], [ 1.1147, 9.3985 ], [ 1.1023, 9.3913 ], [ 1.0963, 9.3801 ], [ 1.0935, 9.3628 ], [ 1.0803, 9.3664 ], [ 1.067, 9.3909 ], [ 1.0578, 9.4025 ], [ 1.0534, 9.4029 ], [ 1.0502, 9.4095 ], [ 1.031, 9.4057 ], [ 1.011, 9.4121 ], [ 1.0014, 9.4225 ], [ 0.9838, 9.4518 ], [ 0.9713, 9.4033 ], [ 0.9577, 9.3861 ], [ 0.9541, 9.3709 ], [ 0.9575, 9.3384 ], [ 0.9737, 9.3318 ], [ 0.9793, 9.3267 ], [ 0.9843, 9.3137 ], [ 0.989, 9.3139 ], [ 0.9904, 9.309 ], [ 0.9988, 9.3044 ], [ 1.0099, 9.2909 ], [ 1.0262, 9.2857 ], [ 1.0335, 9.2598 ], [ 1.0331, 9.238 ], [ 1.0246, 9.2171 ], [ 1.0179, 9.2136 ], [ 1.0294, 9.2124 ], [ 1.0409, 9.2136 ], [ 1.0707, 9.2277 ], [ 1.0827, 9.2301 ], [ 1.1132, 9.2273 ], [ 1.1596, 9.2165 ], [ 1.1852, 9.2355 ], [ 1.1981, 9.2356 ], [ 1.2037, 9.2265 ], [ 1.2101, 9.2229 ], [ 1.2681, 9.2493 ], [ 1.2889, 9.2532 ], [ 1.3138, 9.2457 ], [ 1.3426, 9.2525 ], [ 1.3602, 9.2517 ], [ 1.3678, 9.2662 ], [ 1.3714, 9.2698 ], [ 1.377, 9.2698 ], [ 1.3782, 9.2862 ], [ 1.3843, 9.3044 ], [ 1.413, 9.3245 ] ] ] } },
{ "type": "Feature", "properties": { "iso3": "TGO", "unit_id": "87587387B32969103186472", "unit_name": "Bassar" }, "geometry": { "type": "Polygon", "coordinates": [ [ [ 0.6961, 9.0124 ], [ 0.7097, 9.0136 ], [ 0.7139, 9.0179 ], [ 0.7223, 9.0402 ], [ 0.7346, 9.0531 ], [ 0.7471, 9.0456 ], [ 0.7566, 9.0447 ], [ 0.7675, 9.0528 ], [ 0.7737, 9.0538 ], [ 0.7804, 9.05 ], [ 0.7857, 9.0255 ], [ 0.7929, 9.025 ], [ 0.8096, 9.0166 ], [ 0.842, 9.0126 ], [ 0.8663, 9.0037 ], [ 0.9496, 9.0155 ], [ 0.9666, 9.0268 ], [ 0.9836, 9.0525 ], [ 1.0003, 9.0593 ], [ 1.0031, 9.0688 ], [ 0.9876, 9.1076 ], [ 0.9853, 9.1757 ], [ 0.9933, 9.2004 ], [ 1.0066, 9.2099 ], [ 1.0246, 9.2171 ], [ 1.0331, 9.238 ], [ 1.0335, 9.2598 ], [ 1.0262, 9.2857 ], [ 1.0099, 9.2909 ], [ 0.9988, 9.3044 ], [ 0.9904, 9.309 ], [ 0.989, 9.3139 ], [ 0.9843, 9.3137 ], [ 0.9793, 9.3267 ], [ 0.9737, 9.3318 ], [ 0.9575, 9.3384 ], [ 0.9541, 9.3709 ], [ 0.9577, 9.3861 ], [ 0.9713, 9.4033 ], [ 0.9838, 9.4518 ], [ 0.979, 9.4521 ], [ 0.9758, 9.4589 ], [ 0.9882, 9.4854 ], [ 0.9846, 9.4894 ], [ 0.987, 9.4962 ], [ 0.9818, 9.5014 ], [ 0.9902, 9.5178 ], [ 0.9978, 9.521 ], [ 1.007, 9.535 ], [ 1.0106, 9.5691 ], [ 1.0078, 9.5935 ], [ 0.9746, 9.6055 ], [ 0.9665, 9.6107 ], [ 0.9589, 9.6227 ], [ 0.9393, 9.6239 ], [ 0.9301, 9.6199 ], [ 0.9133, 9.6335 ], [ 0.9169, 9.6455 ], [ 0.9156, 9.6511 ], [ 0.8959, 9.6628 ], [ 0.8826, 9.6603 ], [ 0.8706, 9.6645 ], [ 0.8555, 9.6431 ], [ 0.8317, 9.6294 ], [ 0.8282, 9.6307 ], [ 0.8198, 9.6506 ], [ 0.8122, 9.6509 ], [ 0.798, 9.6314 ], [ 0.7978, 9.6075 ], [ 0.7918, 9.592 ], [ 0.7848, 9.5822 ], [ 0.776, 9.5801 ], [ 0.76, 9.6036 ], [ 0.7496, 9.6053 ], [ 0.7296, 9.6024 ], [ 0.7305, 9.6167 ], [ 0.7384, 9.6286 ], [ 0.7206, 9.6348 ], [ 0.7098, 9.6429 ], [ 0.705, 9.6138 ], [ 0.6874, 9.594 ], [ 0.6787, 9.5601 ], [ 0.6649, 9.5566 ], [ 0.6546, 9.5486 ], [ 0.6621, 9.5429 ], [ 0.6719, 9.5278 ], [ 0.6777, 9.5049 ], [ 0.6991, 9.4839 ], [ 0.6886, 9.4804 ], [ 0.685, 9.476 ], [ 0.6533, 9.471 ], [ 0.6089, 9.475 ], [ 0.5825, 9.4807 ], [ 0.5591, 9.4759 ], [ 0.5503, 9.4618 ], [ 0.5392, 9.4292 ], [ 0.5478, 9.4252 ], [ 0.5623, 9.404 ], [ 0.5639, 9.3837 ], [ 0.5564, 9.3586 ], [ 0.5437, 9.3414 ], [ 0.5481, 9.3197 ], [ 0.5448, 9.3102 ], [ 0.5349, 9.303 ], [ 0.5084, 9.2693 ], [ 0.5052, 9.2607 ], [ 0.5029, 9.2446 ], [ 0.5265, 9.2046 ], [ 0.5147, 9.1912 ], [ 0.5001, 9.1623 ], [ 0.4878, 9.1532 ], [ 0.4707, 9.1469 ], [ 0.4689, 9.1417 ], [ 0.4762, 9.1091 ], [ 0.4732, 9.1004 ], [ 0.4602, 9.0882 ], [ 0.4555, 9.0725 ], [ 0.4529, 9.0437 ], [ 0.454, 9.0271 ], [ 0.4607, 9.0106 ], [ 0.5161, 8.9206 ], [ 0.5167, 8.8998 ], [ 0.5268, 8.8842 ], [ 0.5269, 8.8705 ], [ 0.5193, 8.87 ], [ 0.5175, 8.8544 ], [ 0.5038, 8.841 ], [ 0.5394, 8.8512 ], [ 0.5499, 8.8712 ], [ 0.5599, 8.8787 ], [ 0.5829, 8.8767 ], [ 0.5909, 8.8794 ], [ 0.591, 8.8913 ], [ 0.579, 8.8983 ], [ 0.578, 8.9059 ], [ 0.5842, 8.9154 ], [ 0.6136, 8.9283 ], [ 0.632, 8.9474 ], [ 0.6338, 8.9649 ], [ 0.6423, 8.9815 ], [ 0.665, 8.9828 ], [ 0.6851, 9.0128 ], [ 0.6911, 9.0148 ], [ 0.6961, 9.0124 ] ] ] } },
{ "type": "Feature", "properties": { "iso3": "TGO", "unit_id": "87587387B5759967669940", "unit_name": "Binah" }, "geometry": { "type": "Polygon", "coordinates": [ [ [ 1.3606, 9.487 ], [ 1.3593, 9.5078 ], [ 1.3425, 9.5458 ], [ 1.3666, 9.6115 ], [ 1.3666, 9.6499 ], [ 1.3698, 9.6616 ], [ 1.3633, 9.6972 ], [ 1.3668, 9.7508 ], [ 1.3639, 9.8858 ], [ 1.3661, 10.0023 ], [ 1.3641, 10.0121 ], [ 1.3416, 10.025 ], [ 1.301, 9.98 ], [ 1.2805, 9.8782 ], [ 1.2754, 9.8727 ], [ 1.2871, 9.8624 ], [ 1.2842, 9.8566 ], [ 1.277, 9.8526 ], [ 1.254, 9.8724 ], [ 1.2133, 9.8195 ], [ 1.2086, 9.8037 ], [ 1.1884, 9.7809 ], [ 1.19, 9.7694 ], [ 1.1978, 9.7518 ], [ 1.2213, 9.7383 ], [ 1.2317, 9.717 ], [ 1.2417, 9.7165 ], [ 1.2427, 9.711 ], [ 1.2624, 9.6924 ], [ 1.2969, 9.6768 ], [ 1.3057, 9.6636 ], [ 1.3041, 9.6323 ], [ 1.3073, 9.6239 ], [ 1.3161, 9.6111 ], [ 1.3304, 9.606 ], [ 1.3305, 9.6001 ], [ 1.3249, 9.5987 ], [ 1.2961, 9.5991 ], [ 1.2709, 9.5382 ], [ 1.3606, 9.487 ] ] ] } },
{ "type": "Feature", "properties": { "iso3": "TGO", "unit_id": "87587387B27991910710552", "unit_name": "Dankpen" }, "geometry": { "type": "Polygon", "coordinates": [ [ [ 0.8555, 9.6431 ], [ 0.8787, 9.6735 ], [ 0.8642, 9.699 ], [ 0.8645, 9.7163 ], [ 0.8717, 9.7284 ], [ 0.8683, 9.7402 ], [ 0.8596, 9.7444 ], [ 0.8567, 9.7562 ], [ 0.8615, 9.7714 ], [ 0.8581, 9.7865 ], [ 0.8609, 9.8049 ], [ 0.8554, 9.8131 ], [ 0.8452, 9.8181 ], [ 0.8368, 9.8349 ], [ 0.8487, 9.8524 ], [ 0.8443, 9.8614 ], [ 0.8497, 9.877 ], [ 0.8465, 9.8813 ], [ 0.8406, 9.8835 ], [ 0.832, 9.8733 ], [ 0.8164, 9.8727 ], [ 0.8118, 9.8746 ], [ 0.8087, 9.8841 ], [ 0.8054, 9.8859 ], [ 0.7697, 9.8897 ], [ 0.7657, 9.8784 ], [ 0.7571, 9.8698 ], [ 0.7544, 9.8558 ], [ 0.7394, 9.8446 ], [ 0.7174, 9.8514 ], [ 0.7067, 9.8478 ], [ 0.6883, 9.8507 ], [ 0.6822, 9.8585 ], [ 0.6768, 9.881 ], [ 0.666, 9.8828 ], [ 0.659, 9.877 ], [ 0.6542, 9.8779 ], [ 0.6413, 9.8946 ], [ 0.6341, 9.8937 ], [ 0.6262, 9.8835 ], [ 0.6006, 9.8892 ], [ 0.5879, 9.8859 ], [ 0.5846, 9.8811 ], [ 0.5241, 9.9015 ], [ 0.5151, 9.9166 ], [ 0.5151, 9.9248 ], [ 0.5249, 9.9361 ], [ 0.527, 9.9434 ], [ 0.5197, 9.9515 ], [ 0.5139, 9.9503 ], [ 0.5064, 9.9413 ], [ 0.4994, 9.9416 ], [ 0.4972, 9.9467 ], [ 0.486, 9.9535 ], [ 0.4654, 9.9439 ], [ 0.4561, 9.9471 ], [ 0.4538, 9.9527 ], [ 0.4471, 9.9564 ], [ 0.4262, 9.9585 ], [ 0.421, 9.964 ], [ 0.4181, 9.9762 ], [ 0.4227, 9.9864 ], [ 0.4224, 9.9942 ], [ 0.4079, 10.0222 ], [ 0.4002, 10.0167 ], [ 0.391, 10.0237 ], [ 0.3741, 10.0245 ], [ 0.3574, 10.0309 ], [ 0.3528, 10.0254 ], [ 0.357, 10.0175 ], [ 0.3574, 10.0079 ], [ 0.3522, 9.9862 ], [ 0.3535, 9.9772 ], [ 0.3807, 9.9445 ], [ 0.3827, 9.9371 ], [ 0.3745, 9.9277 ], [ 0.3572, 9.9235 ], [ 0.3489, 9.9106 ], [ 0.3463, 9.8836 ], [ 0.3526, 9.8409 ], [ 0.3493, 9.8275 ], [ 0.3384, 9.8119 ], [ 0.3358, 9.8008 ], [ 0.3263, 9.7856 ], [ 0.3307, 9.7734 ], [ 0.3287, 9.7688 ], [ 0.3211, 9.7652 ], [ 0.3244, 9.7534 ], [ 0.3147, 9.7245 ], [ 0.3208, 9.7181 ], [ 0.3333, 9.7175 ], [ 0.3384, 9.7122 ], [ 0.3439, 9.701 ], [ 0.3473, 9.6713 ], [ 0.3619, 9.6621 ], [ 0.3662, 9.6514 ], [ 0.3596, 9.6229 ], [ 0.3771, 9.589 ], [ 0.3713, 9.5777 ], [ 0.3515, 9.5685 ], [ 0.3247, 9.5747 ], [ 0.283, 9.5733 ], [ 0.2569, 9.5627 ], [ 0.246, 9.5702 ], [ 0.2381, 9.5705 ], [ 0.235, 9.5671 ], [ 0.2299, 9.5418 ], [ 0.2367, 9.5202 ], [ 0.2449, 9.5158 ], [ 0.2878, 9.5171 ], [ 0.3056, 9.5031 ], [ 0.3049, 9.4979 ], [ 0.2898, 9.4856 ], [ 0.2761, 9.4832 ], [ 0.2628, 9.4723 ], [ 0.2477, 9.474 ], [ 0.235, 9.4805 ], [ 0.2258, 9.4781 ], [ 0.2271, 9.4551 ], [ 0.2436, 9.4387 ], [ 0.2453, 9.4298 ], [ 0.2535, 9.4298 ], [ 0.2597, 9.4233 ], [ 0.2723, 9.4223 ], [ 0.3134, 9.4407 ], [ 0.3313, 9.4452 ], [ 0.3443, 9.4681 ], [ 0.3408, 9.4829 ], [ 0.3539, 9.4914 ], [ 0.3813, 9.489 ], [ 0.3857, 9.4853 ], [ 0.3867, 9.4877 ], [ 0.4237, 9.4962 ], [ 0.4337, 9.4914 ], [ 0.4477, 9.4938 ], [ 0.4604, 9.4863 ], [ 0.4843, 9.4784 ], [ 0.5029, 9.46 ], [ 0.4997, 9.4411 ], [ 0.5182, 9.4431 ], [ 0.5292, 9.4318 ], [ 0.5392, 9.4292 ], [ 0.5503, 9.4618 ], [ 0.5591, 9.4759 ], [ 0.5825, 9.4807 ], [ 0.6443, 9.4707 ], [ 0.685, 9.476 ], [ 0.6886, 9.4804 ], [ 0.6991, 9.4839 ], [ 0.6777, 9.5049 ], [ 0.6719, 9.5278 ], [ 0.6621, 9.5429 ], [ 0.6546, 9.5486 ], [ 0.6649, 9.5566 ], [ 0.6787, 9.5601 ], [ 0.6874, 9.594 ], [ 0.705, 9.6138 ], [ 0.7098, 9.6429 ], [ 0.7206, 9.6348 ], [ 0.7384, 9.6286 ], [ 0.7305, 9.6167 ], [ 0.7296, 9.6024 ], [ 0.7496, 9.6053 ], [ 0.76, 9.6036 ], [ 0.776, 9.5801 ], [ 0.7848, 9.5822 ], [ 0.7918, 9.592 ], [ 0.7978, 9.6075 ], [ 0.798, 9.6314 ], [ 0.8122, 9.6509 ], [ 0.8198, 9.6506 ], [ 0.8282, 9.6307 ], [ 0.8317, 9.6294 ], [ 0.8555, 9.6431 ] ] ] } },
{ "type": "Feature", "properties": { "iso3": "TGO", "unit_id": "87587387B17093072550202", "unit_name": "Doufelgou" }, "geometry": { "type": "Polygon", "coordinates": [ [ [ 0.9169, 9.6455 ], [ 0.9461, 9.6474 ], [ 0.9925, 9.6389 ], [ 1.0364, 9.6456 ], [ 1.0572, 9.6623 ], [ 1.0937, 9.661 ], [ 1.1116, 9.6741 ], [ 1.1312, 9.6962 ], [ 1.157, 9.6955 ], [ 1.172, 9.7224 ], [ 1.1978, 9.7518 ], [ 1.19, 9.7694 ], [ 1.1884, 9.7809 ], [ 1.2086, 9.8037 ], [ 1.2133, 9.8195 ], [ 1.254, 9.8724 ], [ 1.277, 9.8526 ], [ 1.2842, 9.8566 ], [ 1.2871, 9.8624 ], [ 1.2754, 9.8727 ], [ 1.2805, 9.8782 ], [ 1.301, 9.98 ], [ 1.3416, 10.025 ], [ 1.311, 10.0424 ], [ 1.2926, 10.0329 ], [ 1.2789, 10.0211 ], [ 1.2673, 10.0172 ], [ 1.2603, 10.0102 ], [ 1.2535, 9.9924 ], [ 1.238, 9.9847 ], [ 1.2171, 9.9814 ], [ 1.2015, 9.9825 ], [ 1.1881, 9.9922 ], [ 1.172, 9.9938 ], [ 1.1591, 9.9991 ], [ 1.1398, 9.9728 ], [ 1.1309, 9.9432 ], [ 1.0838, 9.9261 ], [ 1.0578, 9.9072 ], [ 1.0473, 9.896 ], [ 1.0455, 9.8896 ], [ 1.036, 9.8918 ], [ 1.0347, 9.8736 ], [ 1.0239, 9.8559 ], [ 1.0102, 9.8636 ], [ 0.9981, 9.8644 ], [ 0.9912, 9.8625 ], [ 0.9785, 9.8518 ], [ 0.9511, 9.8464 ], [ 0.9458, 9.847 ], [ 0.9297, 9.8588 ], [ 0.9104, 9.8529 ], [ 0.9049, 9.8556 ], [ 0.8972, 9.8677 ], [ 0.8677, 9.8715 ], [ 0.858, 9.8657 ], [ 0.8523, 9.8539 ], [ 0.8368, 9.8349 ], [ 0.8452, 9.8181 ], [ 0.8554, 9.8131 ], [ 0.8609, 9.8049 ], [ 0.8581, 9.7865 ], [ 0.8615, 9.7714 ], [ 0.8567, 9.7562 ], [ 0.8596, 9.7444 ], [ 0.8683, 9.7402 ], [ 0.8717, 9.7284 ], [ 0.8645, 9.7163 ], [ 0.8642, 9.699 ], [ 0.8787, 9.6735 ], [ 0.8706, 9.6645 ], [ 0.8826, 9.6603 ], [ 0.8959, 9.6628 ], [ 0.8993, 9.6585 ], [ 0.9127, 9.6543 ], [ 0.9169, 9.6455 ] ] ] } },
{ "type": "Feature", "properties": { "iso3": "TGO", "unit_id": "87587387B72854968440171", "unit_name": "Keran" }, "geometry": { "type": "Polygon", "coordinates": [ [ [ 0.8487, 9.8524 ], [ 0.8523, 9.8539 ], [ 0.858, 9.8657 ], [ 0.8677, 9.8715 ], [ 0.8972, 9.8677 ], [ 0.9049, 9.8556 ], [ 0.9104, 9.8529 ], [ 0.9297, 9.8588 ], [ 0.9458, 9.847 ], [ 0.9511, 9.8464 ], [ 0.9785, 9.8518 ], [ 0.9912, 9.8625 ], [ 0.9981, 9.8644 ], [ 1.0102, 9.8636 ], [ 1.0239, 9.8559 ], [ 1.0347, 9.8736 ], [ 1.036, 9.8918 ], [ 1.0455, 9.8896 ], [ 1.0473, 9.896 ], [ 1.0578, 9.9072 ], [ 1.0838, 9.9261 ], [ 1.1309, 9.9432 ], [ 1.1398, 9.9728 ], [ 1.1591, 9.9991 ], [ 1.172, 9.9938 ], [ 1.1881, 9.9922 ], [ 1.2015, 9.9825 ], [ 1.238, 9.9847 ], [ 1.2535, 9.9924 ], [ 1.2603, 10.0102 ], [ 1.2673, 10.0172 ], [ 1.2789, 10.0211 ], [ 1.2926, 10.0329 ], [ 1.311, 10.0424 ], [ 1.0, 10.22 ], [ 0.9968, 10.2152 ], [ 0.9017, 10.29 ], [ 0.8875, 10.2736 ], [ 0.877, 10.2547 ], [ 0.8665, 10.2442 ], [ 0.8571, 10.2411 ], [ 0.8393, 10.2274 ], [ 0.8225, 10.1687 ], [ 0.8142, 10.1548 ], [ 0.8088, 10.1519 ], [ 0.8038, 10.1537 ], [ 0.7941, 10.172 ], [ 0.7812, 10.1795 ], [ 0.7679, 10.1748 ], [ 0.7543, 10.1824 ], [ 0.7331, 10.1684 ], [ 0.7388, 10.1601 ], [ 0.7381, 10.153 ], [ 0.7428, 10.1451 ], [ 0.7403, 10.14 ], [ 0.7047, 10.168 ], [ 0.698, 10.1671 ], [ 0.6883, 10.1557 ], [ 0.6837, 10.1436 ], [ 0.6757, 10.1413 ], [ 0.6722, 10.1112 ], [ 0.6867, 10.0821 ], [ 0.687, 10.0532 ], [ 0.6784, 10.0384 ], [ 0.6779, 10.0276 ], [ 0.673, 10.0158 ], [ 0.6435, 9.989 ], [ 0.6777, 9.9828 ], [ 0.6746, 9.9597 ], [ 0.6666, 9.9568 ], [ 0.6689, 9.9488 ], [ 0.6561, 9.9318 ], [ 0.6777, 9.9075 ], [ 0.6829, 9.8875 ], [ 0.6798, 9.8765 ], [ 0.6822, 9.8585 ], [ 0.6883, 9.8507 ], [ 0.7067, 9.8478 ], [ 0.7174, 9.8514 ], [ 0.734, 9.8446 ], [ 0.7426, 9.8456 ], [ 0.7544, 9.8558 ], [ 0.7571, 9.8698 ], [ 0.7657, 9.8784 ], [ 0.7697, 9.8897 ], [ 0.8054, 9.8859 ], [ 0.8087, 9.8841 ], [ 0.8118, 9.8746 ], [ 0.8164, 9.8727 ], [ 0.832, 9.8733 ], [ 0.8406, 9.8835 ], [ 0.8465, 9.8813 ], [ 0.8497, 9.877 ], [ 0.8443, 9.8614 ], [ 0.8487, 9.8524 ] ] ] } },
{ "type": "Feature", "properties": { "iso3": "TGO", "unit_id": "87587387B51703044022064", "unit_name": "Kozah" }, "geometry": { "type": "Polygon", "coordinates": [ [ [ 1.3982, 9.454 ], [ 1.3898, 9.4972 ], [ 1.3654, 9.4856 ], [ 1.3606, 9.487 ], [ 1.2709, 9.5382 ], [ 1.2961, 9.5991 ], [ 1.3249, 9.5987 ], [ 1.3305, 9.6001 ], [ 1.3304, 9.606 ], [ 1.3161, 9.6111 ], [ 1.3073, 9.6239 ], [ 1.3041, 9.6323 ], [ 1.3057, 9.6636 ], [ 1.2969, 9.6768 ], [ 1.2624, 9.6924 ], [ 1.2427, 9.711 ], [ 1.2417, 9.7165 ], [ 1.2317, 9.717 ], [ 1.2213, 9.7383 ], [ 1.1978, 9.7518 ], [ 1.172, 9.7224 ], [ 1.157, 9.6955 ], [ 1.1312, 9.6962 ], [ 1.1116, 9.6741 ], [ 1.0937, 9.661 ], [ 1.0572, 9.6623 ], [ 1.0364, 9.6456 ], [ 1.0018, 9.6395 ], [ 0.9816, 9.6392 ], [ 0.9461, 9.6474 ], [ 0.9169, 9.6455 ], [ 0.9133, 9.6335 ], [ 0.9301, 9.6199 ], [ 0.9393, 9.6239 ], [ 0.9589, 9.6227 ], [ 0.9665, 9.6107 ], [ 0.9746, 9.6055 ], [ 1.0078, 9.5935 ], [ 1.0106, 9.5691 ], [ 1.007, 9.535 ], [ 0.9978, 9.521 ], [ 0.9902, 9.5178 ], [ 0.9842, 9.5082 ], [ 0.9818, 9.5014 ], [ 0.987, 9.4962 ], [ 0.9846, 9.4894 ], [ 0.9882, 9.4854 ], [ 0.9758, 9.4589 ], [ 0.979, 9.4521 ], [ 0.9838, 9.4518 ], [ 0.9882, 9.4469 ], [ 1.0014, 9.4225 ], [ 1.011, 9.4121 ], [ 1.031, 9.4057 ], [ 1.0502, 9.4095 ], [ 1.0534, 9.4029 ], [ 1.0578, 9.4025 ], [ 1.067, 9.3909 ], [ 1.0803, 9.3664 ], [ 1.0935, 9.3628 ], [ 1.0963, 9.3801 ], [ 1.1023, 9.3913 ], [ 1.1147, 9.3985 ], [ 1.1194, 9.4052 ], [ 1.1263, 9.4065 ], [ 1.1319, 9.4121 ], [ 1.1483, 9.4081 ], [ 1.159, 9.4093 ], [ 1.1665, 9.4162 ], [ 1.1916, 9.4221 ], [ 1.2032, 9.4373 ], [ 1.2132, 9.4445 ], [ 1.2296, 9.4441 ], [ 1.2932, 9.4293 ], [ 1.3281, 9.4386 ], [ 1.3302, 9.4616 ], [ 1.3342, 9.4628 ], [ 1.3482, 9.4531 ], [ 1.3758, 9.4612 ], [ 1.3982, 9.454 ] ] ] } },
{ "type": "Feature", "properties": { "iso3": "TGO", "unit_id": "87587387B22312482557963", "unit_name": "Ave" }, "geometry": { "type": "Polygon", "coordinates": [ [ [ 1.1042, 6.2444 ], [ 1.0948, 6.2642 ], [ 1.089, 6.2673 ], [ 1.087, 6.2756 ], [ 1.081, 6.2798 ], [ 1.0757, 6.2902 ], [ 1.0672, 6.2789 ], [ 1.0509, 6.2961 ], [ 1.0463, 6.3265 ], [ 1.0647, 6.3266 ], [ 1.0673, 6.329 ], [ 1.0781, 6.3878 ], [ 1.0738, 6.4035 ], [ 1.0784, 6.4507 ], [ 1.0659, 6.4632 ], [ 1.0604, 6.4826 ], [ 1.0504, 6.4993 ], [ 1.0225, 6.5164 ], [ 1.0142, 6.5284 ], [ 1.0067, 6.5298 ], [ 0.9956, 6.5582 ], [ 0.9875, 6.5669 ], [ 0.9913, 6.6128 ], [ 0.9866, 6.6174 ], [ 0.98, 6.6349 ], [ 0.9529, 6.6399 ], [ 0.9467, 6.6618 ], [ 0.9327, 6.6729 ], [ 0.9306, 6.6856 ], [ 0.9066, 6.7028 ], [ 0.8801, 6.7015 ], [ 0.8743, 6.6947 ], [ 0.8662, 6.6555 ], [ 0.8549, 6.6295 ], [ 0.8414, 6.6127 ], [ 0.8283, 6.5658 ], [ 0.8202, 6.554 ], [ 0.7957, 6.5506 ], [ 0.7639, 6.5261 ], [ 0.7524, 6.5273 ], [ 0.7187, 6.5175 ], [ 0.7278, 6.4789 ], [ 0.7413, 6.4617 ], [ 0.7486, 6.4411 ], [ 0.7568, 6.4315 ], [ 0.7626, 6.4318 ], [ 0.7824, 6.4157 ], [ 0.7889, 6.3988 ], [ 0.8237, 6.3942 ], [ 0.8431, 6.3867 ], [ 0.87, 6.3648 ], [ 0.9039, 6.321 ], [ 0.9961, 6.3241 ], [ 1.0256, 6.2435 ], [ 1.0583, 6.2203 ], [ 1.0848, 6.1728 ], [ 1.0852, 6.1824 ], [ 1.091, 6.1899 ], [ 1.0907, 6.2234 ], [ 1.104, 6.2394 ], [ 1.1042, 6.2444 ] ] ] } },
{ "type": "Feature", "properties": { "iso3": "TGO", "unit_id": "87587387B27037727899324", "unit_name": "Bas-Mono" }, "geometry": { "type": "Polygon", "coordinates": [ [ [ 1.6263, 6.3823 ], [ 1.6337, 6.3631 ], [ 1.6524, 6.3563 ], [ 1.65, 6.3703 ], [ 1.668, 6.3865 ], [ 1.6867, 6.3913 ], [ 1.6951, 6.3908 ], [ 1.6973, 6.387 ], [ 1.7029, 6.3891 ], [ 1.7063, 6.3969 ], [ 1.7222, 6.3986 ], [ 1.7307, 6.4081 ], [ 1.7556, 6.4026 ], [ 1.7609, 6.4243 ], [ 1.7667, 6.423 ], [ 1.7679, 6.4182 ], [ 1.7775, 6.4176 ], [ 1.7806, 6.4213 ], [ 1.7808, 6.4268 ], [ 1.7764, 6.4294 ], [ 1.7727, 6.4259 ], [ 1.7648, 6.4272 ], [ 1.7577, 6.4336 ], [ 1.753, 6.4597 ], [ 1.7407, 6.4748 ], [ 1.7339, 6.4764 ], [ 1.7376, 6.481 ], [ 1.7352, 6.486 ], [ 1.7303, 6.4876 ], [ 1.7259, 6.5018 ], [ 1.7226, 6.5016 ], [ 1.7195, 6.4954 ], [ 1.7125, 6.5003 ], [ 1.7059, 6.4976 ], [ 1.6956, 6.5004 ], [ 1.6942, 6.5097 ], [ 1.6969, 6.513 ], [ 1.7024, 6.513 ], [ 1.7019, 6.5363 ], [ 1.6957, 6.5428 ], [ 1.6985, 6.5481 ], [ 1.6963, 6.5534 ], [ 1.6878, 6.5536 ], [ 1.684, 6.5606 ], [ 1.6739, 6.5562 ], [ 1.6684, 6.5579 ], [ 1.6664, 6.5634 ], [ 1.6757, 6.5796 ], [ 1.6702, 6.5855 ], [ 1.6627, 6.5842 ], [ 1.6562, 6.5778 ], [ 1.641, 6.5831 ], [ 1.636, 6.5779 ], [ 1.6258, 6.5756 ], [ 1.592, 6.5742 ], [ 1.5552, 6.5605 ], [ 1.5645, 6.5517 ], [ 1.5532, 6.5377 ], [ 1.553, 6.5285 ], [ 1.5636, 6.5246 ], [ 1.5653, 6.5151 ], [ 1.5729, 6.5039 ], [ 1.5825, 6.5005 ], [ 1.5775, 6.4848 ], [ 1.5787, 6.4717 ], [ 1.5727, 6.4622 ], [ 1.5717, 6.4538 ], [ 1.5745, 6.451 ], [ 1.5866, 6.4521 ], [ 1.5827, 6.442 ], [ 1.5866, 6.442 ], [ 1.588, 6.4468 ], [ 1.5917, 6.4429 ], [ 1.5834, 6.4323 ], [ 1.5933, 6.4293 ], [ 1.5973, 6.4494 ], [ 1.6069, 6.4504 ], [ 1.6077, 6.4438 ], [ 1.5994, 6.4364 ], [ 1.6127, 6.4337 ], [ 1.6265, 6.4026 ], [ 1.6286, 6.3905 ], [ 1.6263, 6.3823 ] ] ] } },
{ "type": "Feature", "properties": { "iso3": "TGO", "unit_id": "87587387B79489955851340", "unit_name": "Golfe" }, "geometry": { "type": "MultiPolygon", "coordinates": [ [ [ [ 1.3893, 6.1742 ], [ 1.3821, 6.1767 ], [ 1.3802, 6.1813 ], [ 1.3827, 6.1981 ], [ 1.3933, 6.2033 ], [ 1.3973, 6.2144 ], [ 1.3434, 6.2073 ], [ 1.301, 6.1909 ], [ 1.2898, 6.1901 ], [ 1.2821, 6.2011 ], [ 1.2814, 6.237 ], [ 1.27, 6.2501 ], [ 1.2532, 6.2568 ], [ 1.2483, 6.2332 ], [ 1.2416, 6.2274 ], [ 1.2445, 6.2274 ], [ 1.2501, 6.2195 ], [ 1.2412, 6.207 ], [ 1.2294, 6.2058 ], [ 1.2756, 6.1985 ], [ 1.2757, 6.189 ], [ 1.2974, 6.1809 ], [ 1.3023, 6.1638 ], [ 1.3097, 6.1662 ], [ 1.3154, 6.1506 ], [ 1.3893, 6.1742 ] ] ], [ [ [ 1.0852, 6.1824 ], [ 1.0859, 6.1625 ], [ 1.0912, 6.1588 ], [ 1.1774, 6.1549 ], [ 1.179, 6.1773 ], [ 1.177, 6.1785 ], [ 1.1808, 6.1837 ], [ 1.1753, 6.1882 ], [ 1.1842, 6.1986 ], [ 1.1888, 6.1955 ], [ 1.1885, 6.1987 ], [ 1.1942, 6.2014 ], [ 1.1901, 6.2055 ], [ 1.1841, 6.2033 ], [ 1.1849, 6.2058 ], [ 1.1769, 6.2117 ], [ 1.1736, 6.2057 ], [ 1.1664, 6.2092 ], [ 1.1654, 6.2042 ], [ 1.1556, 6.2126 ], [ 1.1335, 6.2186 ], [ 1.1295, 6.2168 ], [ 1.1215, 6.2239 ], [ 1.0907, 6.2234 ], [ 1.091, 6.1899 ], [ 1.0852, 6.1824 ] ] ] ] } },
{ "type": "Feature", "properties": { "iso3": "TGO", "unit_id": "87587387B72410681760731", "unit_name": "Lacs" }, "geometry": { "type": "Polygon", "coordinates": [ [ [ 1.6295, 6.3722 ], [ 1.6201, 6.3721 ], [ 1.6071, 6.3819 ], [ 1.6054, 6.3499 ], [ 1.5965, 6.3511 ], [ 1.5943, 6.3396 ], [ 1.6011, 6.298 ], [ 1.5752, 6.2956 ], [ 1.5598, 6.282 ], [ 1.5651, 6.2794 ], [ 1.5778, 6.2555 ], [ 1.583, 6.2558 ], [ 1.585, 6.2306 ], [ 1.5341, 6.2264 ], [ 1.5272, 6.2328 ], [ 1.4862, 6.2234 ], [ 1.4798, 6.2195 ], [ 1.4765, 6.2121 ], [ 1.4735, 6.2123 ], [ 1.4617, 6.2163 ], [ 1.416, 6.2471 ], [ 1.4054, 6.2513 ], [ 1.3982, 6.2143 ], [ 1.3933, 6.2033 ], [ 1.3827, 6.1981 ], [ 1.3802, 6.1813 ], [ 1.3821, 6.1767 ], [ 1.3893, 6.1742 ], [ 1.4688, 6.188 ], [ 1.5005, 6.1989 ], [ 1.5421, 6.205 ], [ 1.5583, 6.2128 ], [ 1.607, 6.2197 ], [ 1.6277, 6.2257 ], [ 1.6294, 6.2424 ], [ 1.6482, 6.2484 ], [ 1.6682, 6.2476 ], [ 1.6807, 6.2543 ], [ 1.6898, 6.2528 ], [ 1.6946, 6.2567 ], [ 1.7099, 6.2568 ], [ 1.7492, 6.2713 ], [ 1.7642, 6.2718 ], [ 1.7691, 6.2752 ], [ 1.7703, 6.2819 ], [ 1.8, 6.2809 ], [ 1.8072, 6.2844 ], [ 1.8055, 6.291 ], [ 1.7956, 6.2936 ], [ 1.7897, 6.3028 ], [ 1.7979, 6.3068 ], [ 1.7984, 6.3135 ], [ 1.7924, 6.3288 ], [ 1.7827, 6.3391 ], [ 1.7894, 6.3499 ], [ 1.7819, 6.3739 ], [ 1.7724, 6.3803 ], [ 1.7708, 6.3917 ], [ 1.7743, 6.3942 ], [ 1.7692, 6.3992 ], [ 1.7695, 6.4115 ], [ 1.7753, 6.4128 ], [ 1.7756, 6.4176 ], [ 1.7679, 6.4182 ], [ 1.7667, 6.423 ], [ 1.7609, 6.4243 ], [ 1.7556, 6.4026 ], [ 1.7307, 6.4081 ], [ 1.7222, 6.3986 ], [ 1.7063, 6.3969 ], [ 1.7029, 6.3891 ], [ 1.6973, 6.387 ], [ 1.6951, 6.3908 ], [ 1.6867, 6.3913 ], [ 1.668, 6.3865 ], [ 1.65, 6.3703 ], [ 1.6524, 6.3563 ], [ 1.6337, 6.3631 ], [ 1.6295, 6.3722 ] ] ] } },
{ "type": "Feature", "properties": { "iso3": "TGO", "unit_id": "87587387B66334827455085", "unit_name": "Lome Commune" }, "geometry": { "type": "Polygon", "coordinates": [ [ [ 1.2294, 6.2041 ], [ 1.2086, 6.2008 ], [ 1.2086, 6.2046 ], [ 1.2043, 6.2063 ], [ 1.2003, 6.1982 ], [ 1.1942, 6.2014 ], [ 1.1885, 6.1987 ], [ 1.1888, 6.1955 ], [ 1.1842, 6.1986 ], [ 1.1753, 6.1882 ], [ 1.1808, 6.1837 ], [ 1.177, 6.1785 ], [ 1.179, 6.1773 ], [ 1.1774, 6.1549 ], [ 1.1916, 6.155 ], [ 1.1918, 6.1093 ], [ 1.2037, 6.11 ], [ 1.2869, 6.1424 ], [ 1.3154, 6.1506 ], [ 1.3097, 6.1662 ], [ 1.3023, 6.1638 ], [ 1.2974, 6.1809 ], [ 1.2757, 6.189 ], [ 1.2756, 6.1985 ], [ 1.2294, 6.2041 ] ] ] } },
{ "type": "Feature", "properties": { "iso3": "TGO", "unit_id": "87587387B11638970284888", "unit_name": "Vo" }, "geometry": { "type": "Polygon", "coordinates": [ [ [ 1.5552, 6.5605 ], [ 1.5433, 6.555 ], [ 1.5415, 6.5604 ], [ 1.5357, 6.5643 ], [ 1.5294, 6.5539 ], [ 1.5162, 6.5546 ], [ 1.5092, 6.5652 ], [ 1.5115, 6.5741 ], [ 1.5039, 6.5781 ], [ 1.4924, 6.5677 ], [ 1.4955, 6.5366 ], [ 1.4661, 6.5353 ], [ 1.4477, 6.5243 ], [ 1.414, 6.4838 ], [ 1.4046, 6.4812 ], [ 1.393, 6.4721 ], [ 1.3845, 6.4597 ], [ 1.3845, 6.4515 ], [ 1.3888, 6.4472 ], [ 1.3828, 6.4339 ], [ 1.3666, 6.4232 ], [ 1.3801, 6.3635 ], [ 1.3858, 6.3038 ], [ 1.4042, 6.2681 ], [ 1.4054, 6.2513 ], [ 1.416, 6.2471 ], [ 1.4617, 6.2163 ], [ 1.4735, 6.2123 ], [ 1.4765, 6.2121 ], [ 1.4798, 6.2195 ], [ 1.4862, 6.2234 ], [ 1.5272, 6.2328 ], [ 1.5341, 6.2264 ], [ 1.585, 6.2306 ], [ 1.583, 6.2558 ], [ 1.5778, 6.2555 ], [ 1.5651, 6.2794 ], [ 1.5598, 6.282 ], [ 1.5752, 6.2956 ], [ 1.6011, 6.298 ], [ 1.5943, 6.3396 ], [ 1.5965, 6.3511 ], [ 1.6054, 6.3499 ], [ 1.6071, 6.3819 ], [ 1.6201, 6.3721 ], [ 1.6295, 6.3722 ], [ 1.6263, 6.3823 ], [ 1.6286, 6.3905 ], [ 1.6265, 6.4026 ], [ 1.6127, 6.4337 ], [ 1.5994, 6.4364 ], [ 1.6077, 6.4438 ], [ 1.6069, 6.4504 ], [ 1.5973, 6.4494 ], [ 1.5933, 6.4293 ], [ 1.5834, 6.4323 ], [ 1.5917, 6.4429 ], [ 1.588, 6.4468 ], [ 1.5866, 6.442 ], [ 1.5827, 6.442 ], [ 1.5866, 6.4521 ], [ 1.5745, 6.451 ], [ 1.5717, 6.4538 ], [ 1.5727, 6.4622 ], [ 1.5787, 6.4717 ], [ 1.5775, 6.4848 ], [ 1.5825, 6.5005 ], [ 1.5729, 6.5039 ], [ 1.5653, 6.5151 ], [ 1.5636, 6.5246 ], [ 1.553, 6.5285 ], [ 1.5532, 6.5377 ], [ 1.5645, 6.5517 ], [ 1.5552, 6.5605 ] ] ] } },
{ "type": "Feature", "properties": { "iso3": "TGO", "unit_id": "87587387B51011061253214", "unit_name": "Yoto" }, "geometry": { "type": "Polygon", "coordinates": [ [ [ 1.641, 6.5831 ], [ 1.6366, 6.6005 ], [ 1.627, 6.6032 ], [ 1.6218, 6.6013 ], [ 1.6124, 6.6109 ], [ 1.6102, 6.6249 ], [ 1.603, 6.6303 ], [ 1.603, 6.6369 ], [ 1.6115, 6.6416 ], [ 1.6038, 6.6663 ], [ 1.5936, 6.6754 ], [ 1.5902, 6.6842 ], [ 1.5738, 6.6889 ], [ 1.5922, 6.7062 ], [ 1.5929, 6.726 ], [ 1.6001, 6.726 ], [ 1.6195, 6.7415 ], [ 1.6181, 6.7508 ], [ 1.6259, 6.7598 ], [ 1.6221, 6.7646 ], [ 1.6083, 6.7704 ], [ 1.6134, 6.7914 ], [ 1.6113, 6.7982 ], [ 1.5986, 6.8006 ], [ 1.5969, 6.8064 ], [ 1.5989, 6.8126 ], [ 1.615, 6.8254 ], [ 1.6133, 6.8288 ], [ 1.6037, 6.8271 ], [ 1.5996, 6.8319 ], [ 1.6019, 6.8528 ], [ 1.5946, 6.8676 ], [ 1.5963, 6.8734 ], [ 1.6066, 6.8834 ], [ 1.6039, 6.8906 ], [ 1.6052, 6.906 ], [ 1.5825, 6.9159 ], [ 1.5767, 6.9221 ], [ 1.5777, 6.9089 ], [ 1.5566, 6.9018 ], [ 1.532, 6.8587 ], [ 1.5195, 6.8476 ], [ 1.4994, 6.8366 ], [ 1.4708, 6.83 ], [ 1.4104, 6.8437 ], [ 1.4052, 6.8368 ], [ 1.351, 6.8187 ], [ 1.285, 6.7691 ], [ 1.2757, 6.7567 ], [ 1.2773, 6.7493 ], [ 1.26, 6.7445 ], [ 1.2457, 6.7194 ], [ 1.2483, 6.7053 ], [ 1.2569, 6.6967 ], [ 1.2999, 6.6827 ], [ 1.3029, 6.6776 ], [ 1.3005, 6.6407 ], [ 1.2932, 6.6269 ], [ 1.2978, 6.6233 ], [ 1.2907, 6.5875 ], [ 1.2972, 6.5768 ], [ 1.3068, 6.5236 ], [ 1.3184, 6.5193 ], [ 1.3438, 6.4834 ], [ 1.3469, 6.4761 ], [ 1.3474, 6.4499 ], [ 1.3521, 6.4396 ], [ 1.3666, 6.4232 ], [ 1.3828, 6.4339 ], [ 1.3888, 6.4472 ], [ 1.3845, 6.4515 ], [ 1.3845, 6.4597 ], [ 1.393, 6.4721 ], [ 1.4046, 6.4812 ], [ 1.414, 6.4838 ], [ 1.4477, 6.5243 ], [ 1.4661, 6.5353 ], [ 1.4955, 6.5366 ], [ 1.4924, 6.5677 ], [ 1.5039, 6.5781 ], [ 1.5115, 6.5741 ], [ 1.5092, 6.5652 ], [ 1.5162, 6.5546 ], [ 1.5294, 6.5539 ], [ 1.5357, 6.5643 ], [ 1.5452, 6.5546 ], [ 1.5705, 6.5678 ], [ 1.592, 6.5742 ], [ 1.6258, 6.5756 ], [ 1.636, 6.5779 ], [ 1.641, 6.5831 ] ] ] } },
{ "type": "Feature", "properties": { "iso3": "TGO", "unit_id": "87587387B94601907434017", "unit_name": "Zio" }, "geometry": { "type": "Polygon", "coordinates": [ [ [ 1.098, 6.2539 ], [ 1.0998, 6.2586 ], [ 1.1084, 6.2594 ], [ 1.1253, 6.2688 ], [ 1.1464, 6.2722 ], [ 1.1555, 6.2784 ], [ 1.1671, 6.2954 ], [ 1.1655, 6.3007 ], [ 1.1719, 6.2973 ], [ 1.1798, 6.2986 ], [ 1.1898, 6.316 ], [ 1.1937, 6.3367 ], [ 1.2161, 6.3692 ], [ 1.2281, 6.3645 ], [ 1.242, 6.3508 ], [ 1.2448, 6.3432 ], [ 1.2415, 6.3393 ], [ 1.2311, 6.3479 ], [ 1.2225, 6.3508 ], [ 1.2164, 6.3477 ], [ 1.2313, 6.3176 ], [ 1.2515, 6.2986 ], [ 1.247, 6.2732 ], [ 1.2377, 6.2714 ], [ 1.2273, 6.2747 ], [ 1.258, 6.2538 ], [ 1.27, 6.2501 ], [ 1.2787, 6.2417 ], [ 1.2831, 6.2246 ], [ 1.2821, 6.2011 ], [ 1.2898, 6.1901 ], [ 1.301, 6.1909 ], [ 1.3434, 6.2073 ], [ 1.3982, 6.2143 ], [ 1.4054, 6.2513 ], [ 1.4042, 6.2681 ], [ 1.3858, 6.3038 ], [ 1.3801, 6.3635 ], [ 1.3666, 6.4232 ], [ 1.3521, 6.4396 ], [ 1.3474, 6.4499 ], [ 1.3469, 6.4761 ], [ 1.3438, 6.4834 ], [ 1.3184, 6.5193 ], [ 1.3068, 6.5236 ], [ 1.2972, 6.5768 ], [ 1.2907, 6.5875 ], [ 1.2978, 6.6233 ], [ 1.2932, 6.6269 ], [ 1.3005, 6.6407 ], [ 1.3029, 6.6776 ], [ 1.2999, 6.6827 ], [ 1.2569, 6.6967 ], [ 1.2483, 6.7053 ], [ 1.2457, 6.7194 ], [ 1.2491, 6.7286 ], [ 1.26, 6.7445 ], [ 1.2773, 6.7493 ], [ 1.2757, 6.7567 ], [ 1.2516, 6.7617 ], [ 1.2442, 6.7648 ], [ 1.2397, 6.7709 ], [ 1.2196, 6.7471 ], [ 1.2121, 6.7466 ], [ 1.1887, 6.7681 ], [ 1.1815, 6.7687 ], [ 1.1698, 6.7757 ], [ 1.15, 6.793 ], [ 1.1418, 6.7941 ], [ 1.133, 6.8048 ], [ 1.1047, 6.8094 ], [ 1.0951, 6.8185 ], [ 1.0925, 6.8279 ], [ 1.06, 6.8581 ], [ 1.0335, 6.8711 ], [ 1.0181, 6.8647 ], [ 0.9602, 6.8558 ], [ 0.9641, 6.8171 ], [ 0.9612, 6.8117 ], [ 0.9374, 6.8001 ], [ 0.897, 6.77 ], [ 0.901, 6.7435 ], [ 0.9001, 6.703 ], [ 0.9066, 6.7028 ], [ 0.9306, 6.6856 ], [ 0.9327, 6.6729 ], [ 0.9467, 6.6618 ], [ 0.9529, 6.6399 ], [ 0.98, 6.6349 ], [ 0.9866, 6.6174 ], [ 0.9913, 6.6128 ], [ 0.9875, 6.5669 ], [ 0.9956, 6.5582 ], [ 1.0067, 6.5298 ], [ 1.0142, 6.5284 ], [ 1.0225, 6.5164 ], [ 1.0504, 6.4993 ], [ 1.0604, 6.4826 ], [ 1.0659, 6.4632 ], [ 1.0784, 6.4507 ], [ 1.0738, 6.4035 ], [ 1.0781, 6.3878 ], [ 1.0673, 6.329 ], [ 1.0647, 6.3266 ], [ 1.0463, 6.3265 ], [ 1.0509, 6.2961 ], [ 1.0672, 6.2789 ], [ 1.0757, 6.2902 ], [ 1.081, 6.2798 ], [ 1.087, 6.2756 ], [ 1.089, 6.2673 ], [ 1.0948, 6.2642 ], [ 1.098, 6.2539 ] ] ] } },
{ "type": "Feature", "properties": { "iso3": "TGO", "unit_id": "87587387B52356474813550", "unit_name": "Agoe-Nyive" }, "geometry": { "type": "Polygon", "coordinates": [ [ [ 1.0907, 6.2234 ], [ 1.1215, 6.2239 ], [ 1.1295, 6.2168 ], [ 1.1335, 6.2186 ], [ 1.1556, 6.2126 ], [ 1.1654, 6.2042 ], [ 1.1664, 6.2092 ], [ 1.1736, 6.2057 ], [ 1.1769, 6.2117 ], [ 1.1849, 6.2058 ], [ 1.1841, 6.2033 ], [ 1.1901, 6.2055 ], [ 1.2003, 6.1982 ], [ 1.2043, 6.2063 ], [ 1.2086, 6.2046 ], [ 1.2086, 6.2008 ], [ 1.2437, 6.2094 ], [ 1.2501, 6.2195 ], [ 1.2445, 6.2274 ], [ 1.2416, 6.2274 ], [ 1.2483, 6.2332 ], [ 1.2532, 6.2568 ], [ 1.2266, 6.2766 ], [ 1.2377, 6.2714 ], [ 1.247, 6.2732 ], [ 1.2515, 6.2986 ], [ 1.2313, 6.3176 ], [ 1.2164, 6.3477 ], [ 1.2225, 6.3508 ], [ 1.2311, 6.3479 ], [ 1.2415, 6.3393 ], [ 1.2448, 6.3432 ], [ 1.2346, 6.3594 ], [ 1.2161, 6.3692 ], [ 1.1937, 6.3367 ], [ 1.1898, 6.316 ], [ 1.1798, 6.2986 ], [ 1.1719, 6.2973 ], [ 1.1655, 6.3007 ], [ 1.1671, 6.2954 ], [ 1.1555, 6.2784 ], [ 1.1464, 6.2722 ], [ 1.1253, 6.2688 ], [ 1.1084, 6.2594 ], [ 1.0998, 6.2586 ], [ 1.098, 6.2539 ], [ 1.1042, 6.2444 ], [ 1.104, 6.2394 ], [ 1.0907, 6.2234 ] ] ] } },
{ "type": "Feature", "properties": { "iso3": "TGO", "unit_id": "87587387B19998732496239", "unit_name": "Amou" }, "geometry": { "type": "Polygon", "coordinates": [ [ [ 0.9526, 7.2942 ], [ 0.9682, 7.3023 ], [ 0.973, 7.3011 ], [ 0.9778, 7.2906 ], [ 0.981, 7.2252 ], [ 1.0063, 7.2236 ], [ 1.0132, 7.2143 ], [ 1.028, 7.2099 ], [ 1.039, 7.193 ], [ 1.0592, 7.2156 ], [ 1.0674, 7.2344 ], [ 1.0655, 7.2533 ], [ 1.0586, 7.2608 ], [ 1.0567, 7.2765 ], [ 1.0617, 7.2809 ], [ 1.0768, 7.279 ], [ 1.0805, 7.3261 ], [ 1.11, 7.3392 ], [ 1.1188, 7.3593 ], [ 1.1351, 7.36 ], [ 1.1414, 7.365 ], [ 1.1427, 7.3989 ], [ 1.1389, 7.4286 ], [ 1.1445, 7.4417 ], [ 1.1441, 7.465 ], [ 1.1345, 7.4802 ], [ 1.1189, 7.478 ], [ 1.1077, 7.5091 ], [ 1.127, 7.5434 ], [ 1.1424, 7.5512 ], [ 1.143, 7.5677 ], [ 1.1527, 7.5849 ], [ 1.1546, 7.597 ], [ 1.1495, 7.6276 ], [ 1.1357, 7.6697 ], [ 1.1164, 7.7092 ], [ 1.116, 7.7287 ], [ 1.1369, 7.74 ], [ 1.143, 7.7571 ], [ 1.1422, 7.7688 ], [ 1.1127, 7.777 ], [ 1.109, 7.803 ], [ 1.0997, 7.8082 ], [ 1.0865, 7.857 ], [ 1.081, 7.8615 ], [ 1.0823, 7.8762 ], [ 1.0604, 7.8802 ], [ 1.0468, 7.8862 ], [ 1.0343, 7.8802 ], [ 1.0122, 7.8827 ], [ 0.9775, 7.8701 ], [ 0.96, 7.8696 ], [ 0.9529, 7.8741 ], [ 0.9278, 7.8736 ], [ 0.9133, 7.8636 ], [ 0.8997, 7.846 ], [ 0.8834, 7.8138 ], [ 0.8778, 7.77 ], [ 0.8794, 7.7572 ], [ 0.8722, 7.7371 ], [ 0.869, 7.6917 ], [ 0.8648, 7.6842 ], [ 0.8726, 7.6821 ], [ 0.8822, 7.6578 ], [ 0.8931, 7.6533 ], [ 0.9035, 7.6574 ], [ 0.9035, 7.6276 ], [ 0.9071, 7.6156 ], [ 0.9192, 7.5995 ], [ 0.9304, 7.5887 ], [ 0.9537, 7.5778 ], [ 1.0079, 7.5682 ], [ 1.0075, 7.5417 ], [ 0.9915, 7.5336 ], [ 0.9903, 7.5288 ], [ 0.971, 7.5148 ], [ 0.9658, 7.5148 ], [ 0.9469, 7.5349 ], [ 0.9401, 7.5345 ], [ 0.9369, 7.5311 ], [ 0.9308, 7.5359 ], [ 0.9127, 7.518 ], [ 0.8963, 7.5144 ], [ 0.8861, 7.5054 ], [ 0.8931, 7.5043 ], [ 0.8978, 7.498 ], [ 0.8899, 7.4959 ], [ 0.8814, 7.4642 ], [ 0.8581, 7.4437 ], [ 0.8505, 7.43 ], [ 0.8487, 7.418 ], [ 0.8396, 7.4071 ], [ 0.8008, 7.3899 ], [ 0.7866, 7.3617 ], [ 0.7621, 7.3465 ], [ 0.7605, 7.3184 ], [ 0.7862, 7.3067 ], [ 0.8135, 7.3019 ], [ 0.8213, 7.2973 ], [ 0.8433, 7.3091 ], [ 0.8597, 7.3115 ], [ 0.8766, 7.3228 ], [ 0.9043, 7.322 ], [ 0.9204, 7.3147 ], [ 0.9348, 7.3123 ], [ 0.9445, 7.3059 ], [ 0.9465, 7.2983 ], [ 0.9526, 7.2942 ] ] ] } },
{ "type": "Feature", "properties": { "iso3": "TGO", "unit_id": "87587387B7875659371589", "unit_name": "Wawa" }, "geometry": { "type": "Polygon", "coordinates": [ [ [ 0.8648, 7.6842 ], [ 0.8292, 7.6783 ], [ 0.8099, 7.6341 ], [ 0.8019, 7.6288 ], [ 0.7926, 7.6401 ], [ 0.7854, 7.6606 ], [ 0.7653, 7.6574 ], [ 0.7384, 7.6317 ], [ 0.7099, 7.6136 ], [ 0.6954, 7.614 ], [ 0.6762, 7.618 ], [ 0.6637, 7.6272 ], [ 0.6541, 7.6469 ], [ 0.6503, 7.6832 ], [ 0.6521, 7.6917 ], [ 0.6444, 7.7013 ], [ 0.6364, 7.6949 ], [ 0.626, 7.7094 ], [ 0.6167, 7.7111 ], [ 0.6159, 7.7019 ], [ 0.6079, 7.7068 ], [ 0.5898, 7.7072 ], [ 0.5741, 7.6485 ], [ 0.5733, 7.6329 ], [ 0.577, 7.6164 ], [ 0.5484, 7.6072 ], [ 0.5452, 7.6007 ], [ 0.5368, 7.5999 ], [ 0.5179, 7.5875 ], [ 0.5175, 7.559 ], [ 0.5083, 7.5244 ], [ 0.5171, 7.4838 ], [ 0.5155, 7.4766 ], [ 0.5022, 7.4638 ], [ 0.5127, 7.4549 ], [ 0.5139, 7.4489 ], [ 0.5195, 7.4513 ], [ 0.5251, 7.4465 ], [ 0.5348, 7.4091 ], [ 0.5456, 7.3987 ], [ 0.5705, 7.3878 ], [ 0.5962, 7.3923 ], [ 0.6147, 7.4023 ], [ 0.6284, 7.4015 ], [ 0.646, 7.3895 ], [ 0.6486, 7.3756 ], [ 0.6814, 7.3862 ], [ 0.6962, 7.385 ], [ 0.7123, 7.3762 ], [ 0.7179, 7.377 ], [ 0.7272, 7.3854 ], [ 0.7424, 7.3818 ], [ 0.8008, 7.3899 ], [ 0.8396, 7.4071 ], [ 0.8487, 7.418 ], [ 0.8505, 7.43 ], [ 0.8581, 7.4437 ], [ 0.8814, 7.4642 ], [ 0.8899, 7.4959 ], [ 0.8978, 7.498 ], [ 0.8931, 7.5043 ], [ 0.8861, 7.5054 ], [ 0.8963, 7.5144 ], [ 0.9127, 7.518 ], [ 0.9308, 7.5359 ], [ 0.9369, 7.5311 ], [ 0.9401, 7.5345 ], [ 0.9469, 7.5349 ], [ 0.9658, 7.5148 ], [ 0.971, 7.5148 ], [ 0.9903, 7.5288 ], [ 0.9915, 7.5336 ], [ 1.0075, 7.5417 ], [ 1.0079, 7.5682 ], [ 0.9537, 7.5778 ], [ 0.9304, 7.5887 ], [ 0.9192, 7.5995 ], [ 0.9071, 7.6156 ], [ 0.9035, 7.6276 ], [ 0.9035, 7.6574 ], [ 0.8931, 7.6533 ], [ 0.8822, 7.6578 ], [ 0.8726, 7.6821 ], [ 0.8648, 7.6842 ] ] ] } },
{ "type": "Feature", "properties": { "iso3": "TGO", "unit_id": "87587387B22653565151260", "unit_name": "Agou" }, "geometry": { "type": "Polygon", "coordinates": [ [ [ 0.9001, 6.703 ], [ 0.901, 6.7435 ], [ 0.897, 6.77 ], [ 0.9374, 6.8001 ], [ 0.9612, 6.8117 ], [ 0.9641, 6.8171 ], [ 0.9602, 6.8558 ], [ 0.9527, 6.8608 ], [ 0.9479, 6.8598 ], [ 0.9409, 6.8499 ], [ 0.9347, 6.8223 ], [ 0.8923, 6.8261 ], [ 0.9034, 6.8701 ], [ 0.9027, 6.8791 ], [ 0.9102, 6.8893 ], [ 0.9207, 6.8949 ], [ 0.9199, 6.9094 ], [ 0.9038, 6.9255 ], [ 0.9018, 6.9371 ], [ 0.9181, 6.9789 ], [ 0.9098, 6.9733 ], [ 0.8745, 6.966 ], [ 0.8717, 6.9624 ], [ 0.8745, 6.9596 ], [ 0.8813, 6.9592 ], [ 0.8781, 6.9383 ], [ 0.8573, 6.9185 ], [ 0.8427, 6.9119 ], [ 0.8275, 6.9187 ], [ 0.8092, 6.9331 ], [ 0.8091, 6.9425 ], [ 0.8053, 6.9489 ], [ 0.7948, 6.9555 ], [ 0.786, 6.9681 ], [ 0.7744, 6.9685 ], [ 0.7759, 6.9753 ], [ 0.7719, 6.9835 ], [ 0.7598, 6.9829 ], [ 0.7562, 6.9747 ], [ 0.7531, 6.9842 ], [ 0.7471, 6.9767 ], [ 0.7508, 6.9732 ], [ 0.7498, 6.9701 ], [ 0.7411, 6.9564 ], [ 0.7278, 6.9568 ], [ 0.7179, 6.9412 ], [ 0.7048, 6.9327 ], [ 0.7026, 6.9193 ], [ 0.6941, 6.9169 ], [ 0.6915, 6.9004 ], [ 0.6996, 6.8925 ], [ 0.6907, 6.8835 ], [ 0.6835, 6.866 ], [ 0.6741, 6.858 ], [ 0.6734, 6.8463 ], [ 0.6687, 6.8515 ], [ 0.6568, 6.8455 ], [ 0.6608, 6.8312 ], [ 0.6802, 6.8217 ], [ 0.678, 6.8175 ], [ 0.6823, 6.8094 ], [ 0.6685, 6.8067 ], [ 0.6537, 6.7922 ], [ 0.643, 6.7733 ], [ 0.6448, 6.7647 ], [ 0.6387, 6.7621 ], [ 0.6289, 6.7487 ], [ 0.64, 6.748 ], [ 0.6462, 6.741 ], [ 0.6413, 6.7266 ], [ 0.6448, 6.712 ], [ 0.6419, 6.7019 ], [ 0.6438, 6.6925 ], [ 0.6353, 6.6507 ], [ 0.6378, 6.6322 ], [ 0.6586, 6.6065 ], [ 0.6709, 6.6112 ], [ 0.6799, 6.6069 ], [ 0.6883, 6.5922 ], [ 0.6812, 6.5838 ], [ 0.6912, 6.5784 ], [ 0.7268, 6.5854 ], [ 0.7375, 6.5771 ], [ 0.74, 6.5703 ], [ 0.7381, 6.5533 ], [ 0.7166, 6.5334 ], [ 0.7132, 6.5277 ], [ 0.7138, 6.5199 ], [ 0.7187, 6.5175 ], [ 0.7524, 6.5273 ], [ 0.7639, 6.5261 ], [ 0.7957, 6.5506 ], [ 0.8202, 6.554 ], [ 0.83, 6.5704 ], [ 0.8414, 6.6127 ], [ 0.8549, 6.6295 ], [ 0.8662, 6.6555 ], [ 0.8743, 6.6947 ], [ 0.8801, 6.7015 ], [ 0.9001, 6.703 ] ] ] } },
{ "type": "Feature", "properties": { "iso3": "TGO", "unit_id": "87587387B51616016763184", "unit_name": "Danyi" }, "geometry": { "type": "Polygon", "coordinates": [ [ [ 0.8008, 7.3899 ], [ 0.7424, 7.3818 ], [ 0.7272, 7.3854 ], [ 0.7179, 7.377 ], [ 0.7123, 7.3762 ], [ 0.6962, 7.385 ], [ 0.6814, 7.3862 ], [ 0.6486, 7.3756 ], [ 0.6455, 7.36 ], [ 0.65, 7.3508 ], [ 0.6561, 7.3116 ], [ 0.6432, 7.2814 ], [ 0.6317, 7.2003 ], [ 0.6211, 7.1707 ], [ 0.606, 7.1495 ], [ 0.5982, 7.1328 ], [ 0.5982, 7.1215 ], [ 0.6272, 7.0724 ], [ 0.6326, 7.0727 ], [ 0.6439, 7.081 ], [ 0.6598, 7.0837 ], [ 0.6725, 7.09 ], [ 0.6827, 7.1086 ], [ 0.6686, 7.1208 ], [ 0.6715, 7.1231 ], [ 0.6884, 7.1215 ], [ 0.6906, 7.1379 ], [ 0.6945, 7.1408 ], [ 0.697, 7.1507 ], [ 0.7073, 7.1593 ], [ 0.7259, 7.2043 ], [ 0.7339, 7.2092 ], [ 0.752, 7.2333 ], [ 0.7952, 7.3044 ], [ 0.7605, 7.3184 ], [ 0.7593, 7.3228 ], [ 0.7621, 7.3465 ], [ 0.7866, 7.3617 ], [ 0.8008, 7.3899 ] ] ] } },
{ "type": "Feature", "properties": { "iso3": "TGO", "unit_id": "87587387B1671020014402", "unit_name": "Est-Mono" }, "geometry": { "type": "Polygon", "coordinates": [ [ [ 1.1486, 7.9661 ], [ 1.1218, 7.9176 ], [ 1.1295, 7.9025 ], [ 1.1376, 7.9009 ], [ 1.1569, 7.9127 ], [ 1.1729, 7.9124 ], [ 1.1932, 7.896 ], [ 1.2079, 7.8971 ], [ 1.2045, 7.8817 ], [ 1.2093, 7.8763 ], [ 1.2265, 7.8765 ], [ 1.2186, 7.8567 ], [ 1.233, 7.8536 ], [ 1.2437, 7.8454 ], [ 1.2638, 7.8435 ], [ 1.2763, 7.8467 ], [ 1.2845, 7.8523 ], [ 1.2895, 7.8473 ], [ 1.2895, 7.8392 ], [ 1.282, 7.8291 ], [ 1.2901, 7.8241 ], [ 1.3033, 7.8228 ], [ 1.3234, 7.8304 ], [ 1.334, 7.8272 ], [ 1.3554, 7.8122 ], [ 1.3907, 7.7958 ], [ 1.3943, 7.8034 ], [ 1.4081, 7.8166 ], [ 1.425, 7.8159 ], [ 1.4489, 7.821 ], [ 1.4589, 7.8398 ], [ 1.4671, 7.8969 ], [ 1.4652, 7.9013 ], [ 1.4514, 7.9094 ], [ 1.4402, 7.9088 ], [ 1.4423, 7.9649 ], [ 1.4842, 7.964 ], [ 1.491, 7.9579 ], [ 1.4943, 7.9431 ], [ 1.5015, 7.9375 ], [ 1.5039, 7.9286 ], [ 1.5304, 7.9049 ], [ 1.6327, 7.9173 ], [ 1.6413, 8.3004 ], [ 1.6369, 8.3397 ], [ 1.6253, 8.3516 ], [ 1.6268, 8.3799 ], [ 1.6332, 8.404 ], [ 1.6461, 8.4172 ], [ 1.6397, 8.4325 ], [ 1.6499, 8.4781 ], [ 1.6196, 8.4701 ], [ 1.5938, 8.4553 ], [ 1.5248, 8.4377 ], [ 1.513, 8.4282 ], [ 1.5007, 8.4032 ], [ 1.4834, 8.3824 ], [ 1.4694, 8.3682 ], [ 1.455, 8.3637 ], [ 1.405, 8.3627 ], [ 1.3889, 8.3589 ], [ 1.3848, 8.3551 ], [ 1.3574, 8.351 ], [ 1.3385, 8.3596 ], [ 1.32, 8.3579 ], [ 1.3108, 8.3661 ], [ 1.2879, 8.3664 ], [ 1.2776, 8.3726 ], [ 1.2447, 8.373 ], [ 1.2289, 8.3784 ], [ 1.2368, 8.3613 ], [ 1.2293, 8.3469 ], [ 1.23, 8.2959 ], [ 1.2401, 8.2751 ], [ 1.2515, 8.2655 ], [ 1.2602, 8.2458 ], [ 1.247, 8.239 ], [ 1.2429, 8.2204 ], [ 1.2463, 8.2105 ], [ 1.2603, 8.1991 ], [ 1.2644, 8.1863 ], [ 1.2637, 8.1579 ], [ 1.2564, 8.1325 ], [ 1.2555, 8.1036 ], [ 1.2479, 8.0997 ], [ 1.2338, 8.099 ], [ 1.2304, 8.0956 ], [ 1.2304, 8.0919 ], [ 1.2507, 8.0783 ], [ 1.251, 8.0568 ], [ 1.2348, 8.0323 ], [ 1.2167, 8.0335 ], [ 1.1974, 8.0153 ], [ 1.1956, 8.0005 ], [ 1.1857, 7.9899 ], [ 1.1698, 7.9854 ], [ 1.1486, 7.9661 ] ] ] } },
{ "type": "Feature", "properties": { "iso3": "TGO", "unit_id": "87587387B38463594587738", "unit_name": "Haho" }, "geometry": { "type": "Polygon", "coordinates": [ [ [ 1.5777, 6.9089 ], [ 1.5757, 6.9465 ], [ 1.5591, 6.9711 ], [ 1.5582, 6.998 ], [ 1.5499, 7.0113 ], [ 1.5363, 7.0131 ], [ 1.5347, 7.0161 ], [ 1.5343, 7.0406 ], [ 1.554, 7.0442 ], [ 1.5665, 7.0615 ], [ 1.5621, 7.0716 ], [ 1.5259, 7.0818 ], [ 1.4954, 7.1051 ], [ 1.4701, 7.1018 ], [ 1.4645, 7.1067 ], [ 1.462, 7.1235 ], [ 1.4428, 7.1304 ], [ 1.4416, 7.1858 ], [ 1.456, 7.1946 ], [ 1.4789, 7.1898 ], [ 1.4789, 7.2011 ], [ 1.4681, 7.2143 ], [ 1.4681, 7.2227 ], [ 1.4548, 7.24 ], [ 1.4677, 7.2838 ], [ 1.4669, 7.2962 ], [ 1.4459, 7.2912 ], [ 1.4215, 7.2755 ], [ 1.4094, 7.252 ], [ 1.41, 7.2395 ], [ 1.3981, 7.2269 ], [ 1.3673, 7.2412 ], [ 1.3506, 7.2441 ], [ 1.2745, 7.2351 ], [ 1.233, 7.2187 ], [ 1.2205, 7.2225 ], [ 1.2104, 7.2313 ], [ 1.191, 7.2395 ], [ 1.1595, 7.2391 ], [ 1.1179, 7.2308 ], [ 1.1121, 7.2245 ], [ 1.1028, 7.1993 ], [ 1.0979, 7.1941 ], [ 1.0615, 7.1896 ], [ 1.036, 7.1943 ], [ 1.028, 7.2099 ], [ 1.0132, 7.2143 ], [ 1.0063, 7.2236 ], [ 0.981, 7.2252 ], [ 0.979, 7.2316 ], [ 0.9814, 7.2565 ], [ 0.9778, 7.2906 ], [ 0.973, 7.3011 ], [ 0.9682, 7.3023 ], [ 0.9526, 7.2942 ], [ 0.9393, 7.2633 ], [ 0.9311, 7.2583 ], [ 0.9285, 7.2418 ], [ 0.9372, 7.2354 ], [ 0.9254, 7.2228 ], [ 0.9226, 7.1959 ], [ 0.9263, 7.1846 ], [ 0.928, 7.1474 ], [ 0.9379, 7.1176 ], [ 0.9508, 7.0957 ], [ 0.9509, 7.0696 ], [ 0.967, 7.0535 ], [ 0.9463, 7.027 ], [ 0.9379, 7.0306 ], [ 0.9378, 7.0356 ], [ 0.9294, 7.0358 ], [ 0.9259, 7.0291 ], [ 0.9078, 7.0231 ], [ 0.9042, 7.0171 ], [ 0.907, 7.0102 ], [ 0.9219, 6.9998 ], [ 0.9114, 6.9568 ], [ 0.9018, 6.9371 ], [ 0.9038, 6.9255 ], [ 0.9199, 6.9094 ], [ 0.9215, 6.9034 ], [ 0.9207, 6.8949 ], [ 0.9102, 6.8893 ], [ 0.9027, 6.8791 ], [ 0.9034, 6.8701 ], [ 0.8923, 6.8261 ], [ 0.9347, 6.8223 ], [ 0.9409, 6.8499 ], [ 0.9479, 6.8598 ], [ 0.9527, 6.8608 ], [ 0.9602, 6.8558 ], [ 0.9764, 6.8571 ], [ 1.0181, 6.8647 ], [ 1.0335, 6.8711 ], [ 1.06, 6.8581 ], [ 1.0925, 6.8279 ], [ 1.0951, 6.8185 ], [ 1.1047, 6.8094 ], [ 1.133, 6.8048 ], [ 1.1418, 6.7941 ], [ 1.15, 6.793 ], [ 1.1698, 6.7757 ], [ 1.1815, 6.7687 ], [ 1.1887, 6.7681 ], [ 1.2121, 6.7466 ], [ 1.2196, 6.7471 ], [ 1.2397, 6.7709 ], [ 1.2442, 6.7648 ], [ 1.2516, 6.7617 ], [ 1.2757, 6.7567 ], [ 1.2938, 6.777 ], [ 1.351, 6.8187 ], [ 1.4052, 6.8368 ], [ 1.4104, 6.8437 ], [ 1.4708, 6.83 ], [ 1.4994, 6.8366 ], [ 1.5195, 6.8476 ], [ 1.532, 6.8587 ], [ 1.5566, 6.9018 ], [ 1.5777, 6.9089 ] ] ] } },
{ "type": "Feature", "properties": { "iso3": "TGO", "unit_id": "87587387B35047623527040", "unit_name": "Kpele" }, "geometry": { "type": "Polygon", "coordinates": [ [ [ 0.7952, 7.3044 ], [ 0.752, 7.2333 ], [ 0.7339, 7.2092 ], [ 0.7259, 7.2043 ], [ 0.7073, 7.1593 ], [ 0.697, 7.1507 ], [ 0.6945, 7.1408 ], [ 0.6906, 7.1379 ], [ 0.6884, 7.1215 ], [ 0.6715, 7.1231 ], [ 0.6686, 7.1208 ], [ 0.6827, 7.1086 ], [ 0.6725, 7.09 ], [ 0.6598, 7.0837 ], [ 0.6579, 7.066 ], [ 0.6702, 7.0445 ], [ 0.686, 7.0284 ], [ 0.7329, 7.0242 ], [ 0.7623, 6.9817 ], [ 0.7719, 6.9835 ], [ 0.7759, 6.9753 ], [ 0.7744, 6.9685 ], [ 0.786, 6.9681 ], [ 0.7948, 6.9555 ], [ 0.8053, 6.9489 ], [ 0.8091, 6.9425 ], [ 0.8092, 6.9331 ], [ 0.8275, 6.9187 ], [ 0.8427, 6.9119 ], [ 0.8573, 6.9185 ], [ 0.8781, 6.9383 ], [ 0.8813, 6.9592 ], [ 0.8745, 6.9596 ], [ 0.8717, 6.9624 ], [ 0.8745, 6.966 ], [ 0.9098, 6.9733 ], [ 0.9181, 6.9789 ], [ 0.9219, 6.9998 ], [ 0.907, 7.0102 ], [ 0.9042, 7.0171 ], [ 0.9078, 7.0231 ], [ 0.9259, 7.0291 ], [ 0.9294, 7.0358 ], [ 0.9378, 7.0356 ], [ 0.9379, 7.0306 ], [ 0.9463, 7.027 ], [ 0.967, 7.0535 ], [ 0.9509, 7.0696 ], [ 0.9508, 7.0957 ], [ 0.9379, 7.1176 ], [ 0.928, 7.1474 ], [ 0.9263, 7.1846 ], [ 0.9226, 7.1959 ], [ 0.9254, 7.2228 ], [ 0.9372, 7.2354 ], [ 0.9285, 7.2418 ], [ 0.9311, 7.2583 ], [ 0.9393, 7.2633 ], [ 0.9526, 7.2942 ], [ 0.9465, 7.2983 ], [ 0.9445, 7.3059 ], [ 0.9348, 7.3123 ], [ 0.9204, 7.3147 ], [ 0.9043, 7.322 ], [ 0.8766, 7.3228 ], [ 0.8597, 7.3115 ], [ 0.8433, 7.3091 ], [ 0.8213, 7.2973 ], [ 0.8135, 7.3019 ], [ 0.7952, 7.3044 ] ] ] } },
{ "type": "Feature", "properties": { "iso3": "TGO", "unit_id": "87587387B3124699906751", "unit_name": "Moyen-Mono" }, "geometry": { "type": "Polygon", "coordinates": [ [ [ 1.5582, 6.998 ], [ 1.5874, 6.9976 ], [ 1.591, 6.994 ], [ 1.6416, 6.994 ], [ 1.6361, 7.206 ], [ 1.6349, 7.4007 ], [ 1.6257, 7.4007 ], [ 1.6165, 7.3914 ], [ 1.6028, 7.3851 ], [ 1.5886, 7.3653 ], [ 1.574, 7.3324 ], [ 1.5624, 7.3266 ], [ 1.5589, 7.3154 ], [ 1.5367, 7.2996 ], [ 1.5168, 7.3074 ], [ 1.5039, 7.3032 ], [ 1.4891, 7.291 ], [ 1.4727, 7.2887 ], [ 1.4669, 7.2962 ], [ 1.4677, 7.2838 ], [ 1.4548, 7.24 ], [ 1.4681, 7.2227 ], [ 1.4681, 7.2143 ], [ 1.4789, 7.2011 ], [ 1.4789, 7.1898 ], [ 1.456, 7.1946 ], [ 1.4416, 7.1858 ], [ 1.4428, 7.1304 ], [ 1.462, 7.1235 ], [ 1.4645, 7.1067 ], [ 1.4701, 7.1018 ], [ 1.4769, 7.1014 ], [ 1.4849, 7.1055 ], [ 1.4954, 7.1051 ], [ 1.5259, 7.0818 ], [ 1.5621, 7.0716 ], [ 1.5665, 7.0615 ], [ 1.554, 7.0442 ], [ 1.5343, 7.0406 ], [ 1.5363, 7.0131 ], [ 1.5499, 7.0113 ], [ 1.5582, 6.998 ] ] ] } },
{ "type": "Feature", "properties": { "iso3": "TGO", "unit_id": "87587387B85648302149173", "unit_name": "Ogou" }, "geometry": { "type": "Polygon", "coordinates": [ [ [ 1.039, 7.193 ], [ 1.0615, 7.1896 ], [ 1.0979, 7.1941 ], [ 1.1028, 7.1993 ], [ 1.1121, 7.2245 ], [ 1.1179, 7.2308 ], [ 1.1595, 7.2391 ], [ 1.191, 7.2395 ], [ 1.2104, 7.2313 ], [ 1.2205, 7.2225 ], [ 1.233, 7.2187 ], [ 1.2745, 7.2351 ], [ 1.3506, 7.2441 ], [ 1.3673, 7.2412 ], [ 1.3981, 7.2269 ], [ 1.41, 7.2395 ], [ 1.4094, 7.252 ], [ 1.4215, 7.2755 ], [ 1.4459, 7.2912 ], [ 1.4669, 7.2962 ], [ 1.4727, 7.2887 ], [ 1.4891, 7.291 ], [ 1.5039, 7.3032 ], [ 1.5168, 7.3074 ], [ 1.5367, 7.2996 ], [ 1.5589, 7.3154 ], [ 1.5624, 7.3266 ], [ 1.574, 7.3324 ], [ 1.5886, 7.3653 ], [ 1.6028, 7.3851 ], [ 1.6165, 7.3914 ], [ 1.6257, 7.4007 ], [ 1.6349, 7.4007 ], [ 1.644, 7.4857 ], [ 1.6482, 7.4924 ], [ 1.6543, 7.4944 ], [ 1.6755, 7.4944 ], [ 1.6755, 7.5066 ], [ 1.6687, 7.5181 ], [ 1.6593, 7.5213 ], [ 1.6546, 7.5122 ], [ 1.6189, 7.5058 ], [ 1.6048, 7.51 ], [ 1.6064, 7.519 ], [ 1.6032, 7.5254 ], [ 1.5871, 7.5405 ], [ 1.555, 7.5472 ], [ 1.5364, 7.5459 ], [ 1.5312, 7.5369 ], [ 1.5315, 7.5218 ], [ 1.5216, 7.5112 ], [ 1.4907, 7.5088 ], [ 1.4509, 7.4963 ], [ 1.4499, 7.4597 ], [ 1.4412, 7.423 ], [ 1.4342, 7.4279 ], [ 1.4316, 7.4349 ], [ 1.4056, 7.4654 ], [ 1.4033, 7.4802 ], [ 1.3853, 7.486 ], [ 1.3789, 7.4928 ], [ 1.3767, 7.5011 ], [ 1.386, 7.5095 ], [ 1.3799, 7.5214 ], [ 1.3609, 7.5233 ], [ 1.3439, 7.5288 ], [ 1.3375, 7.5339 ], [ 1.3381, 7.5414 ], [ 1.349, 7.5453 ], [ 1.3513, 7.554 ], [ 1.3484, 7.5594 ], [ 1.3323, 7.5572 ], [ 1.3069, 7.571 ], [ 1.3072, 7.5829 ], [ 1.3191, 7.5941 ], [ 1.314, 7.6009 ], [ 1.3069, 7.6035 ], [ 1.2982, 7.597 ], [ 1.287, 7.6025 ], [ 1.2841, 7.6121 ], [ 1.2938, 7.6179 ], [ 1.2999, 7.6382 ], [ 1.2944, 7.6443 ], [ 1.2946, 7.6499 ], [ 1.286, 7.665 ], [ 1.2783, 7.6717 ], [ 1.2578, 7.6811 ], [ 1.2153, 7.6814 ], [ 1.1932, 7.6772 ], [ 1.1758, 7.6827 ], [ 1.1729, 7.6923 ], [ 1.1803, 7.7061 ], [ 1.1816, 7.7199 ], [ 1.1755, 7.7363 ], [ 1.1662, 7.7389 ], [ 1.1591, 7.7347 ], [ 1.1578, 7.7289 ], [ 1.145, 7.7126 ], [ 1.1166, 7.7123 ], [ 1.1164, 7.7092 ], [ 1.1357, 7.6697 ], [ 1.1495, 7.6276 ], [ 1.1546, 7.597 ], [ 1.1527, 7.5849 ], [ 1.143, 7.5677 ], [ 1.1424, 7.5512 ], [ 1.127, 7.5434 ], [ 1.1077, 7.5091 ], [ 1.1189, 7.478 ], [ 1.1345, 7.4802 ], [ 1.1441, 7.465 ], [ 1.1445, 7.4417 ], [ 1.1389, 7.4286 ], [ 1.1427, 7.3989 ], [ 1.1414, 7.365 ], [ 1.1351, 7.36 ], [ 1.1188, 7.3593 ], [ 1.11, 7.3392 ], [ 1.0805, 7.3261 ], [ 1.0768, 7.279 ], [ 1.0617, 7.2809 ], [ 1.0567, 7.2765 ], [ 1.0586, 7.2608 ], [ 1.0655, 7.2533 ], [ 1.0674, 7.2344 ], [ 1.0592, 7.2156 ], [ 1.039, 7.193 ] ] ] } },
{ "type": "Feature", "properties": { "iso3": "TGO", "unit_id": "87587387B15549226920933", "unit_name": "Akebou" }, "geometry": { "type": "Polygon", "coordinates": [ [ [ 0.616, 7.891 ], [ 0.6219, 7.8595 ], [ 0.6158, 7.8365 ], [ 0.6136, 7.7978 ], [ 0.609, 7.7861 ], [ 0.6094, 7.7789 ], [ 0.6158, 7.7691 ], [ 0.6141, 7.7603 ], [ 0.6083, 7.753 ], [ 0.6083, 7.7449 ], [ 0.6167, 7.7111 ], [ 0.626, 7.7094 ], [ 0.6364, 7.6949 ], [ 0.6444, 7.7013 ], [ 0.6521, 7.6917 ], [ 0.6503, 7.6832 ], [ 0.6541, 7.6469 ], [ 0.6637, 7.6272 ], [ 0.6762, 7.618 ], [ 0.6954, 7.614 ], [ 0.7099, 7.6136 ], [ 0.7384, 7.6317 ], [ 0.7653, 7.6574 ], [ 0.7854, 7.6606 ], [ 0.7926, 7.6401 ], [ 0.8019, 7.6288 ], [ 0.8099, 7.6341 ], [ 0.8292, 7.6783 ], [ 0.8648, 7.6842 ], [ 0.869, 7.6917 ], [ 0.8722, 7.7371 ], [ 0.8794, 7.7572 ], [ 0.8778, 7.77 ], [ 0.8834, 7.8138 ], [ 0.8997, 7.846 ], [ 0.9133, 7.8636 ], [ 0.9278, 7.8736 ], [ 0.9529, 7.8741 ], [ 0.96, 7.8696 ], [ 0.9775, 7.8701 ], [ 1.0122, 7.8827 ], [ 1.0343, 7.8802 ], [ 1.0468, 7.8862 ], [ 1.0604, 7.8802 ], [ 1.0823, 7.8762 ], [ 1.0804, 7.893 ], [ 1.0495, 7.9132 ], [ 1.0441, 7.9425 ], [ 1.0383, 7.9479 ], [ 1.0385, 7.9606 ], [ 0.989, 7.9716 ], [ 0.9632, 7.981 ], [ 0.919, 7.9646 ], [ 0.8845, 7.9595 ], [ 0.8682, 8.0221 ], [ 0.8618, 8.0318 ], [ 0.8371, 8.0387 ], [ 0.8335, 8.0165 ], [ 0.8352, 8.0066 ], [ 0.8316, 7.9986 ], [ 0.8339, 7.9939 ], [ 0.8301, 7.9744 ], [ 0.8316, 7.9682 ], [ 0.8259, 7.9538 ], [ 0.8206, 7.9485 ], [ 0.8093, 7.9424 ], [ 0.7731, 7.9324 ], [ 0.7344, 7.9473 ], [ 0.7126, 7.9519 ], [ 0.7095, 7.9646 ], [ 0.7014, 7.9633 ], [ 0.6929, 7.9597 ], [ 0.6897, 7.9515 ], [ 0.6906, 7.9427 ], [ 0.7001, 7.9211 ], [ 0.6849, 7.9021 ], [ 0.6787, 7.897 ], [ 0.6662, 7.894 ], [ 0.616, 7.891 ] ] ] } },
{ "type": "Feature", "properties": { "iso3": "TGO", "unit_id": "87587387B84948325316227", "unit_name": "Anie" }, "geometry": { "type": "Polygon", "coordinates": [ [ [ 1.0385, 7.9606 ], [ 1.0383, 7.9479 ], [ 1.0441, 7.9425 ], [ 1.0495, 7.9132 ], [ 1.0804, 7.893 ], [ 1.081, 7.8615 ], [ 1.0865, 7.857 ], [ 1.0997, 7.8082 ], [ 1.109, 7.803 ], [ 1.1127, 7.777 ], [ 1.1422, 7.7688 ], [ 1.143, 7.7571 ], [ 1.1369, 7.74 ], [ 1.116, 7.7287 ], [ 1.1167, 7.711 ], [ 1.145, 7.7126 ], [ 1.1578, 7.7289 ], [ 1.1591, 7.7347 ], [ 1.1662, 7.7389 ], [ 1.1755, 7.7363 ], [ 1.1816, 7.7199 ], [ 1.1803, 7.7061 ], [ 1.1729, 7.6923 ], [ 1.1758, 7.6827 ], [ 1.1932, 7.6772 ], [ 1.2153, 7.6814 ], [ 1.2578, 7.6811 ], [ 1.2783, 7.6717 ], [ 1.286, 7.665 ], [ 1.2946, 7.6499 ], [ 1.2944, 7.6443 ], [ 1.2999, 7.6382 ], [ 1.2938, 7.6179 ], [ 1.2841, 7.6121 ], [ 1.287, 7.6025 ], [ 1.2982, 7.597 ], [ 1.3069, 7.6035 ], [ 1.314, 7.6009 ], [ 1.3191, 7.5941 ], [ 1.3072, 7.5829 ], [ 1.3069, 7.571 ], [ 1.3323, 7.5572 ], [ 1.3484, 7.5594 ], [ 1.3513, 7.554 ], [ 1.349, 7.5453 ], [ 1.3381, 7.5414 ], [ 1.3375, 7.5339 ], [ 1.3439, 7.5288 ], [ 1.3609, 7.5233 ], [ 1.3799, 7.5214 ], [ 1.386, 7.5095 ], [ 1.3767, 7.5011 ], [ 1.3789, 7.4928 ], [ 1.3853, 7.486 ], [ 1.4033, 7.4802 ], [ 1.4056, 7.4654 ], [ 1.4316, 7.4349 ], [ 1.4342, 7.4279 ], [ 1.4412, 7.423 ], [ 1.4441, 7.4307 ], [ 1.4499, 7.4597 ], [ 1.4509, 7.4963 ], [ 1.4907, 7.5088 ], [ 1.5216, 7.5112 ], [ 1.5315, 7.5218 ], [ 1.5312, 7.5369 ], [ 1.5364, 7.5459 ], [ 1.555, 7.5472 ], [ 1.5871, 7.5405 ], [ 1.6032, 7.5254 ], [ 1.6064, 7.519 ], [ 1.6048, 7.51 ], [ 1.6189, 7.5058 ], [ 1.6546, 7.5122 ], [ 1.6593, 7.5213 ], [ 1.6495, 7.5482 ], [ 1.6508, 7.6134 ], [ 1.6369, 7.6414 ], [ 1.6315, 7.6613 ], [ 1.6359, 7.7965 ], [ 1.6353, 7.8103 ], [ 1.6296, 7.8266 ], [ 1.634, 7.8969 ], [ 1.6327, 7.9173 ], [ 1.5304, 7.9049 ], [ 1.5039, 7.9286 ], [ 1.5015, 7.9375 ], [ 1.4943, 7.9431 ], [ 1.491, 7.9579 ], [ 1.4842, 7.964 ], [ 1.4423, 7.9649 ], [ 1.4402, 7.9088 ], [ 1.4514, 7.9094 ], [ 1.4652, 7.9013 ], [ 1.4671, 7.8969 ], [ 1.4589, 7.8398 ], [ 1.4489, 7.821 ], [ 1.425, 7.8159 ], [ 1.4081, 7.8166 ], [ 1.3943, 7.8034 ], [ 1.3907, 7.7958 ], [ 1.3554, 7.8122 ], [ 1.334, 7.8272 ], [ 1.3234, 7.8304 ], [ 1.3033, 7.8228 ], [ 1.2901, 7.8241 ], [ 1.282, 7.8291 ], [ 1.2895, 7.8392 ], [ 1.2895, 7.8473 ], [ 1.2845, 7.8523 ], [ 1.2763, 7.8467 ], [ 1.2638, 7.8435 ], [ 1.2437, 7.8454 ], [ 1.233, 7.8536 ], [ 1.2186, 7.8567 ], [ 1.2265, 7.8765 ], [ 1.2093, 7.8763 ], [ 1.2045, 7.8817 ], [ 1.2079, 7.8971 ], [ 1.1932, 7.896 ], [ 1.1729, 7.9124 ], [ 1.1569, 7.9127 ], [ 1.1376, 7.9009 ], [ 1.1295, 7.9025 ], [ 1.1218, 7.9176 ], [ 1.1486, 7.9661 ], [ 1.1251, 7.9578 ], [ 1.0744, 7.9491 ], [ 1.0593, 7.9498 ], [ 1.0385, 7.9606 ] ] ] } },
{ "type": "Feature", "properties": { "iso3": "TGO", "unit_id": "87587387B38455537416534", "unit_name": "Kloto" }, "geometry": { "type": "Polygon", "coordinates": [ [ [ 0.7623, 6.9817 ], [ 0.7329, 7.0242 ], [ 0.7039, 7.0251 ], [ 0.686, 7.0284 ], [ 0.6809, 7.0325 ], [ 0.6702, 7.0445 ], [ 0.6579, 7.066 ], [ 0.6598, 7.0837 ], [ 0.6439, 7.081 ], [ 0.6326, 7.0727 ], [ 0.6272, 7.0724 ], [ 0.6144, 7.0922 ], [ 0.6105, 7.0804 ], [ 0.5972, 7.066 ], [ 0.5955, 7.0599 ], [ 0.5988, 7.0284 ], [ 0.5859, 7.0206 ], [ 0.5713, 7.0056 ], [ 0.5575, 6.9998 ], [ 0.5227, 6.9743 ], [ 0.5166, 6.9667 ], [ 0.5147, 6.9484 ], [ 0.5262, 6.9396 ], [ 0.5462, 6.9334 ], [ 0.5552, 6.9229 ], [ 0.5581, 6.9141 ], [ 0.5575, 6.9015 ], [ 0.5515, 6.8871 ], [ 0.539, 6.876 ], [ 0.5302, 6.85 ], [ 0.528, 6.843 ], [ 0.5301, 6.8258 ], [ 0.5476, 6.8277 ], [ 0.5553, 6.8252 ], [ 0.5778, 6.8076 ], [ 0.5807, 6.7977 ], [ 0.5724, 6.8035 ], [ 0.5665, 6.8 ], [ 0.5702, 6.7917 ], [ 0.567, 6.7861 ], [ 0.5717, 6.7782 ], [ 0.5723, 6.7653 ], [ 0.5765, 6.7613 ], [ 0.5877, 6.7628 ], [ 0.6074, 6.7533 ], [ 0.6237, 6.7539 ], [ 0.6289, 6.7487 ], [ 0.6387, 6.7621 ], [ 0.6448, 6.7647 ], [ 0.643, 6.7733 ], [ 0.6537, 6.7922 ], [ 0.6685, 6.8067 ], [ 0.6823, 6.8094 ], [ 0.678, 6.8175 ], [ 0.6802, 6.8217 ], [ 0.6608, 6.8312 ], [ 0.6568, 6.8455 ], [ 0.6687, 6.8515 ], [ 0.6734, 6.8463 ], [ 0.6741, 6.858 ], [ 0.6835, 6.866 ], [ 0.6907, 6.8835 ], [ 0.6996, 6.8925 ], [ 0.6915, 6.9004 ], [ 0.6941, 6.9169 ], [ 0.7026, 6.9193 ], [ 0.7048, 6.9327 ], [ 0.7179, 6.9412 ], [ 0.7278, 6.9568 ], [ 0.7411, 6.9564 ], [ 0.7498, 6.9701 ], [ 0.7508, 6.9732 ], [ 0.7471, 6.9767 ], [ 0.7531, 6.9842 ], [ 0.7562, 6.9747 ], [ 0.759, 6.9821 ], [ 0.7623, 6.9817 ] ] ] } },
{ "type": "Feature", "properties": { "iso3": "TGO", "unit_id": "87587387B60139447737754", "unit_name": "Kpendjal" }, "geometry": { "type": "Polygon", "coordinates": [ [ [ 0.8121, 10.6803 ], [ 0.815, 10.7046 ], [ 0.8368, 10.7548 ], [ 0.8737, 10.8064 ], [ 0.885, 10.8615 ], [ 0.9008, 10.8869 ], [ 0.8902, 10.9202 ], [ 0.8996, 10.9448 ], [ 0.9123, 10.9965 ], [ 0.7415, 10.9962 ], [ 0.6391, 10.9996 ], [ 0.5971, 10.9791 ], [ 0.5883, 10.9605 ], [ 0.5765, 10.9526 ], [ 0.5765, 10.9475 ], [ 0.5731, 10.9448 ], [ 0.5772, 10.908 ], [ 0.5695, 10.9151 ], [ 0.5646, 10.9096 ], [ 0.5534, 10.9039 ], [ 0.5444, 10.9033 ], [ 0.5383, 10.8975 ], [ 0.5398, 10.8933 ], [ 0.5338, 10.8839 ], [ 0.541, 10.8769 ], [ 0.5407, 10.8648 ], [ 0.5365, 10.863 ], [ 0.5382, 10.8544 ], [ 0.5342, 10.8465 ], [ 0.5306, 10.8483 ], [ 0.5276, 10.8444 ], [ 0.5363, 10.8368 ], [ 0.5372, 10.8262 ], [ 0.5285, 10.8304 ], [ 0.5227, 10.8259 ], [ 0.5297, 10.8147 ], [ 0.5306, 10.7959 ], [ 0.5094, 10.7796 ], [ 0.5082, 10.7608 ], [ 0.5118, 10.7308 ], [ 0.508, 10.7079 ], [ 0.4813, 10.7092 ], [ 0.4825, 10.693 ], [ 0.4981, 10.6847 ], [ 0.5385, 10.6767 ], [ 0.5562, 10.6681 ], [ 0.548, 10.6293 ], [ 0.5557, 10.6312 ], [ 0.556, 10.62 ], [ 0.5706, 10.6215 ], [ 0.5799, 10.6136 ], [ 0.6057, 10.616 ], [ 0.6193, 10.6124 ], [ 0.6245, 10.6079 ], [ 0.6744, 10.6144 ], [ 0.6805, 10.6203 ], [ 0.6855, 10.6457 ], [ 0.6891, 10.6468 ], [ 0.6927, 10.6414 ], [ 0.7074, 10.6579 ], [ 0.7435, 10.6549 ], [ 0.7541, 10.6648 ], [ 0.7673, 10.6608 ], [ 0.7699, 10.6655 ], [ 0.763, 10.6741 ], [ 0.7734, 10.677 ], [ 0.7731, 10.6863 ], [ 0.781, 10.6996 ], [ 0.7984, 10.6959 ], [ 0.8049, 10.6832 ], [ 0.8121, 10.6803 ] ] ] } },
{ "type": "Feature", "properties": { "iso3": "TGO", "unit_id": "87587387B50255491842689", "unit_name": "Oti" }, "geometry": { "type": "Polygon", "coordinates": [ [ [ 0.5385, 10.6767 ], [ 0.5221, 10.6405 ], [ 0.5112, 10.6353 ], [ 0.4901, 10.6323 ], [ 0.4714, 10.6345 ], [ 0.447, 10.6255 ], [ 0.4408, 10.6256 ], [ 0.4351, 10.6382 ], [ 0.4143, 10.654 ], [ 0.3786, 10.6611 ], [ 0.3767, 10.6805 ], [ 0.3734, 10.6832 ], [ 0.3511, 10.682 ], [ 0.3458, 10.6861 ], [ 0.3185, 10.6724 ], [ 0.3067, 10.6727 ], [ 0.3024, 10.6628 ], [ 0.3195, 10.6585 ], [ 0.3206, 10.649 ], [ 0.3356, 10.6377 ], [ 0.3353, 10.6331 ], [ 0.3254, 10.629 ], [ 0.3194, 10.6215 ], [ 0.3114, 10.5966 ], [ 0.3011, 10.5861 ], [ 0.2757, 10.5916 ], [ 0.2535, 10.587 ], [ 0.2427, 10.5922 ], [ 0.2158, 10.5663 ], [ 0.1873, 10.5497 ], [ 0.1928, 10.5459 ], [ 0.2152, 10.5504 ], [ 0.2226, 10.5447 ], [ 0.2232, 10.5396 ], [ 0.2072, 10.521 ], [ 0.2087, 10.514 ], [ 0.1919, 10.5078 ], [ 0.1931, 10.5025 ], [ 0.1985, 10.5028 ], [ 0.2117, 10.5128 ], [ 0.2153, 10.5117 ], [ 0.2137, 10.5027 ], [ 0.2197, 10.4848 ], [ 0.2159, 10.4521 ], [ 0.2172, 10.4292 ], [ 0.2071, 10.4259 ], [ 0.1918, 10.4275 ], [ 0.1852, 10.4252 ], [ 0.1833, 10.4128 ], [ 0.189, 10.3996 ], [ 0.1928, 10.3968 ], [ 0.2039, 10.3984 ], [ 0.2026, 10.4116 ], [ 0.2133, 10.4173 ], [ 0.2183, 10.4173 ], [ 0.2351, 10.407 ], [ 0.2599, 10.4052 ], [ 0.2695, 10.4152 ], [ 0.2817, 10.4156 ], [ 0.2943, 10.4027 ], [ 0.299, 10.3916 ], [ 0.2884, 10.3777 ], [ 0.2895, 10.3724 ], [ 0.3063, 10.3634 ], [ 0.3146, 10.3336 ], [ 0.3253, 10.335 ], [ 0.3322, 10.3289 ], [ 0.3314, 10.3189 ], [ 0.3203, 10.3128 ], [ 0.3174, 10.3089 ], [ 0.3189, 10.3053 ], [ 0.3845, 10.3085 ], [ 0.3921, 10.3049 ], [ 0.3931, 10.3013 ], [ 0.3698, 10.2802 ], [ 0.3741, 10.2733 ], [ 0.3792, 10.2719 ], [ 0.3734, 10.2636 ], [ 0.3619, 10.2579 ], [ 0.3594, 10.2532 ], [ 0.3582, 10.2167 ], [ 0.3489, 10.1843 ], [ 0.3489, 10.1609 ], [ 0.3578, 10.1391 ], [ 0.3569, 10.1255 ], [ 0.3747, 10.1365 ], [ 0.384, 10.1289 ], [ 0.3879, 10.1408 ], [ 0.403, 10.1526 ], [ 0.4209, 10.1544 ], [ 0.4357, 10.1612 ], [ 0.4217, 10.1734 ], [ 0.408, 10.1766 ], [ 0.407, 10.1852 ], [ 0.41, 10.1897 ], [ 0.4186, 10.1919 ], [ 0.424, 10.1854 ], [ 0.4534, 10.2048 ], [ 0.4613, 10.2055 ], [ 0.4732, 10.1983 ], [ 0.4789, 10.2009 ], [ 0.4857, 10.2134 ], [ 0.4932, 10.2134 ], [ 0.5022, 10.2181 ], [ 0.504, 10.2332 ], [ 0.5198, 10.2547 ], [ 0.5341, 10.2852 ], [ 0.5697, 10.3114 ], [ 0.5907, 10.3357 ], [ 0.5675, 10.3462 ], [ 0.5582, 10.3842 ], [ 0.5402, 10.396 ], [ 0.5115, 10.4283 ], [ 0.5148, 10.4344 ], [ 0.5298, 10.442 ], [ 0.5327, 10.4556 ], [ 0.528, 10.4599 ], [ 0.5129, 10.463 ], [ 0.5146, 10.4777 ], [ 0.5193, 10.4816 ], [ 0.5257, 10.4798 ], [ 0.5289, 10.4834 ], [ 0.5325, 10.506 ], [ 0.5393, 10.5074 ], [ 0.5541, 10.4995 ], [ 0.563, 10.4985 ], [ 0.5698, 10.5038 ], [ 0.5605, 10.5114 ], [ 0.5645, 10.5512 ], [ 0.5727, 10.5684 ], [ 0.5863, 10.5763 ], [ 0.5915, 10.5665 ], [ 0.6063, 10.5643 ], [ 0.6152, 10.5593 ], [ 0.6285, 10.5596 ], [ 0.6414, 10.5528 ], [ 0.6533, 10.5546 ], [ 0.6669, 10.5517 ], [ 0.6794, 10.5582 ], [ 0.6794, 10.5758 ], [ 0.6669, 10.5959 ], [ 0.6662, 10.6066 ], [ 0.6744, 10.6144 ], [ 0.6245, 10.6079 ], [ 0.6193, 10.6124 ], [ 0.6057, 10.616 ], [ 0.5799, 10.6136 ], [ 0.5706, 10.6215 ], [ 0.556, 10.62 ], [ 0.5557, 10.6312 ], [ 0.548, 10.6293 ], [ 0.5562, 10.6681 ], [ 0.5385, 10.6767 ] ] ] } },
{ "type": "Feature", "properties": { "iso3": "TGO", "unit_id": "87587387B21057376555627", "unit_name": "Tandjoare" }, "geometry": { "type": "Polygon", "coordinates": [ [ [ 0.3195, 10.6585 ], [ 0.2823, 10.6711 ], [ 0.2763, 10.6966 ], [ 0.2595, 10.7224 ], [ 0.2516, 10.7203 ], [ 0.2501, 10.7331 ], [ 0.2418, 10.7351 ], [ 0.2395, 10.7463 ], [ 0.2142, 10.7537 ], [ 0.2127, 10.7809 ], [ 0.204, 10.7785 ], [ 0.1643, 10.7858 ], [ 0.1497, 10.7826 ], [ 0.1203, 10.7851 ], [ 0.129, 10.7953 ], [ 0.1052, 10.8058 ], [ 0.0734, 10.8008 ], [ 0.0447, 10.7881 ], [ 0.0441, 10.7818 ], [ 0.0572, 10.7783 ], [ 0.0652, 10.7676 ], [ 0.0595, 10.7611 ], [ 0.046, 10.7542 ], [ 0.0256, 10.7516 ], [ 0.0046, 10.7563 ], [ -0.0134, 10.752 ], [ -0.0183, 10.7543 ], [ -0.0043, 10.7757 ], [ -0.0056, 10.7859 ], [ -0.0729, 10.7599 ], [ -0.0776, 10.7523 ], [ -0.0744, 10.7238 ], [ -0.088, 10.715 ], [ -0.0712, 10.6757 ], [ -0.0682, 10.6513 ], [ -0.064, 10.6414 ], [ -0.0543, 10.6315 ], [ -0.0209, 10.6195 ], [ 0.0115, 10.6026 ], [ 0.0339, 10.5963 ], [ 0.0484, 10.5875 ], [ 0.0591, 10.5682 ], [ 0.0717, 10.5545 ], [ 0.11, 10.5429 ], [ 0.1316, 10.531 ], [ 0.1415, 10.5142 ], [ 0.1537, 10.4721 ], [ 0.1548, 10.454 ], [ 0.1677, 10.44 ], [ 0.166, 10.4313 ], [ 0.1695, 10.4229 ], [ 0.1833, 10.4128 ], [ 0.1852, 10.4252 ], [ 0.1918, 10.4275 ], [ 0.2071, 10.4259 ], [ 0.2172, 10.4292 ], [ 0.2159, 10.4521 ], [ 0.2197, 10.4848 ], [ 0.2137, 10.5027 ], [ 0.2153, 10.5117 ], [ 0.2117, 10.5128 ], [ 0.1985, 10.5028 ], [ 0.1917, 10.5044 ], [ 0.1919, 10.5078 ], [ 0.2087, 10.514 ], [ 0.2072, 10.521 ], [ 0.2232, 10.5396 ], [ 0.2226, 10.5447 ], [ 0.2152, 10.5504 ], [ 0.1928, 10.5459 ], [ 0.1873, 10.5497 ], [ 0.2158, 10.5663 ], [ 0.2427, 10.5922 ], [ 0.2535, 10.587 ], [ 0.2757, 10.5916 ], [ 0.3011, 10.5861 ], [ 0.3114, 10.5966 ], [ 0.3194, 10.6215 ], [ 0.3254, 10.629 ], [ 0.3353, 10.6331 ], [ 0.3356, 10.6377 ], [ 0.3206, 10.649 ], [ 0.3195, 10.6585 ] ] ] } },
{ "type": "Feature", "properties": { "iso3": "TGO", "unit_id": "87587387B7761837107082", "unit_name": "Tone" }, "geometry": { "type": "Polygon", "coordinates": [ [ [ 0.3458, 10.6861 ], [ 0.3346, 10.6961 ], [ 0.3258, 10.716 ], [ 0.3301, 10.7367 ], [ 0.3266, 10.7512 ], [ 0.3305, 10.7574 ], [ 0.3452, 10.7531 ], [ 0.3483, 10.757 ], [ 0.3344, 10.7676 ], [ 0.3319, 10.791 ], [ 0.3214, 10.8036 ], [ 0.321, 10.8081 ], [ 0.3236, 10.8163 ], [ 0.3308, 10.818 ], [ 0.337, 10.827 ], [ 0.3717, 10.8336 ], [ 0.3848, 10.8331 ], [ 0.3714, 10.8658 ], [ 0.3657, 10.8761 ], [ 0.354, 10.8859 ], [ 0.3517, 10.8933 ], [ 0.3566, 10.9169 ], [ 0.3736, 10.9469 ], [ 0.3622, 10.954 ], [ 0.3595, 10.9604 ], [ 0.3727, 10.9756 ], [ 0.3886, 10.9848 ], [ 0.3896, 11.0046 ], [ 0.4019, 11.0022 ], [ 0.4019, 11.0208 ], [ 0.4086, 11.0269 ], [ 0.3971, 11.0299 ], [ 0.3924, 11.0375 ], [ 0.3593, 11.0447 ], [ 0.2915, 11.0504 ], [ 0.1913, 11.0716 ], [ 0.1818, 11.0685 ], [ 0.1781, 11.0463 ], [ 0.1824, 11.0412 ], [ 0.1891, 11.0402 ], [ 0.1928, 11.0324 ], [ 0.2113, 11.0301 ], [ 0.2192, 11.0136 ], [ 0.2119, 11.0037 ], [ 0.2148, 10.9848 ], [ 0.2029, 10.9758 ], [ 0.1992, 10.9662 ], [ 0.1778, 10.9748 ], [ 0.176, 10.9718 ], [ 0.1484, 10.9856 ], [ 0.137, 10.9718 ], [ 0.1212, 10.9932 ], [ 0.1033, 10.9912 ], [ 0.0905, 10.996 ], [ 0.0862, 11.0012 ], [ 0.0296, 10.9932 ], [ 0.0321, 10.9845 ], [ 0.0267, 10.9743 ], [ 0.0178, 10.9723 ], [ 0.0069, 10.9615 ], [ -0.0117, 10.9564 ], [ -0.0158, 10.9324 ], [ -0.0141, 10.9106 ], [ -0.0317, 10.8701 ], [ -0.034, 10.8503 ], [ -0.0265, 10.8254 ], [ -0.0282, 10.8182 ], [ -0.0343, 10.8077 ], [ -0.0455, 10.7998 ], [ -0.0485, 10.7899 ], [ -0.0621, 10.7814 ], [ -0.0676, 10.769 ], [ -0.0735, 10.7697 ], [ -0.0756, 10.7652 ], [ -0.0729, 10.7599 ], [ -0.0056, 10.7859 ], [ -0.0043, 10.7757 ], [ -0.0183, 10.7543 ], [ -0.0134, 10.752 ], [ 0.0046, 10.7563 ], [ 0.0256, 10.7516 ], [ 0.046, 10.7542 ], [ 0.0595, 10.7611 ], [ 0.0652, 10.7676 ], [ 0.0572, 10.7783 ], [ 0.0441, 10.7818 ], [ 0.0447, 10.7881 ], [ 0.0734, 10.8008 ], [ 0.1052, 10.8058 ], [ 0.129, 10.7953 ], [ 0.1203, 10.7851 ], [ 0.1497, 10.7826 ], [ 0.1643, 10.7858 ], [ 0.204, 10.7785 ], [ 0.2127, 10.7809 ], [ 0.2142, 10.7537 ], [ 0.2395, 10.7463 ], [ 0.2418, 10.7351 ], [ 0.2501, 10.7331 ], [ 0.2516, 10.7203 ], [ 0.2595, 10.7224 ], [ 0.2763, 10.6966 ], [ 0.2823, 10.6711 ], [ 0.2917, 10.6655 ], [ 0.3024, 10.6628 ], [ 0.3067, 10.6727 ], [ 0.3185, 10.6724 ], [ 0.3458, 10.6861 ] ] ] } },
{ "type": "Feature", "properties": { "iso3": "TGO", "unit_id": "87587387B27737030430019", "unit_name": "Cinkasse" }, "geometry": { "type": "Polygon", "coordinates": [ [ [ 0.1913, 11.0716 ], [ 0.0355, 11.1113 ], [ -0.0935, 11.1293 ], [ -0.1317, 11.138 ], [ -0.1349, 11.1272 ], [ -0.142, 11.1192 ], [ -0.1423, 11.1066 ], [ -0.1398, 11.1043 ], [ -0.1248, 11.1049 ], [ -0.1097, 11.0966 ], [ -0.0751, 11.0882 ], [ -0.0675, 11.0885 ], [ -0.0548, 11.0999 ], [ -0.0258, 11.108 ], [ -0.016, 11.1092 ], [ -0.0006, 11.1032 ], [ 0.0078, 11.0977 ], [ 0.0241, 11.0551 ], [ 0.0296, 10.9932 ], [ 0.0862, 11.0012 ], [ 0.0905, 10.996 ], [ 0.1033, 10.9912 ], [ 0.1212, 10.9932 ], [ 0.137, 10.9718 ], [ 0.1484, 10.9856 ], [ 0.176, 10.9718 ], [ 0.1778, 10.9748 ], [ 0.1992, 10.9662 ], [ 0.2029, 10.9758 ], [ 0.2148, 10.9848 ], [ 0.2119, 11.0037 ], [ 0.2192, 11.0136 ], [ 0.2113, 11.0301 ], [ 0.1928, 11.0324 ], [ 0.1891, 11.0402 ], [ 0.1824, 11.0412 ], [ 0.1781, 11.0463 ], [ 0.1818, 11.0685 ], [ 0.1913, 11.0716 ] ] ] } },
{ "type": "Feature", "properties": { "iso3": "TGO", "unit_id": "87587387B71778292691565", "unit_name": "Naki-Ouest" }, "geometry": { "type": "Polygon", "coordinates": [ [ [ 0.5971, 10.9791 ], [ 0.591, 10.976 ], [ 0.5755, 10.9787 ], [ 0.5507, 10.9672 ], [ 0.5008, 10.9366 ], [ 0.5092, 10.9526 ], [ 0.5098, 10.9778 ], [ 0.5071, 10.9847 ], [ 0.4914, 10.9869 ], [ 0.5027, 11.0043 ], [ 0.5039, 11.0127 ], [ 0.4449, 11.0233 ], [ 0.3924, 11.0375 ], [ 0.3971, 11.0299 ], [ 0.4086, 11.0269 ], [ 0.4019, 11.0208 ], [ 0.4019, 11.0022 ], [ 0.3896, 11.0046 ], [ 0.3886, 10.9848 ], [ 0.3727, 10.9756 ], [ 0.3595, 10.9604 ], [ 0.3622, 10.954 ], [ 0.3736, 10.9469 ], [ 0.3566, 10.9169 ], [ 0.3517, 10.8933 ], [ 0.354, 10.8859 ], [ 0.3657, 10.8761 ], [ 0.3714, 10.8658 ], [ 0.3848, 10.8331 ], [ 0.3717, 10.8336 ], [ 0.337, 10.827 ], [ 0.3308, 10.818 ], [ 0.3236, 10.8163 ], [ 0.3214, 10.8036 ], [ 0.3319, 10.791 ], [ 0.3344, 10.7676 ], [ 0.3483, 10.757 ], [ 0.3452, 10.7531 ], [ 0.3305, 10.7574 ], [ 0.3274, 10.7555 ], [ 0.3301, 10.7367 ], [ 0.3258, 10.716 ], [ 0.3346, 10.6961 ], [ 0.3458, 10.6861 ], [ 0.3511, 10.682 ], [ 0.3734, 10.6832 ], [ 0.3767, 10.6805 ], [ 0.3786, 10.6611 ], [ 0.4143, 10.654 ], [ 0.4351, 10.6382 ], [ 0.4408, 10.6256 ], [ 0.4582, 10.6283 ], [ 0.4714, 10.6345 ], [ 0.4901, 10.6323 ], [ 0.5112, 10.6353 ], [ 0.5221, 10.6405 ], [ 0.5385, 10.6767 ], [ 0.5143, 10.6798 ], [ 0.4825, 10.693 ], [ 0.4813, 10.7092 ], [ 0.508, 10.7079 ], [ 0.5118, 10.7308 ], [ 0.5082, 10.7608 ], [ 0.5094, 10.7796 ], [ 0.5306, 10.7959 ], [ 0.5297, 10.8147 ], [ 0.5227, 10.8259 ], [ 0.5285, 10.8304 ], [ 0.5372, 10.8262 ], [ 0.5363, 10.8368 ], [ 0.5276, 10.8444 ], [ 0.5306, 10.8483 ], [ 0.5342, 10.8465 ], [ 0.5382, 10.8544 ], [ 0.5365, 10.863 ], [ 0.5407, 10.8648 ], [ 0.541, 10.8769 ], [ 0.5338, 10.8857 ], [ 0.5398, 10.8933 ], [ 0.5383, 10.8975 ], [ 0.5444, 10.9033 ], [ 0.5534, 10.9039 ], [ 0.5695, 10.9151 ], [ 0.5772, 10.908 ], [ 0.5731, 10.9448 ], [ 0.5765, 10.9475 ], [ 0.5765, 10.9526 ], [ 0.5883, 10.9605 ], [ 0.5971, 10.9791 ] ] ] } },
{ "type": "Feature", "properties": { "iso3": "TGO", "unit_id": "87587387B27284604049965", "unit_name": "Oti-Sud" }, "geometry": { "type": "Polygon", "coordinates": [ [ [ 0.6798, 9.8765 ], [ 0.6829, 9.8875 ], [ 0.6777, 9.9075 ], [ 0.6561, 9.9318 ], [ 0.6689, 9.9488 ], [ 0.6666, 9.9568 ], [ 0.6746, 9.9597 ], [ 0.6777, 9.9828 ], [ 0.6435, 9.989 ], [ 0.673, 10.0158 ], [ 0.6779, 10.0276 ], [ 0.6784, 10.0384 ], [ 0.687, 10.0532 ], [ 0.6867, 10.0821 ], [ 0.6722, 10.1112 ], [ 0.6757, 10.1413 ], [ 0.6837, 10.1436 ], [ 0.6883, 10.1557 ], [ 0.698, 10.1671 ], [ 0.7047, 10.168 ], [ 0.7403, 10.14 ], [ 0.7428, 10.1451 ], [ 0.7381, 10.153 ], [ 0.7388, 10.1601 ], [ 0.7331, 10.1684 ], [ 0.7543, 10.1824 ], [ 0.7679, 10.1748 ], [ 0.7812, 10.1795 ], [ 0.7941, 10.172 ], [ 0.8038, 10.1537 ], [ 0.8088, 10.1519 ], [ 0.8142, 10.1548 ], [ 0.8225, 10.1687 ], [ 0.8393, 10.2274 ], [ 0.8571, 10.2411 ], [ 0.8665, 10.2442 ], [ 0.877, 10.2547 ], [ 0.8875, 10.2736 ], [ 0.9017, 10.29 ], [ 0.8235, 10.351 ], [ 0.7743, 10.3851 ], [ 0.7835, 10.5126 ], [ 0.8014, 10.5589 ], [ 0.8065, 10.5812 ], [ 0.8121, 10.6803 ], [ 0.8049, 10.6832 ], [ 0.7984, 10.6959 ], [ 0.7864, 10.7003 ], [ 0.7778, 10.697 ], [ 0.7731, 10.6863 ], [ 0.7734, 10.677 ], [ 0.763, 10.6741 ], [ 0.7699, 10.6655 ], [ 0.7673, 10.6608 ], [ 0.7541, 10.6648 ], [ 0.7435, 10.6549 ], [ 0.7074, 10.6579 ], [ 0.6927, 10.6414 ], [ 0.6891, 10.6468 ], [ 0.6855, 10.6457 ], [ 0.6805, 10.6203 ], [ 0.6662, 10.6066 ], [ 0.669, 10.5905 ], [ 0.6794, 10.5758 ], [ 0.6794, 10.5582 ], [ 0.6755, 10.5546 ], [ 0.6669, 10.5517 ], [ 0.6533, 10.5546 ], [ 0.6414, 10.5528 ], [ 0.6285, 10.5596 ], [ 0.6152, 10.5593 ], [ 0.6063, 10.5643 ], [ 0.5915, 10.5665 ], [ 0.5863, 10.5763 ], [ 0.5727, 10.5684 ], [ 0.5645, 10.5512 ], [ 0.5605, 10.5114 ], [ 0.5698, 10.5038 ], [ 0.563, 10.4985 ], [ 0.5541, 10.4995 ], [ 0.5393, 10.5074 ], [ 0.5325, 10.506 ], [ 0.5289, 10.4834 ], [ 0.5257, 10.4798 ], [ 0.5193, 10.4816 ], [ 0.5146, 10.4777 ], [ 0.5129, 10.463 ], [ 0.528, 10.4599 ], [ 0.5327, 10.4556 ], [ 0.5298, 10.442 ], [ 0.5148, 10.4344 ], [ 0.5115, 10.4283 ], [ 0.5402, 10.396 ], [ 0.5582, 10.3842 ], [ 0.5675, 10.3462 ], [ 0.5907, 10.3357 ], [ 0.5697, 10.3114 ], [ 0.5341, 10.2852 ], [ 0.5198, 10.2547 ], [ 0.504, 10.2332 ], [ 0.5022, 10.2181 ], [ 0.4932, 10.2134 ], [ 0.4857, 10.2134 ], [ 0.4789, 10.2009 ], [ 0.4732, 10.1983 ], [ 0.4613, 10.2055 ], [ 0.4534, 10.2048 ], [ 0.424, 10.1854 ], [ 0.4186, 10.1919 ], [ 0.41, 10.1897 ], [ 0.407, 10.1852 ], [ 0.408, 10.1766 ], [ 0.4217, 10.1734 ], [ 0.4357, 10.1612 ], [ 0.4209, 10.1544 ], [ 0.403, 10.1526 ], [ 0.3879, 10.1408 ], [ 0.384, 10.1289 ], [ 0.3747, 10.1365 ], [ 0.3569, 10.1255 ], [ 0.3474, 10.0956 ], [ 0.3539, 10.0826 ], [ 0.3858, 10.0769 ], [ 0.4134, 10.06 ], [ 0.4148, 10.0525 ], [ 0.4079, 10.0195 ], [ 0.4224, 9.9942 ], [ 0.4227, 9.9864 ], [ 0.4181, 9.9762 ], [ 0.421, 9.964 ], [ 0.4262, 9.9585 ], [ 0.4471, 9.9564 ], [ 0.4538, 9.9527 ], [ 0.4561, 9.9471 ], [ 0.4654, 9.9439 ], [ 0.486, 9.9535 ], [ 0.4972, 9.9467 ], [ 0.4994, 9.9416 ], [ 0.5064, 9.9413 ], [ 0.5139, 9.9503 ], [ 0.5197, 9.9515 ], [ 0.527, 9.9434 ], [ 0.5249, 9.9361 ], [ 0.5151, 9.9248 ], [ 0.5151, 9.9166 ], [ 0.5241, 9.9015 ], [ 0.5846, 9.8811 ], [ 0.5879, 9.8859 ], [ 0.6006, 9.8892 ], [ 0.6262, 9.8835 ], [ 0.6341, 9.8937 ], [ 0.6413, 9.8946 ], [ 0.6542, 9.8779 ], [ 0.659, 9.877 ], [ 0.666, 9.8828 ], [ 0.6725, 9.8832 ], [ 0.6798, 9.8765 ] ] ] } }
]
}
